Title,All_Category,HCO,Full Address,Street Address,City,State,ZIP,OtherAddresses
Direct Medical Supply Inc,"Home Care, Durable Medical Equipment",714418,"1217 McHenry Road, Suite 232
Buffalo Grove, Illinois 60089",1217 McHenry Road,"Suite 232
Buffalo Grove",Illinois,60089,"DBA: Direct Medical Supply Inc1217 Mchenry Rd suite 232, Buffalo Grove, IL, 60089"
Owl Rexall Drug,"Home Care, Durable Medical Equipment",706701,"837 W Arrow Hwy
Glendora, California 91740","837 W Arrow Hwy
Glendora",California 91740,,,"DBA: Owl Rexall Drug837 W Arrow Hwy, Glendora, CA, 91740"
Unicare Pharmacy Inc.,"Home Care, Durable Medical Equipment",711064,"7039 Valjean Ave
Van Nuys, California 91406","7039 Valjean Ave
Van Nuys",California 91406,,,"DBA: AleraCare Pharmacy California7039 Valjean Ave, Van Nuys, CA, 91406"
"Great Plains Restorative Services, LLC","Home Care, Durable Medical Equipment",701515,"1212 East Main Avenue
Bismarck, North Dakota 58501","1212 East Main Avenue
Bismarck",North Dakota 58501,,,"1212 East Main Ave, Bismarck, ND, 58501"
"Artheon Orthopedic Devices, Inc.","Home Care, Durable Medical Equipment",706355,"1888 Arrow Hwy
La Verne, California 91750","1888 Arrow Hwy
La Verne",California 91750,,,"1888 Arrow Hwy, La Verne, CA, 91750"
A&R Pharmacy,"Home Care, Durable Medical Equipment",710630,"1155 Main Street, Unit 109
Jupiter, Florida 33458",1155 Main Street,"Unit 109
Jupiter",Florida,33458,"DBA: Pharmacy at Abacoa, Inc.1155 Main Street, Unit 109, Jupiter, FL, 33458"
"Sunbeam Crambria, Inc.","Home Care, Durable Medical Equipment",697548,"2860 North 5th Street,
Philadelphia, Pennsylvania 19133",2860 North 5th Street,Philadelphia,Pennsylvania,19133,"DBA: Cambria Pharmacy2860 North 5th Street, Philadelphia, PA, 19133"
Sound Medical Supplies LLC,"Home Care, Durable Medical Equipment",693712,"13507 Meridian Avenue East, Suite J
Puyallup, Washington 98373",13507 Meridian Avenue East,"Suite J
Puyallup",Washington,98373,"13507 Meridian E, STE J, Puyallup, WA, 98373"
"Mercy Pharmacy Services, LLC","Home Care, Durable Medical Equipment",690891,"14528 South Outer Forty, Suite 100
Chesterfield, Missouri 63017",14528 South Outer Forty,"Suite 100
Chesterfield",Missouri,63017,"DBA: Mercy Specialty and Home Infusion Pharmacy Riverport3183 Riverport Tech Center Dr, Maryland Heights, MO, 63043"
Nephron Pharmacy,"Home Care, Durable Medical Equipment",686692,"3499 Blazer Parkway, Suite G10 North
Lexington, Kentucky 40509",3499 Blazer Parkway,"Suite G10 North
Lexington",Kentucky,40509,"DBA: Superior Postop3499 Blazer Parkway, Lexington, KY, 40509"
Total Care Medical Supplies Inc.,"Home Care, Durable Medical Equipment",686353,"464 E Main Street
Patchogue, New York 11772","464 E Main Street
Patchogue",New York 11772,,,"DBA: All Pro Medical Supplies464 E. Main Street, Patchogue, NY, 11772"
United Medical Supply LLC,"Home Care, Durable Medical Equipment",684208,"4875 South Sherwood Forest Boulevard, Suite A23
Baton Rouge, Louisiana 70816",4875 South Sherwood Forest Boulevard,"Suite A23
Baton Rouge",Louisiana,70816,"4875 South Sherwood Forest Boulevard, A23, Baton Rouge, LA, 70816"
"Family Medical Supply, Inc.","Home Care, Durable Medical Equipment",683586,"3074 Brighton 3rd Street
Brooklyn, New York 11235","3074 Brighton 3rd Street
Brooklyn",New York 11235,,,"3074 Brighton 3rd Street, Brooklyn, NY, 11235"
"Patient Care Infusion, LLC","Home Care, Durable Medical Equipment",680291,"1626 S Edward Dr
Tempe, Arizona 85281","1626 S Edward Dr
Tempe",Arizona 85281,,,"DBA: Arizona Home Care1626 S Edward Dr, Tempe, AZ, 85281"
Essentia Health,"Home Care, Durable Medical Equipment",678755,"502 East Second Street
Duluth, Minnesota 55805","502 East Second Street
Duluth",Minnesota 55805,,,"DBA: Essentia Health Brainerd Pharmacy2024 S 6th Street, Brainerd, MN, 56401"
"Visiting Nurse Association of Wisconsin, Inc.","Home Care, Durable Medical Equipment",677794,"931 Discovery Rd
Green Bay, Wisconsin 54311","931 Discovery Rd
Green Bay",Wisconsin 54311,,,"DBA: Aurora at Home931 Discovery Rd, Green Bay, WI, 54311"
"Visiting Nurse Association of Wisconsin, Inc.","Home Care, Durable Medical Equipment",677795,"11333 W. National Ave.
Milwaukee, Wisconsin 53227","11333 W. National Ave.
Milwaukee",Wisconsin 53227,,,"DBA: Aurora at Home11333 W. National Avenue, Milwaukee, WI, 53227"
NF Med Supplies Corp,"Home Care, Durable Medical Equipment",676417,"88-08 Rockaway Beach Boulevard, Suite 209, 2nd Floor
Rockaway Beach, New York 11693",88-08 Rockaway Beach Boulevard,Suite 209,2nd,Floor,"88-08 Rockaway Beach Blvd, Far Rockaway, NY, 11693"
AAA Care Rx Inc,"Home Care, Durable Medical Equipment",672568,"6729 Variel Ave
Canoga Park, California 91303","6729 Variel Ave
Canoga Park",California 91303,,,"DBA: AAA Care Pharmacy6729 Variel Ave, Canoga Park, CA, 91303"
"Innovative Care Solutions, LLC","Home Care, Durable Medical Equipment",670531,"7575 Paragon Road
Dayton, Ohio 45459","7575 Paragon Road
Dayton",Ohio 45459,,,"7575 Paragon Road, Dayton, OH, 45459"
"St Joseph Health System Home Care Services, LLC","Home Care, Durable Medical Equipment",666657,"2703 N. Ontario Street Suites 120 & 130
Burbank, California 91504","2703 N. Ontario Street Suites 120 & 130
Burbank",California 91504,,,"DBA: Providence Home Infusion LA County2703 N. Ontario Street, Suite 120/130, Burbank, CA, 91504"
MMC Pharmacy Inc.,"Home Care, Durable Medical Equipment",664799,"760 64th Street
Brooklyn, New York 11220","760 64th Street
Brooklyn",New York 11220,,,"760 64th Street, Brooklyn, NY, 11220"
Pride Medical Equipment LLC,"Home Care, Durable Medical Equipment",662421,"17W727 Butterfield Rd, Suite G
Oakbrook Terrace, Illinois 60181",17W727 Butterfield Rd,"Suite G
Oakbrook Terrace",Illinois,60181,"17W727 Butterfield Rd, Suite G, Oakbrook Terrace, IL, 60181"
Pro-Med Equipment LLC,"Home Care, Durable Medical Equipment",661410,"1320 SE Federal Hwy, Suite 213
Stuart, Florida 34994",1320 SE Federal Hwy,"Suite 213
Stuart",Florida,34994,"1320 SE Federal Hwy, Suite 213, Stuart, FL, 34994"
"PulmoCare Respiratory Services, Inc.","Home Care, Durable Medical Equipment",661525,"25837 Business Center Drive Suite A, Suite A
Redlands, California 92374",25837 Business Center Drive Suite A,"Suite A
Redlands",California,92374,"25837 Business Center Drive Suite A, Suite A, Redlands, CA, 92374"
"DME FAMILY CARE, INC","Home Care, Durable Medical Equipment",658269,"108-10 72nd Ave, 3FL
Forest Hills, New York 11375",108-10 72nd Ave,"3FL
Forest Hills",New,York,"108-10 72nd Ave Fl 3, Forest Hills, NY, 11375"
Mercy LLC,"Home Care, Durable Medical Equipment",654427,"501 Darby Creek Rd Ste 5,
Lexington, Kentucky 40509",501 Darby Creek Rd Ste 5,Lexington,Kentucky,40509,"DBA: Kentucky Nebs/Breathe Easy Get Nebs501 Darby Creek Rd Ste 5, Lexington, KY, 40509"
"Froedtert Health Home Infusion, LLC","Home Care, Durable Medical Equipment",646380,"N86W12999 Nightingale Way, Suite 1047
Menomonee Falls, Wisconsin 53051",N86W12999 Nightingale Way,"Suite 1047
Menomonee Falls",Wisconsin,53051,"DBA: Froedtert Home InfusionN86W12999 Nightingale Way, Menomonee Falls, WI, 53051"
Specialty Pharmacy Management LLC,"Home Care, Durable Medical Equipment",648099,"15 Earhart Drive, Suite 101
Amherst, New York 14221",15 Earhart Drive,"Suite 101
Amherst",New,York,"DBA: Reliance Rx15 Earhart Drive, Suite 101, Amherst, NY, 14221"
"Ochsner Outpatient and Home Infusion Pharmacy, L.L.C.","Home Care, Durable Medical Equipment",647132,"4115 Jefferson Highway
New Orleans, Louisiana 70121","4115 Jefferson Highway
New Orleans",Louisiana 70121,,,"DBA: Ochsner Outpatient and Home Infusion Pharmacy4115 Jefferson Highway, New Orleans, LA, 70121"
"East Coast Medical, LLC","Home Care, Durable Medical Equipment",644666,"7509 Connelley Dr. Suite N
Hanover, Maryland 21076","7509 Connelley Dr. Suite N
Hanover",Maryland 21076,,,"DBA: East Coast Medical, LLC7509 Connelley Drive, Suite N, Hanover, MD, 21076"
"Indiana University Health, Inc.","Home Care, Durable Medical Equipment",644389,"950 N. Meridian St., Suite 700
Indianapolis, Indiana 46204",950 N. Meridian St.,"Suite 700
Indianapolis",Indiana,46204,"DBA: Indiana University Health Home Care950 North Meridian, Suite 700, Indianapolis, IN, 46204"
"MCHS Hospitals, Inc.","Home Care, Durable Medical Equipment",642597,"9576 Hwy 70
Minocqua, Wisconsin 54548","9576 Hwy 70
Minocqua",Wisconsin 54548,,,"DBA: Marshfield Medical Center-Minocqua9576 Hwy 70, Minocqua, WI, 54548"
Call Your Assistant LLC,"Home Care, Durable Medical Equipment",644241,"570 Tracy Rd. STE 660
New Whiteland, Indiana 46184","570 Tracy Rd. STE 660
New Whiteland",Indiana 46184,,,"DBA: CYA Mobility570 Tracy Rd., Ste. 660, New Whiteland, IN, 46184-9100"
"Fort Lincoln Pharmacy & Medical Equipment, LLC","Home Care, Durable Medical Equipment",644299,"3180 Bladensburg Rd. NE
Washington, District Of Columbia 20018","3180 Bladensburg Rd. NE
Washington",District Of Columbia 20018,,,"3180 Bladensburg Rd. NE, Washington, DC, 20018"
ACT INC,"Home Care, Durable Medical Equipment",640010,"2837 S Forest Ln
Grand Junction, Colorado 81501","2837 S Forest Ln
Grand Junction",Colorado 81501,,,"DBA: Slip-Busters500 High Street, Unit 1002, Oakland, CA, 94601"
ALLY MEDICAL SERVICES LLC,"Home Care, Durable Medical Equipment",634016,"127 N BROAD ST STE A
Brevard, North Carolina 28712","127 N BROAD ST STE A
Brevard",North Carolina 28712,,,"DBA: ACENTUS127 N BROAD ST STE A, Brevard, NC, 28712"
"Equipos Medicos By La Monserrate, LLC","Home Care, Durable Medical Equipment",634579,"135 Calle Colon
Aguada, Puerto Rico 00602","135 Calle Colon
Aguada",Puerto Rico 00602,,,"135 Calle Colon, Aguada, PR, 00602"
Quality of Life DME Group Inc.,"Home Care, Durable Medical Equipment",634512,"500 NE Spanish River Blvd.,Suite 101
Boca Raton, Florida 33431",500 NE Spanish River Blvd.,"Suite 101
Boca Raton",Florida,33431,"500 NE SPANISH RIVER BLVD, STE 101, Boca Raton, FL, 33431"
Preston Mobility Plus Inc.,"Home Care, Durable Medical Equipment",634491,"309 W Eldorado Pkwy Suite 110 & 112
Little Elm, Texas 75068","309 W Eldorado Pkwy Suite 110 & 112
Little Elm",Texas 75068,,,"DBA: ACENTUS309 W Eldorado Pkwy Suite 110 & 112, Little Elm, TX, 75068"
"Camera Mundi, LLC","Home Care, Durable Medical Equipment",629309,"Reparto Industrial Cartagena, Carr. #1 Km. 34.1
Caguas, Puerto Rico 00725",Reparto Industrial Cartagena,"Carr. #1 Km. 34.1
Caguas",Puerto,Rico,"DBA: Camera Mundi, LLCRpto. Ind. Cartagena Km 34.1, Carr 1, Caguas, PR, 00725"
"Memorial Hermann Pharmacy Services,LLC","Home Care, Durable Medical Equipment",621116,"21501 Park Row Dr. Suite 210
Katy, Texas 77449-2425","21501 Park Row Dr. Suite 210
Katy",Texas 77449-2425,,,"DBA: Memorial Hermann Home Health Pharmacy21501 Park Row Dr. Suite 210, Katy, TX, 77449-2425"
"Apollo Medical Group, LLC","Home Care, Durable Medical Equipment",619465,"4111 North Freeway Blvd Ste 50
Sacramento, California 95834-1940","4111 North Freeway Blvd Ste 50
Sacramento",California 95834-1940,,,"4111 North Freeway Blvd Ste 50, Sacramento, CA, 95834-1940"
"D&M Medical Supply, LLC","Home Care, Durable Medical Equipment",616155,"13321 Alondra Blvd Suite i
Santa Fe Springs, California 90670","13321 Alondra Blvd Suite i
Santa Fe Springs",California 90670,,,"13321 Alondra Blvd Suite i, Santa Fe Springs, CA, 90670"
"Lingraphicare America, Inc.","Home Care, Durable Medical Equipment",607172,"700 Alexander Park Drive, Suite 101
Princeton, New Jersey 08540",700 Alexander Park Drive,"Suite 101
Princeton",New,Jersey,"700 Alexander Park Drive, Suite 101, Princeton, NJ, 08540"
"Hospice of North Central Oklahoma, Inc.","Home Care, Durable Medical Equipment",604526,"445 Fairview
Ponca City, Oklahoma 74601","445 Fairview
Ponca City",Oklahoma 74601,,,"DBA: Hospice of North Central Oklahoma, Inc.445 Fairview, Ponca City, OK, 74601"
Sunset Pharmacy Discount Inc.,"Home Care, Durable Medical Equipment",599498,"7400 NW 19 ST Suite F-G-H
Miami, Florida 33126","7400 NW 19 ST Suite F-G-H
Miami",Florida 33126,,,"DBA: La Colonia Pharmacy Services7400 NW 19th Street. Ste. F-G-H, Miami, FL, 33126"
Family Pharmacy and Medical Supply,"Home Care, Durable Medical Equipment",599103,"9861 Bernwood Place Dr Unit 145
Fort Myers, Florida 33966","9861 Bernwood Place Dr Unit 145
Fort Myers",Florida 33966,,,"9861 Bernwood Place Dr # 145, Fort Myers, FL, 33966"
Pride Care Medical Equipment and Mobility LLC,"Home Care, Durable Medical Equipment",592174,"9007B W 51st Terr
Merriam, Kansas 66203","9007B W 51st Terr
Merriam",Kansas 66203,,,"9007B W 51st Terr, Merriam, KS, 66203"
Carter Healthcare Pharmacy and DME of Oklahoma LLC,"Home Care, Durable Medical Equipment",590611,"3105 South Meridian Ave
Oklahoma City, Oklahoma 73119","3105 South Meridian Ave
Oklahoma City",Oklahoma 73119,,,"DBA: Carter Healthcare3105 South Meridian Ave, Oklahoma City, OK, 73119"
Carter Healthcare DME of Northeast Oklahoma LLC,"Home Care, Durable Medical Equipment",590602,"2846 East 101st St
Tulsa, Oklahoma 74137","2846 East 101st St
Tulsa",Oklahoma 74137,,,"DBA: Carter Healthcare2846 East 101st St, Tulsa, OK, 74137"
Nova DME LLC,"Home Care, Durable Medical Equipment",598110,"26222 Telegraph Road, Suite 300
Southfield, Michigan 48033",26222 Telegraph Road,"Suite 300
Southfield",Michigan,48033,"26222 Telegraph Rd., Suite 300, Southfield, MI, 48033"
Texas Health Medical Support,"Home Care, Durable Medical Equipment",597808,"1100 Bridgewood Drive, Suite 107
Fort Worth, Texas 76112",1100 Bridgewood Drive,"Suite 107
Fort Worth",Texas,76112,"DBA: Texas Health Resources Infusion Pharmacy1100 Bridgewood Drive, Suite 107, Fort Worth, TX, 76112"
"Avenue Mori Medical Equipment, Inc","Home Care, Durable Medical Equipment",589886,"2320 La Mirada Dr
Vista, California 92081","2320 La Mirada Dr
Vista",California 92081,,,"2320 La Mirada Dr., Vista, CA, 92081"
Performance Medical Solutions LLC,"Home Care, Durable Medical Equipment",599015,"622 Old Trolley Rd
Summerville, South Carolina 29485","622 Old Trolley Rd
Summerville",South Carolina 29485,,,"622 Old Trolley Rd., Suite 126, Summerville, SC, 29485"
"ABC World Medical, Inc.","Home Care, Durable Medical Equipment",566734,"8550 GARDEN BLVD SUITE 105
Garden Grove, California 92844","8550 GARDEN BLVD SUITE 105
Garden Grove",California 92844,,,"8550 Garden Grove Blvd Ste 105, Garden Grove, CA, 92844"
University of MD Medical Regional Supplier Services LLC,"Home Care, Durable Medical Equipment",585474,"825 N. Hammonds Ferry Road, Suite C
Linthicum Heights, Maryland 21090",825 N. Hammonds Ferry Road,"Suite C
Linthicum Heights",Maryland,21090,"DBA: University of Maryland Medical Solutions825 N. Hammonds Ferry Road, Suite C, Linthicum Heights, MD, 21090"
"Baptist Healthcare System, Inc","Home Care, Durable Medical Equipment",593085,"1901 Campus Place
Jeffersontown, Kentucky 40299","1901 Campus Place
Jeffersontown",Kentucky 40299,,,"DBA: Baptist Health Home Care Lexington2100 Nicholasville Rd, Lexington, KY, 40503"
Integrated HomeCare Services Chicago Corporation,"Home Care, Durable Medical Equipment",591769,"191 S Gary Ave, Suite 150
Carol Stream, Illinois 60188",191 S Gary Ave,"Suite 150
Carol Stream",Illinois,60188,"DBA: Integrated Respiratory Solutions191 S Gary Ave, Suite 150, Carol Stream, IL, 60188"
"MK Infusion Pharmacy, LLC.","Home Care, Durable Medical Equipment",585117,"307 West State Street
Muscle Shoals, Alabama 35661","307 West State Street
Muscle Shoals",Alabama 35661,,,"DBA: MK Infusion Pharmacy, LLC.307 West State St., Muscle Shoals, AL, 35661"
"Holyoke Health Center, Inc.","Home Care, Durable Medical Equipment",579870,"230 Maple Street
Holyoke, Massachusetts 01040","230 Maple Street
Holyoke",Massachusetts 01040,,,"230 Maple Street, Holyoke, MA, 01040"
Warrior Service Company,"Home Care, Durable Medical Equipment",573366,"2112 South Congress Ave
West Palm Beach, Florida 33406","2112 South Congress Ave
West Palm Beach",Florida 33406,,,"1075 East 14 Street, Hialeah, FL, 33010"
"Kinnick Medical, Ltd","Home Care, Durable Medical Equipment",590295,"17W725 Butterfield Road Ste D
Oakbrook Terrace, Illinois 60181","17W725 Butterfield Road Ste D
Oakbrook Terrace",Illinois 60181,,,"17W725 Butterfield Road Ste. D, Oakbrook Terrace, IL, 60181"
"BeechTree, LLC","Home Care, Durable Medical Equipment",585155,"9332 N 95th Way Suite 209
Scottsdale, Arizona 85258","9332 N 95th Way Suite 209
Scottsdale",Arizona 85258,,,"DBA: Urgent Medical Supplies9332 N 95th Way Suite 209, Scottsdale, AZ, 85258"
Direct Medical Incorporated,"Home Care, Durable Medical Equipment",562384,"335 W Main St
Belleville, Illinois 62220","335 W Main St
Belleville",Illinois 62220,,,"335 W Main St, Belleville, IL, 62220"
"Mobility Professionals, Inc.","Home Care, Durable Medical Equipment",544419,"12 Rancho Circle
Lake Forest, California 92630","12 Rancho Circle
Lake Forest",California 92630,,,"DBA: Urology Professionals12 Rancho Circle, Lake Forest, CA, 92630"
Coram LLC,"Home Care, Durable Medical Equipment",559903,"2100 Highland Corporate Drive
Cumberland, Rhode Island 02864","2100 Highland Corporate Drive
Cumberland",Rhode Island 02864,,,"DBA: Coram CVS/specialty Infusion Services11660 West Executive Drive, Boise, ID, 83713"
AMERICAN HOME MEDICAL EQUIPMENT COMPANY LLC,"Home Care, Durable Medical Equipment",528330,"230 LOWTHER STREET
Lemoyne, Pennsylvania 17043","230 LOWTHER STREET
Lemoyne",Pennsylvania 17043,,,"230 LOWTHER STREET, Lemoyne, PA, 17043"
D & M Medical Supply Inc.,"Home Care, Durable Medical Equipment",573635,"738 S. Buffalo Grove Rd
Buffalo Grove, Illinois 60089","738 S. Buffalo Grove Rd
Buffalo Grove",Illinois 60089,,,"738 S. Buffalo Grove Rd, Buffalo Grove, IL, 60089"
"Independent Life Medical Supplies, LLC","Home Care, Durable Medical Equipment",567926,"2036 Blake St
Berkeley, California 94704","2036 Blake St
Berkeley",California 94704,,,"2036 Blake St, Berkeley, CA, 94704"
American Kinetics Lab Inc.,"Home Care, Durable Medical Equipment",568700,"82 4th Ave Ste 1
Brooklyn, New York 11217","82 4th Ave Ste 1
Brooklyn",New York 11217,,,"82 4th Avenue Suite 1, Brooklyn, NY, 11217"
"Ave Z Pharmacy, Inc","Home Care, Durable Medical Equipment",533303,"1324 Sheepshead Bay Road
Brooklyn, New York 11235","1324 Sheepshead Bay Road
Brooklyn",New York 11235,,,"DBA: Monica's Pharmacy1324 Sheepshead Bay Road, Brooklyn, NY, 11235"
Soleo Health,"Home Care, Durable Medical Equipment",574329,"6190 Shamrock Court Suite 100
Dublin, Ohio 43016","6190 Shamrock Court Suite 100
Dublin",Ohio 43016,,,"DBA: Soleo Health10633 Rene Street, Lenexa, KS, 66215"
Westfields Hospital Inc.,"Home Care, Durable Medical Equipment",572145,"535 Hospital Rd.
New Richmond, Wisconsin 54017","535 Hospital Rd.
New Richmond",Wisconsin 54017,,,"DBA: Westfields Hospital535 Hospital Road, New Richmond, WI, 54017"
Walnut Home Therapeutics Inc.,"Home Care, Durable Medical Equipment",581052,"3500 Horizon Drive
King Of Prussia, Pennsylvania 19406","3500 Horizon Drive
King Of Prussia",Pennsylvania 19406,,,"DBA: Jefferson Home Infusion Service3500 Horizon Drive, King Of Prussia, PA, 19406"
"Alere Home Monitoring, Inc","Home Care, Durable Medical Equipment",517389,"6465 National Drive
Livermore, California 94550","6465 National Drive
Livermore",California 94550,,,"DBA: Acelis Connected Health Services6465 National Drive, Livermore, CA, 94550"
"Graymont Equipment Distribution, LLC","Home Care, Durable Medical Equipment",582924,"1622 W Carroll Ave
Chicago, Illinois 60612","1622 W Carroll Ave
Chicago",Illinois 60612,,,"DBA: Graymont Medical1622 W Carroll Avenue, Chicago, IL, 60612"
"Liberator Medical Supply, Inc","Home Care, Durable Medical Equipment",518292,"1823 SE Airport Rd
Stuart, Florida 34996","1823 SE Airport Rd
Stuart",Florida 34996,,,"1823 SE Airport Road, Stuart, FL, 34996"
"ProHealth Medical, LLC","Home Care, Durable Medical Equipment",542674,"500 Winderley Place, Suite 226
Maitland, Florida 32751",500 Winderley Place,"Suite 226
Maitland",Florida,32751,"DBA: AdventHealth Home Infusion556 Florida Central Parkway, Suite 1044, Longwood, FL, 32750"
B&S Medical Supply of NY Inc,"Home Care, Durable Medical Equipment",533667,"2109 W 5th St
Brooklyn, New York 11223","2109 W 5th St
Brooklyn",New York 11223,,,"2109 W 5th St, Brooklyn, NY, 11223"
Farmacia Sagrado Inc,"Home Care, Durable Medical Equipment",534375,"Calle Angel G. Martinez #3
Sabana Grande, Puerto Rico 00637","Calle Angel G. Martinez #3
Sabana Grande",Puerto Rico 00637,,,"DBA: Farmacia Sagrado CorazonCalle Angel G. Martinez #3, Sabana Grande, PR, 00637"
"ORION MEDICAL GROUP, INC.","Home Care, Durable Medical Equipment",561232,"1330 N. BLUE GUM ST., A
Anaheim, California 92806",1330 N. BLUE GUM ST.,"A
Anaheim",California,92806,"1330-A N. Blue Gum Street, Anaheim, CA, 92806"
"3rd St Medical Supply, Inc.","Home Care, Durable Medical Equipment",524847,"5750 North Sam Houston Parkway East, Suite 513
Houston, Texas 77032",5750 North Sam Houston Parkway East,"Suite 513
Houston",Texas,77032,"DBA: Dynamic Repair Solutions5750 North Sam Houston Parkway East STE 513, Houston, TX, 77032"
"Ally Medical Services, LLC","Home Care, Durable Medical Equipment",518247,"4951-B E. Adamo Drive, Suite 220
Tampa, Florida 33605",4951-B E. Adamo Drive,"Suite 220
Tampa",Florida,33605,"DBA: Acentus4951B E Adamo Drive, Suite 220, Tampa, FL, 33605"
"Welcare Drug Store, Inc.","Home Care, Durable Medical Equipment",536113,"54 Graham Avenue
Brooklyn, New York 11206","54 Graham Avenue
Brooklyn",New York 11206,,,"DBA: Welcare Pharmacy54 Graham Ave., Brooklyn, NY, 11206"
Far Rockaway Drugs Inc.,"Home Care, Durable Medical Equipment",520844,"1727 Seagirt Blvd.
Far Rockaway, New York 11691","1727 Seagirt Blvd.
Far Rockaway",New York 11691,,,"DBA: Ocean Park Drugs/ NuCare Pharmacy & Surgical1727 Seagirt Blvd, Far Rockaway, NY, 11691"
R and J Medical Services,"Home Care, Durable Medical Equipment",537592,"789 Busch Court
Columbus, Ohio 43229","789 Busch Court
Columbus",Ohio 43229,,,"DBA: R and J Medical Services789 Busch Court, Columbus, OH, 43229"
"Medcare Solutions Medical Equipment & Supplies, LLC","Home Care, Durable Medical Equipment",573278,"6420 Polaris Drive, Suite 2A
Laredo, Texas 78041",6420 Polaris Drive,"Suite 2A
Laredo",Texas,78041,"6420 Polaris Drive, Suite 2A, Laredo, TX, 78041"
"Access Medical, Inc.","Home Care, Durable Medical Equipment",528366,"3266 Grey Hawk Court
Carlsbad, California 92010","3266 Grey Hawk Court
Carlsbad",California 92010,,,"3266 Grey Hawk Court, Carlsbad, CA, 92010"
Centerspan LLC,"Home Care, Durable Medical Equipment",522093,"235 S. Fehr Way
Bay Shore, New York 11706","235 S. Fehr Way
Bay Shore",New York 11706,,,"235 S. Fehr Way, Bay Shore, NY, 11706"
"Endeavor Medical Supply, Inc.","Home Care, Durable Medical Equipment",564446,"5552 Cerritos Avenue, Suite C
Cypress, California 90630",5552 Cerritos Avenue,"Suite C
Cypress",California,90630,"5552 Cerritos Avenue, Suite C, Cypress, CA, 90630"
"Norco, Inc.","Home Care, Durable Medical Equipment",498570,"1125 W. Amity
Boise, Idaho 83705","1125 W. Amity
Boise",Idaho 83705,,,"1125 W. Amity, Boise, ID, 83705"
"American Surgical Supply, Inc.","Home Care, Durable Medical Equipment",528250,"347 Pottsville St. Clair Hwy, Ste 2
Pottsville, Pennsylvania 17901",347 Pottsville St. Clair Hwy,"Ste 2
Pottsville",Pennsylvania,17901,"347 POTTSVILLE ST CLAIR HWY, SUITE 2, Pottsville, PA, 17901"
"One Homecare Solutions, LLC","Home Care, Durable Medical Equipment",552654,"3351 Executive Way
Miramar, Florida 33025","3351 Executive Way
Miramar",Florida 33025,,,"DBA: One Home Medical Equipment, LLC3351 Executive Way, Miramar, FL, 33025"
"WMK, LLC","Home Care, Durable Medical Equipment",525363,"4199 Kinross Lakes Parkway, Suite 300
Richfield, Ohio 44286",4199 Kinross Lakes Parkway,"Suite 300
Richfield",Ohio,44286,"DBA: Mobility Works200 East 1st Street, Tea, SD, 57064"
"Rehabilitation Equipment Associates, Inc","Home Care, Durable Medical Equipment",517513,"1015 Candia Road
Manchester, New Hampshire 03109","1015 Candia Road
Manchester",New Hampshire 03109,,,"1015 Candia Road, Manchester, NH, 03109"
"Advanced Recovery Equipment & Suppies, LLC","Home Care, Durable Medical Equipment",536567,"1100 Coney Island Ave, 3rd Floor
Brooklyn, New York 11230",1100 Coney Island Ave,"3rd Floor
Brooklyn",New,York,"1100 Coney Island Ave, 3rd Floor, Brooklyn, NY, 11230"
A&M MEDICAL SUPPLY LLC,"Home Care, Durable Medical Equipment",532161,"567 Sterling Drive,
Richardson, Texas 75081",567 Sterling Drive,Richardson,Texas,75081,"567 Sterling Dr., Richardson, TX, 75081"
Sincere Care Management Inc.,"Home Care, Durable Medical Equipment",559513,"2272 Palou Avenue
San Francisco, California 94124","2272 Palou Avenue
San Francisco",California 94124,,,"DBA: SINCERE CARE MEDICAL SUPPLY728 PACIFIC AVE #116, San Francisco, CA, 94108"
"Fundamental Medical Supply, Inc.","Home Care, Durable Medical Equipment",512079,"7114 Reseda Blvd.
Reseda, California 91335","7114 Reseda Blvd.
Reseda",California 91335,,,"7114 Reseda Blvd., Reseda, CA, 91335"
BioTek reMEDys Inc.,"Home Care, Durable Medical Equipment",535584,"2 Penns Way, Suite #404
New Castle, Delaware 19720",2 Penns Way,"Suite #404
New Castle",Delaware,19720,"DBA: BioTek reMEDys2 Penns Way,Suite 404, New Castle, DE, 19720"
Mori Medical Equipment Inc,"Home Care, Durable Medical Equipment",521219,"2320 La Mirada Dr.
Vista, California 92081","2320 La Mirada Dr.
Vista",California 92081,,,"2320 La Mirada Dr., Vista, CA, 92081"
"Richards Home Medical, Inc","Home Care, Durable Medical Equipment",498400,"9201 Enterprise Court Unit C-6
Manassas Park, Virginia 20111","9201 Enterprise Court Unit C-6
Manassas Park",Virginia 20111,,,"9201 Enterprise Court Unit C-6, Manassas Park, VA, 20111"
Merc Medical Supply Co. Inc.,"Home Care, Durable Medical Equipment",505073,"10518 Kipp Way Dr. Unit D
Houston, Texas 77099","10518 Kipp Way Dr. Unit D
Houston",Texas 77099,,,"10518 Kipp Way Drive Unit D, Houston, TX, 77099"
Sanford Health of Northern Minnesota,"Home Care, Durable Medical Equipment",539044,"1300 Anne Street NW
Bemidji, Minnesota 56601","1300 Anne Street NW
Bemidji",Minnesota 56601,,,"DBA: Sanford Bemidji Medical Center and Clinics1300 Anne St NW, Bemidji, MN, 56601"
"Orange Coast Respiratory Care Services, Inc.","Home Care, Durable Medical Equipment",480825,"755 South Haywood Street
Waynesville, North Carolina 28786","755 South Haywood Street
Waynesville",North Carolina 28786,,,"DBA: Carolina Breathing Solutions755 South Haywood Street, Waynesville, NC, 28786"
MMT Medical Supply Corp.,"Home Care, Durable Medical Equipment",497545,"Avenida San Patricio 786 Urbanizacion Las Lomas
San Juan, Puerto Rico 00921","Avenida San Patricio 786 Urbanizacion Las Lomas
San Juan",Puerto Rico 00921,,,"Avenida San Patricio  786  Urbanizacion Las Lomas, San Juan, PR, 00921"
"Middletown LTC Pharmacy, LLC","Home Care, Durable Medical Equipment",512389,"280 Route 211 East, Building #2 Suite 112
Middletown, New York 10940",280 Route 211 East,"Building #2 Suite 112
Middletown",New,York,"DBA: Hudson Regional LTC Pharmacy280 Route 211 East, Building #2, Suite 112, Middletown, NY, 10940"
"Express Medical & Nutrition Supply, Inc.","Home Care, Durable Medical Equipment",479695,"6306 Benjamin Road, Suite 611
Tampa, Florida 33634",6306 Benjamin Road,"Suite 611
Tampa",Florida,33634,"6306 Benjamin Road, Suite 611, Tampa, FL, 33634"
"Redemptive Medical Equipment, LLC","Home Care, Durable Medical Equipment",468150,"16190 E. 13 Mile Road
Roseville, Michigan 48066","16190 E. 13 Mile Road
Roseville",Michigan 48066,,,"16190 E. 13 Mile Road, Roseville, MI, 48066"
"Orange Cut Rate Drug Store, Inc.","Home Care, Durable Medical Equipment",476049,"1324 Grove Park Dr
Orangeburg, South Carolina 29115","1324 Grove Park Dr
Orangeburg",South Carolina 29115,,,"DBA: Grove Park Pharmacy1324 Grove Park Dr., Orangeburg, SC, 29115"
"Frontier Access & Mobility Systems, Inc.","Home Care, Durable Medical Equipment",522049,"1207 E. Pershing Boulevard
Cheyenne, Wyoming 82001","1207 E. Pershing Boulevard
Cheyenne",Wyoming 82001,,,"1207 E. Pershing Boulevard, Cheyenne, WY, 82001"
American MedEquip LLC,"Home Care, Durable Medical Equipment",488697,"1009 Enterprise Way, Suite 100
Roseville, California 95678",1009 Enterprise Way,"Suite 100
Roseville",California,95678,"1009 Enterprise Way, Suite 100, Roseville, CA, 95678"
MIA GLOBAL SOLUTIONS CORP,"Home Care, Durable Medical Equipment",506909,"4925 SW 75 Avenue
Miami, Florida 33155","4925 SW 75 Avenue
Miami",Florida 33155,,,"4925 SW 75 Avenue, Miami, FL, 33155"
Kristal Corporation,"Home Care, Durable Medical Equipment",482453,"2160 N Alma School Road # 108
Chandler, Arizona 85224","2160 N Alma School Road # 108
Chandler",Arizona 85224,,,"DBA: All Cure Medical Equipment and Supplies2160 N. Alma School Road #108, Chandler, AZ, 85224"
Sunny Medical Equipment Inc,"Home Care, Durable Medical Equipment",479805,"28601 Hoover Road
Warren, Michigan 48093","28601 Hoover Road
Warren",Michigan 48093,,,"28601 Hoover Road, Warren, MI, 48093"
"Medical Power Mobility, Inc.","Home Care, Durable Medical Equipment",497479,"Z 33 Calle 3-A Urb. Flamboyan Gardens
Bayamon, Puerto Rico 00959","Z 33 Calle 3-A Urb. Flamboyan Gardens
Bayamon",Puerto Rico 00959,,,"Z 33 Calle 3-A Urb. Flamboyan Gardens, Bayamon, PR, 00959"
"Koffel Medical Supply, Inc.","Home Care, Durable Medical Equipment",477061,"1003 W. Park Avenue
Libertyville, Illinois 60048","1003 W. Park Avenue
Libertyville",Illinois 60048,,,"1003 W. Park Avenue, Libertyville, IL, 60048"
Medical Equipment and Supplies of America LLC,"Home Care, Durable Medical Equipment",520220,"12035 34th St N, Suite 1
Saint Petersburg, Florida 33716",12035 34th St N,"Suite 1
Saint Petersburg",Florida,33716,"7315 S. Revere Parkway Suite 604, Centennial, CO, 80112"
"Stats Medical Supplies Equipment, LLC","Home Care, Durable Medical Equipment",545168,"10760 Hickory Ridge Rd., Suite 123
Columbia, Maryland 21044",10760 Hickory Ridge Rd.,"Suite 123
Columbia",Maryland,21044,"10760 Hickory Ridge Rd, Suite 123, Columbia, MD, 21044"
"Aero Mobility, Inc.","Home Care, Durable Medical Equipment",476074,"1001 N. Weir Canyon Road
Anaheim, California 92807-2517","1001 N. Weir Canyon Road
Anaheim",California 92807-2517,,,"1001 N. Weir Canyon Road, Anaheim, CA, 92807-2517"
"Respitec Medical-Care & Equipment, Inc.","Home Care, Durable Medical Equipment",508587,"401 COMMERCE WAY, UNIT 101
Longwood, Florida 32750",401 COMMERCE WAY,"UNIT 101
Longwood",Florida,32750,"401 COMMERCE WAY  UNIT 101, Longwood, FL, 32750"
"Salerno Surgical Supplies, Inc.","Home Care, Durable Medical Equipment",484123,"360 Graham Ave
Brooklyn, New York 11211","360 Graham Ave
Brooklyn",New York 11211,,,"360 graham ave, Brooklyn, NY, 11211"
Next Level Accessibility Inc,"Home Care, Durable Medical Equipment",547005,"307-1 Skidmores Rd.
Deer Park, New York 11729","307-1 Skidmores Rd.
Deer Park",New York 11729,,,"307-1 Skidmore Road, Deer Park, NY, 11729"
ALFA Medical Supply,"Home Care, Durable Medical Equipment",508040,"2808 W. Devon Ave
Chicago, Illinois 60659","2808 W. Devon Ave
Chicago",Illinois 60659,,,"2808 W. Devon Ave., Chicago, IL, 60659"
Hope Home Medical,"Home Care, Durable Medical Equipment",449457,"16910 Dallas Parkway, Suite 112
Dallas, Texas 75248",16910 Dallas Parkway,"Suite 112
Dallas",Texas,75248,"16910 Dallas Parkway, Suite 112, Dallas, TX, 75248"
Advance Group LLC,"Home Care, Durable Medical Equipment",479495,"1328 Reisterstown Road, Ste. C
Pikesville, Maryland 21208",1328 Reisterstown Road,"Ste. C
Pikesville",Maryland,21208,"DBA: Advance Group Medical Supply & Equipment1328 Reisterstown Road, Ste. C, Pikesville, MD, 21208"
"Advantage Healthcare, Inc.","Home Care, Durable Medical Equipment",448505,"2280 SW 70th Avenue, Suite 3
Fort Lauderdale, Florida 33317",2280 SW 70th Avenue,"Suite 3
Fort Lauderdale",Florida,33317,"2280 SW 70th Avenue, Suite 3, Fort Lauderdale, FL, 33317"
Forbes Rehab Services,"Home Care, Durable Medical Equipment",475859,"181 Illinois Ave. South
Mansfield, Ohio 44905","181 Illinois Ave. South
Mansfield",Ohio 44905,,,"181 Illinois Avenue South, Mansfield, OH, 44905"
Care One Medical Equipment & Supplies Inc.,"Home Care, Durable Medical Equipment",517663,"1500 West Big Beaver Road Suite 104 C
Troy, Michigan 48084","1500 West Big Beaver Road Suite 104 C
Troy",Michigan 48084,,,"DBA: Care One Medical Equipment & Supplies Inc.1500 West Big Beaver Road Suite 104 C, Troy, MI, 48084"
Orthokinect LLC,"Home Care, Durable Medical Equipment",518630,"332 E. Lincoln Ave. Ste 150
Royal Oak, Michigan 48067","332 E. Lincoln Ave. Ste 150
Royal Oak",Michigan 48067,,,"332 E. Lincoln Ave. Ste 150, Royal Oak, MI, 48067"
"J.W. Burns, LLC","Home Care, Durable Medical Equipment",476982,"121-B Castle Drive
Madison, Alabama 35758","121-B Castle Drive
Madison",Alabama 35758,,,"DBA: A Plus Medical Equipment and Supplies121-B Castle Drive, Madison, AL, 35758"
"Joerns Healthcare, LLC","Home Care, Durable Medical Equipment",462779,"2430 Whitehall Park Drive, Suite 700
Charlotte, North Carolina 28273",2430 Whitehall Park Drive,"Suite 700
Charlotte",North,Carolina,"DBA: Joerns Healthcare, LLC4223 Ponderosa Avenue, Suite B, San Diego, CA, 92123"
Colin DME,"Home Care, Durable Medical Equipment",479801,"1606 E. Hwy 77, Suite C
San Benito, Texas 78586",1606 E. Hwy 77,"Suite C
San Benito",Texas,78586,"1606 E. Highway 77, Suite C, San Benito, TX, 78586"
"A.M.S. Medical Supplies, Inc.","Home Care, Durable Medical Equipment",511641,"1028 W. Huron St
Waterford, Michigan 48328","1028 W. Huron St
Waterford",Michigan 48328,,,"1028 W. Huron St, Waterford, MI, 48328"
"Freedom Mobility Center, Inc.","Home Care, Durable Medical Equipment",441663,"110 Talbert Pointe Drive
Mooresville, North Carolina 28117","110 Talbert Pointe Drive
Mooresville",North Carolina 28117,,,"110 Talbert Pointe Drive, Mooresville, NC, 28117"
"Kadence Healthcare, Inc.","Home Care, Durable Medical Equipment",442322,"10840 Walker Street
Cypress, California 90630","10840 Walker Street
Cypress",California 90630,,,"10840 Walker Street, Cypress, CA, 90630"
"Home Health Options, Inc.","Home Care, Durable Medical Equipment",461074,"11040 Crabapple Road. Suite B
Roswell, Georgia 30075","11040 Crabapple Road. Suite B
Roswell",Georgia 30075,,,"DBA: Northside Medical Supply11040 Crabapple Road. Suite B, Roswell, GA, 30075"
"Dura Med, Inc.","Home Care, Durable Medical Equipment",484124,"600 Bessemer Ave
Llano, Texas 78643","600 Bessemer Ave
Llano",Texas 78643,,,"600 Bessemer Ave, Llano, TX, 78643"
Escambia County Health Care Authority,"Home Care, Durable Medical Equipment",532162,"1108 Douglas Avenue
Brewton, Alabama 36426","1108 Douglas Avenue
Brewton",Alabama 36426,,,"DBA: D.W. McMillan Home Medical Equipment1108 Douglas Avenue, Brewton, AL, 36426"
Keesling Rehab Systems dba Orthopedic Resources,"Home Care, Durable Medical Equipment",489626,"1109 Alfred Street, Suite 101B
Cincinnati, Ohio 45214",1109 Alfred Street,"Suite 101B
Cincinnati",Ohio,45214,"1109 Alfred Street, Cincinnati, OH, 45214"
"Mark's Family Pharmacy, LLC","Home Care, Durable Medical Equipment",480152,"205 East 3rd Avenue
Oneida, Tennessee 37841","205 East 3rd Avenue
Oneida",Tennessee 37841,,,"205 East 3rd Avenue, Oneida, TN, 37841"
"Lucent Surgical, Inc D.B.A OR Dynamics","Home Care, Durable Medical Equipment",472447,"28243 Beck Road Unit B12
Wixom, Michigan 48393","28243 Beck Road Unit B12
Wixom",Michigan 48393,,,"DBA: OR Dynamics28243 Beck Road Unit B12, Wixom, MI, 48393"
Citizens Memorial Health Care Foundation,"Home Care, Durable Medical Equipment",481702,"1500 N. Oakland
Bolivar, Missouri 65613","1500 N. Oakland
Bolivar",Missouri 65613,,,"DBA: CMH Home Medical Equipment - Buffalo309 S. Ash Suite 101, Buffalo, MO, 65622"
Dusara Corporation,"Home Care, Durable Medical Equipment",439204,"1329 W. Walnut Lane, Suite 100
Irving, Texas 75038",1329 W. Walnut Lane,"Suite 100
Irving",Texas,75038,"DBA: UniversalMed Supply330 Sand Island Access Road, Unit# 500, Honolulu, HI, 96819"
"Optima Infusion Pharmacy, Inc.","Home Care, Durable Medical Equipment",450470,"State Road #2, KM. 26.2 Bo. Espinosa
Dorado, Puerto Rico 00646",State Road #2,"KM. 26.2 Bo. Espinosa
Dorado",Puerto,Rico,"DBA: Optima HealthState Rd #2 km 26.2 Bo. Espinosa, Dorado, PR, 00646"
"P & M Quality Medical, LLC","Home Care, Durable Medical Equipment",468430,"102 N Main
Monticello, Arkansas 71655","102 N Main
Monticello",Arkansas 71655,,,"102 N Main St, Monticello, AR, 71655"
"ITC Medical Supplies, Inc.","Home Care, Durable Medical Equipment",467655,"4373 Geary Blvd Suite 102
San Francisco, California 94118","4373 Geary Blvd Suite 102
San Francisco",California 94118,,,"4373 Geary Blvd. Suite 102, San Francisco, CA, 94118"
"Range of Motion,Inc.","Home Care, Durable Medical Equipment",439700,"6689 Peachtree Industrial Blvd Ste. A
Peachtree Corners, Georgia 30092","6689 Peachtree Industrial Blvd Ste. A
Peachtree Corners",Georgia 30092,,,"6689 Peachtree Industrial Blvd., Suite A, Peachtree Cor, GA, 30092"
Fusion Custom Chairs,"Home Care, Durable Medical Equipment",482484,"1607 Prairie Street
Essexville, Michigan 48732","1607 Prairie Street
Essexville",Michigan 48732,,,"DBA: Fusion Medical Supplies1607 Prairie Street, Essexville, MI, 48732"
Monitor Medical Inc,"Home Care, Durable Medical Equipment",450780,"12999 Jess Pirtle Blvd
Sugar Land, Texas 77478","12999 Jess Pirtle Blvd
Sugar Land",Texas 77478,,,"25511 Budde Rd Ste 2702, The Woodlands, TX, 77380"
"Nazareno Enterprise and Services, LLC","Home Care, Durable Medical Equipment",461961,"Ave. Santa Cruz # 28
Bayamon, Puerto Rico 00961","Ave. Santa Cruz # 28
Bayamon",Puerto Rico 00961,,,"DBA: Nazareno ServicesAve. Santa Cruz #28, Bayamon, PR, 00961"
"ACME Medical Supplies, Inc.","Home Care, Durable Medical Equipment",491611,"1498 Reisterstown Rd., Suite 107
Pikesville, Maryland 21208",1498 Reisterstown Rd.,"Suite 107
Pikesville",Maryland,21208,"1498 Reisterstown Rd., Suite107, Pikesville, MD, 21208"
"Stellar Service, Inc. dba Superior Home Care Equipment","Home Care, Durable Medical Equipment",454354,"6690 E. Rogers Circle
Boca Raton, Florida 33487","6690 E. Rogers Circle
Boca Raton",Florida 33487,,,"DBA: Superior Home Care Equipment6690 E. Rogers Circle, Boca Raton, FL, 33487"
"Prompt Medical Equipment, LLC","Home Care, Durable Medical Equipment",456855,"7910 Adams Street
Paramount, California 90723","7910 Adams Street
Paramount",California 90723,,,"7910 Adams Street, Paramount, CA, 90723"
"SMK Pharmacy, Inc","Home Care, Durable Medical Equipment",466402,"87-02 Rockaway Beach Blvd
Rockaway Beach, New York 11693","87-02 Rockaway Beach Blvd
Rockaway Beach",New York 11693,,,"87-02 Rockaway Beach Blvd, Rockaway Beach, NY, 11693"
Tobii Dynavox LLC,"Home Care, Durable Medical Equipment",489292,"2100 Wharton Street, Suite 400
Pittsburgh, Pennsylvania 15203",2100 Wharton Street,"Suite 400
Pittsburgh",Pennsylvania,15203,"DBA: Tobii Dynavox2100 Wharton Street, Suite 400, Pittsburgh, PA, 15203"
"Brite Healthcare, L.L.C.","Home Care, Durable Medical Equipment",452776,"21400 Provincial Blvd
Katy, Texas 77450","21400 Provincial Blvd
Katy",Texas 77450,,,"DBA: Brite Healthcare21400 Provincial Blvd., Katy, TX, 77450"
"Apache Oxy-Med, Inc.","Home Care, Durable Medical Equipment",477465,"105 N. Pasadena Street #C
Gilbert, Arizona 85233","105 N. Pasadena Street #C
Gilbert",Arizona 85233,,,"DBA: Sunrise Health105 N. Pasadena St. #C, Gilbert, AZ, 85233"
"Thomas DME, LLC","Home Care, Durable Medical Equipment",502418,"1050 W University Dr, Ste 1B
Rochester, Michigan 48307-1877",1050 W University Dr,"Ste 1B
Rochester",Michigan,48307-1877,"DBA: Thomas DME, LLC1050 W University Dr, Ste 1B, Rochester, MI, 48307"
Surgical World,"Home Care, Durable Medical Equipment",451155,"1751 North 68th Ave
Hollywood, Florida 33024","1751 North 68th Ave
Hollywood",Florida 33024,,,"1751 North 68th Avenue, Hollywood, FL, 33024"
Anderson Wheelchair & Therapeutic Supply Inc.,"Home Care, Durable Medical Equipment",478182,"1117 2nd Street SW
Rochester, Minnesota 55902","1117 2nd Street SW
Rochester",Minnesota 55902,,,"DBA: Anderson Wheelchair Inc.1117 2nd Street SW, Rochester, MN, 55902"
"Specialized Orthopedic Solutions, Inc","Home Care, Durable Medical Equipment",509713,"9259 Eton Avenue
Chatsworth, California 91311","9259 Eton Avenue
Chatsworth",California 91311,,,"DBA: SOS MEDICAL9259 Eton Avenue, Chatsworth, CA, 91311"
AxisCare Health Logistics Inc.,"Home Care, Durable Medical Equipment",437224,"Pepsi Industrial Park PR #2 Km 19.5
Toa Baja, Puerto Rico 00949","Pepsi Industrial Park PR #2 Km 19.5
Toa Baja",Puerto Rico 00949,,,"DBA: AxisCarePepsi Industrial Park PR #2 Km 19.5, Toa Baja, PR, 00949"
Laboy Sales & Rentals Corp,"Home Care, Durable Medical Equipment",453708,"Carr. 830 km.2.3 Bo. Cerro Gordo
Bayamon, Puerto Rico 00956","Carr. 830 km.2.3 Bo. Cerro Gordo
Bayamon",Puerto Rico 00956,,,"Carr. 830 km.2.3 Bo. Cerro Gordo, Bayamon, PR, 00956"
Central Louisiana Medical Supply,"Home Care, Durable Medical Equipment",476985,"125 La Rue Medecine
Marksville, Louisiana 71351","125 La Rue Medecine
Marksville",Louisiana 71351,,,"125 La Rue Medecine, Marksville, LA, 71351"
"MD Orthopedics, Inc.","Home Care, Durable Medical Equipment",469315,"13833 Ventura Boulevard, Suite 206
Sherman Oaks, California 91423",13833 Ventura Boulevard,"Suite 206
Sherman Oaks",California,91423,"13833 Ventura Boulevard, Suite 206, Sherman Oaks, CA, 91423"
"Vermont Medical Supply, Inc","Home Care, Durable Medical Equipment",456830,"2681 W Olympic Blvd Suite 101
Los Angeles, California 90006","2681 W Olympic Blvd Suite 101
Los Angeles",California 90006,,,"DBA: MASH2681 W. Olympic Blvd., Suite 101, Los Angeles, CA, 90006"
"OSS Orthopaedic Hospital, LLC","Home Care, Durable Medical Equipment",497863,"1861 Powder Mill Road
York, Pennsylvania 17402","1861 Powder Mill Road
York",Pennsylvania 17402,,,"DBA: OSS Health1861 Powder Mill Road, York, PA, 17402"
Vision Infusion Services Inc.,"Home Care, Durable Medical Equipment",458221,"Carr 869, Calle 19, Solar 1 A , Urb. Palmas Industrial Park
Catano, Puerto Rico 00962",Carr 869,Calle 19,Solar,1,"DBA: Advanced Infusion ServicesCarr 869,  Calle 19, Solar 1 A , Urb. Palmas Industrial Park, Catano, PR, 00962"
Ermi LLC,"Home Care, Durable Medical Equipment",436362,"441 Armour Place
Atlanta, Georgia 30324","441 Armour Place
Atlanta",Georgia 30324,,,"441 Armour Place, NE, Atlanta, GA, 30324"
Joseph L. Lescano,"Home Care, Durable Medical Equipment",458158,"1270 North Marine Drive, Ste 102
Tamuning, Guam 96913",1270 North Marine Drive,"Ste 102
Tamuning",Guam,96913,"DBA: Medquest Medical Supply1270 North Marine Drive Ste 102, Tamuning, GU, 96913"
Hye Pharmacy Inc,"Home Care, Durable Medical Equipment",463150,"5236 Santa Monica Blvd.
Los Angeles, California 90029","5236 Santa Monica Blvd.
Los Angeles",California 90029,,,"1200 S. Central Ave., Glendale, CA, 91204"
"Altamaha DME, Inc","Home Care, Durable Medical Equipment",467942,"477 S. First St.
Jesup, Georgia 31545","477 S. First St.
Jesup",Georgia 31545,,,"DBA: Coastal Medical Equipment477 South First Street, Jesup, GA, 31545"
Samsung Medical Supply USA Corp,"Home Care, Durable Medical Equipment",469165,"2727 West Olympic Boulevard, Suite 112
Los Angeles, California 90006",2727 West Olympic Boulevard,"Suite 112
Los Angeles",California,90006,"DBA: Samsung Medical Supplies2727 West Olympic Boulevard, Suite 112, Los Angeles, CA, 90006"
"UnitedCare, LLC","Home Care, Durable Medical Equipment",501376,"100 Village Drive STE 100
Fairmont, West Virginia 26554","100 Village Drive STE 100
Fairmont",West Virginia 26554,,,"100 Village Drive STE 100, Fairmont, WV, 26554"
"A Homecare Device, Inc.","Home Care, Durable Medical Equipment",467872,"5739 York Blvd
Los Angeles, California 90042","5739 York Blvd
Los Angeles",California 90042,,,"5739 York Blvd, Los Angeles, CA, 90042"
"A-Z Medical Supply, Inc.","Home Care, Durable Medical Equipment",442324,"1141 S. Arlington Heights Road, Suite B
Arlington Heights, Illinois 60005",1141 S. Arlington Heights Road,"Suite B
Arlington Heights",Illinois,60005,"1141 S. Arlington Heights Road, Suite B, Arlington Heights, IL, 60005"
"La Cienega Enterprise, Inc.","Home Care, Durable Medical Equipment",468402,"7215 Kester Avenue
Van Nuys, California 91405","7215 Kester Avenue
Van Nuys",California 91405,,,"DBA: La Cienega Pharmacy7215 Kester Avenue, Van Nuys, CA, 91405"
PR Medical Orthotics Services Corp.,"Home Care, Durable Medical Equipment",505217,"Ave. Gilberto Concepcion de Gracia 7-14B & 7-13B
Bayamon, Puerto Rico 00960","Ave. Gilberto Concepcion de Gracia 7-14B & 7-13B
Bayamon",Puerto Rico 00960,,,"Ave. Gilberto Concepcion de Gracia 7-14B & 7-13B, Bayamon, PR, 00960"
"Alpha & Omega Health, Inc.","Home Care, Durable Medical Equipment",465772,"18919 Colima Road
Rowland Heights, California 91748","18919 Colima Road
Rowland Heights",California 91748,,,"DBA: Diamond Medical Supply18919 Colima Road, Rowland Heights, CA, 91748"
BAYOU MEDICAL LLC,"Home Care, Durable Medical Equipment",498722,"301 Prairie Street
Winnsboro, Louisiana 71295","301 Prairie Street
Winnsboro",Louisiana 71295,,,"DBA: BAYOU MEDICAL LLC301 Prairie Street, Winnsboro, LA, 71295"
Apria Healthcare LLC,"Home Care, Durable Medical Equipment",439173,"7353 Company Drive
Indianapolis, Indiana 46237","7353 Company Drive
Indianapolis",Indiana 46237,,,"6325 Corporate Dr, Colorado Springs, CO, 80919"
Advance Medical Services,"Home Care, Durable Medical Equipment",452204,"628 E. Centre Park Blvd.
Desoto, Texas 75115","628 E. Centre Park Blvd.
Desoto",Texas 75115,,,"628 E Centre Park Blvd., Desoto, TX, 75115"
Apex Pharmacy,"Home Care, Durable Medical Equipment",450472,"1051 East Grand Avenue
Arroyo Grande, California 93420","1051 East Grand Avenue
Arroyo Grande",California 93420,,,"DBA: Bestcare Pharmacy1051 East Grand Avenue, Arroyo Grande, CA, 93420"
First Care Medical Supply,"Home Care, Durable Medical Equipment",467925,"7907 Melrose Ave.
Los Angeles, California 90046","7907 Melrose Ave.
Los Angeles",California 90046,,,"DBA: First Care Medical Supply7907 Melrose Ave., Los Angeles, CA, 90046"
"Joint Technology, Inc.","Home Care, Durable Medical Equipment",468712,"919 S. Bryant
Edmond, Oklahoma 73034","919 S. Bryant
Edmond",Oklahoma 73034,,,"919 S. Bryant, Edmond, OK, 73034"
5 Medical,"Home Care, Durable Medical Equipment",479492,"4656 E. Dakota Ave Suite 103
Fresno, California 93726","4656 E. Dakota Ave Suite 103
Fresno",California 93726,,,"4656 E. Dakota Ave Ste 103, Fresno, CA, 93726-4727"
"Florida Palliative Equipment, LLC dba Accent Medical","Home Care, Durable Medical Equipment",446752,"2887 SE 62nd Street
Ocala, Florida 34480","2887 SE 62nd Street
Ocala",Florida 34480,,,"DBA: Accent Medical2887 SE 62nd Street, Ocala, FL, 34480"
"NNE Medical Supply & Equipment, Inc.","Home Care, Durable Medical Equipment",438325,"13105 Ramona Boulevard, Suite B
Irwindale, California 91706",13105 Ramona Boulevard,"Suite B
Irwindale",California,91706,"13105 Ramona Boulevard, Suite B, Irwindale, CA, 91706-3857"
"Rocky Mountain Medical Equipment, LLC","Home Care, Durable Medical Equipment",437848,"1649 Main Street
Longmont, Colorado 80501","1649 Main Street
Longmont",Colorado 80501,,,"DBA: Major Medical655 S. Sunset, Unit E & G, Longmont, CO, 80501"
"SPS Specialty Pharmacy Services, Inc.","Home Care, Durable Medical Equipment",480761,"75 Luis Munoz Marin Ave. Plaza Notre Dame
Caguas, Puerto Rico 00725","75 Luis Munoz Marin Ave. Plaza Notre Dame
Caguas",Puerto Rico 00725,,,"75 LUIS MUNOZ MARIN AVE. PLAZA NOTRE DAME 5, Caguas, PR, 00725"
"Chyodo Group, Inc.","Home Care, Durable Medical Equipment",449500,"3435 South Indiana Avenue
Chicago, Illinois 60616-3840","3435 South Indiana Avenue
Chicago",Illinois 60616-3840,,,"DBA: Chyodo Medical Supplies3435 South Indiana Avenue, Chicago, IL, 60616-3840"
"Brandon Brace, Inc.","Home Care, Durable Medical Equipment",480255,"101 Carver Ave
Brandon, Florida 33510","101 Carver Ave
Brandon",Florida 33510,,,"101 Carver Ave, Brandon, FL, 33510"
"New West Medical, Inc.","Home Care, Durable Medical Equipment",471547,"2971 Churn Creek Road
Redding, California 96002","2971 Churn Creek Road
Redding",California 96002,,,"2971 Churn Creek Road, Redding, CA, 96002"
"Baar Home Medical Equipment, Inc.","Home Care, Durable Medical Equipment",466249,"24760 West Eames Street
Channahon, Illinois 60410","24760 West Eames Street
Channahon",Illinois 60410,,,"24760 W. Eames St., Channahon, IL, 60410"
Quality Medical Supplies,"Home Care, Durable Medical Equipment",471301,"254 Boca Chica Blvd.
Brownsville, Texas 78520","254 Boca Chica Blvd.
Brownsville",Texas 78520,,,"254 Boca Chica Blvd., Brownsville, TX, 78520"
"Total Nutrition Therapy, Inc.","Home Care, Durable Medical Equipment",450410,"16644 E. Johnson Drive, Suite B
City Of Industry, California 91745",16644 E. Johnson Drive,"Suite B
City Of Industry",California,91745,"16644 E. Johnson Drive, Suite B, City Of Industry, CA, 91745"
Apnea Care Inc,"Home Care, Durable Medical Equipment",471765,"156 Sonwil Drive
Buffalo, New York 14225","156 Sonwil Drive
Buffalo",New York 14225,,,"156 Sonwil Drive, Buffalo, NY, 14225"
Advantage Diabetic & Medical Supply,"Home Care, Durable Medical Equipment",470774,"107 N Florida Street
Mobile, Alabama 36607","107 N Florida Street
Mobile",Alabama 36607,,,"DBA: Advantage Medical Supply107 N. Florida Street, Mobile, AL, 36607"
"Karma Medical Supply, Inc.","Home Care, Durable Medical Equipment",452312,"500 E. Arapaho Rd. Ste. 606
Richardson, Texas 75081","500 E. Arapaho Rd. Ste. 606
Richardson",Texas 75081,,,"500 E. Arapaho Rd. Ste. 606, Richardson, TX, 75081"
"HEALTH-O-MED, INC.","Home Care, Durable Medical Equipment",468230,"7606 Santa Monica Blvd.
West Hollywood, California 90046","7606 Santa Monica Blvd.
West Hollywood",California 90046,,,"DBA: HEALTH-O-MED, INC.7606 Santa Monica Blvd., West Hollywood, CA, 90046"
"Plaza Heath, LLC","Home Care, Durable Medical Equipment",453459,"Calle Loiza 2428 Punta Las Marias
San Juan, Puerto Rico 00913","Calle Loiza 2428 Punta Las Marias
San Juan",Puerto Rico 00913,,,"DBA: Farmacias Plaza #12Calle Loiza 2428 Punta Las Marias, San Juan, PR, 00913"
"Synergy Medical, LLC","Home Care, Durable Medical Equipment",490200,"110 N Randolph Ave
Landrum, South Carolina 29356","110 N Randolph Ave
Landrum",South Carolina 29356,,,"110 North Randolph Avenue, Landrum, SC, 29356"
"Charter Medical, LLC","Home Care, Durable Medical Equipment",475838,"510 Azalea Drive, Ste. 100
Oxford, Mississippi 38655",510 Azalea Drive,"Ste. 100
Oxford",Mississippi,38655,"510 Azalea Drive, Ste. 100, Oxford, MS, 38655"
"Acute Care Alternatives, Inc.","Home Care, Durable Medical Equipment",453078,"16644 E. Johnson Dr
City Of Industry, California 91745","16644 E. Johnson Dr
City Of Industry",California 91745,,,"DBA: Ancillary Provider Services16644 E. Johnson Drive, City Of Industry, CA, 91745"
"Clock Medical Supply, Inc.","Home Care, Durable Medical Equipment",442331,"901 Industrial Blvd
Winfield, Kansas 67156","901 Industrial Blvd
Winfield",Kansas 67156,,,"DBA: Clock Medical Supply, Inc.901 Industrial Blvd, Winfield, KS, 67156"
"Delta Medical Supply, Inc.","Home Care, Durable Medical Equipment",447459,"11734 Lackland Industrial Dr
Saint Louis, Missouri 63146","11734 Lackland Industrial Dr
Saint Louis",Missouri 63146,,,"11734 Lackland Industrial Dr, Saint Louis, MO, 63146"
"Vos Transportation, LLC","Home Care, Durable Medical Equipment",471395,"3030 Temple Street Suite 108
Los Angeles, California 90026","3030 Temple Street Suite 108
Los Angeles",California 90026,,,"DBA: Medical Product Supplier3030 Temple St. Suite 108, Los Angeles, CA, 90026"
"El Salvador Medical and Homecare Equipment, Inc.","Home Care, Durable Medical Equipment",440639,"Plaza Jardines Carretera #2 KM.40.2 Suite 7
Vega Baja, Puerto Rico 00693","Plaza Jardines Carretera #2 KM.40.2 Suite 7
Vega Baja",Puerto Rico 00693,,,"Plaza Jardines Carr. #2 Km 40.2 Suite 7, Vega Baja, PR, 00693"
"Elegant Medical Supply, Inc.","Home Care, Durable Medical Equipment",492481,"6525 W. Sam Houston Pky. North Str. #B
Houston, Texas 77041","6525 W. Sam Houston Pky. North Str. #B
Houston",Texas 77041,,,"6525 W. Sam Houston Pky. North Ste. #B, Houston, TX, 77041"
"Mobility Solutions, Inc","Home Care, Durable Medical Equipment",452278,"7895 Convoy Court, Suite 11
San Diego, California 92111",7895 Convoy Court,"Suite 11
San Diego",California,92111,"7895 Convoy Court, Suite 11, San Diego, CA, 92111"
"Royal Diagnostics, Inc.","Home Care, Durable Medical Equipment",463387,"14440 Hamlin Street
Van Nuys, California 91401","14440 Hamlin Street
Van Nuys",California 91401,,,"DBA: Valley Medical Supply Co.14440 Hamlin Street, Van Nuys, CA, 91401"
"Miami Lakes Medical, Inc.","Home Care, Durable Medical Equipment",448861,"6175 Northwest 167th St. Suite G25
Hialeah, Florida 33015","6175 Northwest 167th St. Suite G25
Hialeah",Florida 33015,,,"6175 NW 167 St, Suite  G-25, Hialeah, FL, 33015"
RPMC INC,"Home Care, Durable Medical Equipment",479489,"999 Schneider Drive
Malvern, Arkansas 72104","999 Schneider Drive
Malvern",Arkansas 72104,,,"DBA: Modern Care Medical Sales & Rentals999 Schneider Drive, Malvern, AR, 72104"
"Eclipse Medical, LLC","Home Care, Durable Medical Equipment",477423,"7301 River Point Drive
North Little Rock, Arkansas 72113","7301 River Point Drive
North Little Rock",Arkansas 72113,,,"DBA: Eclipse Medical7301 River Pointe Drive, North Little Rock, AR, 72113"
"Advanced Home Medical, Inc.","Home Care, Durable Medical Equipment",436747,"312 Paseo Tesoro
Walnut, California 91789","312 Paseo Tesoro
Walnut",California 91789,,,"312 Paseo Tesoro, Walnut, CA, 91789"
"Central Coast Home Health, Inc.","Home Care, Durable Medical Equipment",470622,"253 Granada Drive, Suite D
San Luis Obispo, California 93401",253 Granada Drive,"Suite D
San Luis Obispo",California,93401,"253 Granada Drive, Suite D, San Luis Obispo, CA, 93401"
"Medic Rental, Inc.","Home Care, Durable Medical Equipment",451798,"2821 Kavanaugh Blvd., Suite 3A
Little Rock, Arkansas 72205",2821 Kavanaugh Blvd.,"Suite 3A
Little Rock",Arkansas,72205,"DBA: Medic Sleep Care12315 Chenal Parkway, Suite C, Little Rock, AR, 72211"
"Dixie Health Care, Inc.","Home Care, Durable Medical Equipment",441644,"839 E Main St
Blytheville, Arkansas 72315","839 E Main St
Blytheville",Arkansas 72315,,,"839 E. Main, Blytheville, AR, 72315"
"BW Surgical Supply, Inc.","Home Care, Durable Medical Equipment",450475,"10556 Metropolitan Ave.
Kensington, Maryland 20895","10556 Metropolitan Ave.
Kensington",Maryland 20895,,,"10556 Metropolitan Avenue, Kensington, MD, 20895"
"Broadway Home Medical, Inc.","Home Care, Durable Medical Equipment",444659,"808 S. Hillside St
Wichita, Kansas 67211","808 S. Hillside St
Wichita",Kansas 67211,,,"808 S. Hillside, Wichita, KS, 67211"
Premier Medical Supply,"Home Care, Durable Medical Equipment",479490,"2800 Mitchell Road, Suite F
Ceres, California 95307",2800 Mitchell Road,"Suite F
Ceres",California,95307,"2800 Mitchell Road, Suite F, Ceres, CA, 95307"
SF Royal Medical Supply Inc.,"Home Care, Durable Medical Equipment",466357,"2411 Clement Street
San Francisco, California 94121","2411 Clement Street
San Francisco",California 94121,,,"DBA: A To Z Royal Medical Supply2411 Clement Street, San Francisco, CA, 94121"
"1st Respond Medical Supply, Inc.","Home Care, Durable Medical Equipment",495242,"1100 Business Parkway, Suite 120
Richardson, Texas 75081",1100 Business Parkway,"Suite 120
Richardson",Texas,75081,"DBA: 1st Respond Medical Supply1100 Business Parkway Suite 120, Richardson, TX, 75081"
"Prism Medical Products, LLC","Home Care, Durable Medical Equipment",469864,"112 Church Street, Suite 101
Elkin, North Carolina 28621",112 Church Street,"Suite 101
Elkin",North,Carolina,"112 Church Street, Suite 101, Elkin, NC, 28621-3476"
United Diabetic Supplies,"Home Care, Durable Medical Equipment",508371,"901 Northpointe Parkway Ste 300
West Palm Beach, Florida 33407","901 Northpointe Parkway Ste 300
West Palm Beach",Florida 33407,,,"DBA: A&R Medical901 Northpoint Parkway Ste 300, West Palm Beach, FL, 33407"
"Comfort & Care Medical Supplies, Inc.","Home Care, Durable Medical Equipment",475917,"515 1st St E
Humble, Texas 77338","515 1st St E
Humble",Texas 77338,,,"515 1st St E., Humble, TX, 77338"
"MLC Medical Marketing Group, Inc.","Home Care, Durable Medical Equipment",436055,"626 W. Route 66, Suite C
Glendora, California 91740",626 W. Route 66,"Suite C
Glendora",California,91740,"626 W. Route 66, Suite C, Glendora, CA, 91740"
MedEquip Supply Corporation,"Home Care, Durable Medical Equipment",462095,"5 Mary Lane
Greenvale, New York 11548","5 Mary Lane
Greenvale",New York 11548,,,"5 Mary Lane, Greenvale, NY, 11548"
"Talk To Me Technologies, LLC","Home Care, Durable Medical Equipment",479422,"1100 Technology Parkway
Cedar Falls, Iowa 50613","1100 Technology Parkway
Cedar Falls",Iowa 50613,,,"1100 Technology Parkway, Cedar Falls, IA, 50613"
"Reliant Medical Supplies and Orthotics, Inc.","Home Care, Durable Medical Equipment",468464,"5855 Venice Boulevard
Los Angeles, California 90019","5855 Venice Boulevard
Los Angeles",California 90019,,,"5855 Venice Boulevard, Los Angeles, CA, 90019"
"Grand Wheelchair and Medical Supply, Inc","Home Care, Durable Medical Equipment",464608,"41917 Albrae Street
Fremont, California 94538","41917 Albrae Street
Fremont",California 94538,,,"DBA: All Wheelchair & Mibility Center41917 Albrae st, Fremont, CA, 94538"
Options DME LLC,"Home Care, Durable Medical Equipment",461215,"2434 N State Road 39 Unit C
La Porte, Indiana 46350","2434 N State Road 39 Unit C
La Porte",Indiana 46350,,,"2434 N State Rd. 39, Unit C, La Porte, IN, 46350"
"Care One Home Medical, Inc.","Home Care, Durable Medical Equipment",464104,"2230 1st Ave.
New York, New York 10029","2230 1st Ave.
New York",New York 10029,,,"2230 1st Ave, New York, NY, 10029"
Diabetic Solutions Medical Equipment,"Home Care, Durable Medical Equipment",438081,"Calle 3 D9 Urb. Flamboyan
Manati, Puerto Rico 00674","Calle 3 D9 Urb. Flamboyan
Manati",Puerto Rico 00674,,,"DBA: Diabetic Solutions Medical Equipment & ProstheticsCalle 3 D9 Urb. Flamboyan, Manati, PR, 00674"
RPS Medical Service Corp,"Home Care, Durable Medical Equipment",441587,"Villa Beatriz 200, Suite 1 Carr. 670 KM 1.7
Manati, Puerto Rico 00674",Villa Beatriz 200,"Suite 1 Carr. 670 KM 1.7
Manati",Puerto,Rico,"Villa Beatriz 200,  Suite 1 Carr. 670 KM, Manati, PR, 00674"
"Advanced Medical Supply, Inc","Home Care, Durable Medical Equipment",434769,"3322 N. Milwaukee Avenue
Chicago, Illinois 60641","3322 N. Milwaukee Avenue
Chicago",Illinois 60641,,,"3322 N. Milwaukee Avenue, Chicago, IL, 60641"
"Columbia Ancillary Services, Inc.","Home Care, Durable Medical Equipment",428496,"978 Spring Street
Houtzdale, Pennsylvania 16651","978 Spring Street
Houtzdale",Pennsylvania 16651,,,"63 Radio Park Drive, Suite 101, Mount Clare, WV, 26408"
"B.W. Medical Supply Co., Inc.","Home Care, Durable Medical Equipment",450478,"6860 Reistertown Rd.
Baltimore, Maryland 21215","6860 Reistertown Rd.
Baltimore",Maryland 21215,,,"DBA: B.W.Medical Supply6860 Reisterstown Rd, Baltimore, MD, 21215"
"Burgos Hospital Supply, Inc.","Home Care, Durable Medical Equipment",437236,"Urb. Santa Monica A - 13 Calle Jerry Rivas Diaz
Bayamon, Puerto Rico 00957","Urb. Santa Monica A - 13 Calle Jerry Rivas Diaz
Bayamon",Puerto Rico 00957,,,"Urb. Santa Monica A - 13 Calle Jerry Rivas Diaz, Bayamon, PR, 00957"
"OrthoSTAT, Corp.","Home Care, Durable Medical Equipment",480870,"610 Sycamore Street, Suite 130
Celebration, Florida 34747",610 Sycamore Street,"Suite 130
Celebration",Florida,34747,"610 Sycamore Street, Suite 130, Celebration, FL, 34747"
"Life Line Home Care, Inc.","Home Care, Durable Medical Equipment",444633,"2402 N. Tift Ave., Suite 101
Tifton, Georgia 31794",2402 N. Tift Ave.,"Suite 101
Tifton",Georgia,31794,"2402 N Tift Ave., Suite 101, Tifton, GA, 31794"
"AcariaHealth, Inc.","Home Care, Durable Medical Equipment",449837,"8517 South Park Circle Suite 200
Orlando, Florida 32819","8517 South Park Circle Suite 200
Orlando",Florida 32819,,,"1311 W Sam Houston Pkwy N #130, Houston, TX, 77043"
Arecibo Health Medical Equipment,"Home Care, Durable Medical Equipment",441006,"319 Juan R. Figueroa Street
Arecibo, Puerto Rico 00612","319 Juan R. Figueroa Street
Arecibo",Puerto Rico 00612,,,"319 Juan Ramon Figueroa, Arecibo, PR, 00612"
Precise Comfort,"Home Care, Durable Medical Equipment",463750,"2235 Lake Ave Suite 107
Altadena, California 91001","2235 Lake Ave Suite 107
Altadena",California 91001,,,"DBA: Precise Medical Comfort2235 Lake Ave, Suite 107, Altadena, CA, 91001"
Interamerican Oxygen Corporation,"Home Care, Durable Medical Equipment",447069,"Ave. Campo Rico GK31 B urb. Country Club
Carolina, Puerto Rico 00982","Ave. Campo Rico GK31 B urb. Country Club
Carolina",Puerto Rico 00982,,,"Ave. Campo Rico GK31 B Urb. Country Club, Carolina, PR, 00982"
"Pruitt Company of Ada, Inc.","Home Care, Durable Medical Equipment",416384,"402 E. 12th
Ada, Oklahoma 74820","402 E. 12th
Ada",Oklahoma 74820,,,"DBA: Pruitt Care402 East 12th, Ada, OK, 74820"
Infusion Services & Specialty Pharmacy,"Home Care, Durable Medical Equipment",449339,"1724 E. Broad Street, Suite 136
Mansfield, Texas 76063",1724 E. Broad Street,"Suite 136
Mansfield",Texas,76063,"DBA: ISRx Corporation1724 E. Broad Street, Suite 136, Mansfield, TX, 76063"
"Custom Medical Systems, Inc.","Home Care, Durable Medical Equipment",461065,"404 10th Ave W
Palmetto, Florida 34221","404 10th Ave W
Palmetto",Florida 34221,,,"404 10th Ave W, Palmetto, FL, 34221"
"Pediatric Products, LLC","Home Care, Durable Medical Equipment",455586,"2975 Exon Avenue
Cincinnati, Ohio 45241","2975 Exon Avenue
Cincinnati",Ohio 45241,,,"DBA: Xpress Nebs2975 Exon Avenue, Cincinnati, OH, 45241"
"First Choice DME, Inc.","Home Care, Durable Medical Equipment",435933,"1801 S. 5TH Street Suite 117 A
McAllen, Texas 78503","1801 S. 5TH Street Suite 117 A
McAllen",Texas 78503,,,"1801 S. 5TH Street Suite 117 A, McAllen, TX, 78503"
OrthoSource,"Home Care, Durable Medical Equipment",434846,"830 East Robinson Ave, Suite B
Springdale, Arkansas 72764",830 East Robinson Ave,"Suite B
Springdale",Arkansas,72764,"DBA: KimLor Medical830 E. Robinson Ave, Suite B, Springdale, AR, 72764"
"WOODHULL MEDICAL SUPPLIES, INC","Home Care, Durable Medical Equipment",447642,"57 EAST 124TH ST
New York, New York 10035","57 EAST 124TH ST
New York",New York 10035,,,"57 EAST 124TH ST, New York, NY, 10035"
"The Medcom Group, Ltd.","Home Care, Durable Medical Equipment",413706,"541 East Garden Drive, Unit Q
Windsor, Colorado 80550",541 East Garden Drive,"Unit Q
Windsor",Colorado,80550,"541 East Garden Drive, Unit Q, Windsor, CO, 80550"
"Oxygen Plus, Corp.","Home Care, Durable Medical Equipment",416395,"900 Mc Arthur Drive
Manchester, Tennessee 37355","900 Mc Arthur Drive
Manchester",Tennessee 37355,,,"900 Mc Arthur Drive, Manchester, TN, 37355"
"Physicians Home Medical Equipment, Inc.","Home Care, Durable Medical Equipment",433348,"1127 E. Villa Maria Rd
Bryan, Texas 77802","1127 E. Villa Maria Rd
Bryan",Texas 77802,,,"1127 E. Villa Maria Rd, Bryan, TX, 77802"
GK Dreams LLC,"Home Care, Durable Medical Equipment",470770,"300 THUNDERBIRD DR STE 3
El Paso, Texas 79912","300 THUNDERBIRD DR STE 3
El Paso",Texas 79912,,,"DBA: GK Dreams LLC300 THUNDERBIRD STE 3, El Paso, TX, 79912"
Central Drug Dorado Corp,"Home Care, Durable Medical Equipment",430571,"Carretera #1 km 25.5 Bo Quebrada Arena , Sector Los Navarros
San Juan, Puerto Rico 00926",Carretera #1 km 25.5 Bo Quebrada Arena,"Sector Los Navarros
San Juan",Puerto,Rico,"Carretera #1 km 25.5 Bo Quebrada Arena Sector Los Navarros, San Juan, PR, 00926"
"Mid-South Respicare, Inc.","Home Care, Durable Medical Equipment",384414,"1100 Smithville Highway Suite 138
Mc Minnville, Tennessee 37110","1100 Smithville Highway Suite 138
Mc Minnville",Tennessee 37110,,,"1100 Smithville Hwy. Suite 138, Mc Minnville, TN, 37110"
"Medicor Homecare, Inc","Home Care, Durable Medical Equipment",394627,"3403 W Waters Ave
Tampa, Florida 33614","3403 W Waters Ave
Tampa",Florida 33614,,,"1731 Wall Street, Suite 204, Garland, TX, 75041"
"H & J Medical Supplies, Inc.","Home Care, Durable Medical Equipment",428334,"270 Spagnoli Rd, Suite 111
Melville, New York 11747",270 Spagnoli Rd,"Suite 111
Melville",New,York,"DBA: H & J Medical Supplies, Inc.270 Spagnoli Rd Suite 111, Melville, NY, 11747"
"Logos Medical Supply, Inc.","Home Care, Durable Medical Equipment",441020,"5070 Parkside Ave. Suite 3300
Philadelphia, Pennsylvania 19131-4747","5070 Parkside Ave. Suite 3300
Philadelphia",Pennsylvania 19131-4747,,,"5070 Parkside Ave Suite 3300, Philadelphia, PA, 19131-4747"
"Midwest Medical Equipment Solutions, Inc.","Home Care, Durable Medical Equipment",451575,"19015 S Jodi Rd., Unit A
Mokena, Illinois 60448",19015 S Jodi Rd.,"Unit A
Mokena",Illinois,60448,"DBA: Neb Medical Services19015 S Jodi Rd., Unit A, Mokena, IL, 60448"
"West Coast Medical Equipment & Repair, Inc.","Home Care, Durable Medical Equipment",448458,"9729 Lurline Ave.
Chatsworth, California 91311","9729 Lurline Ave.
Chatsworth",California 91311,,,"9729 Lurline Ave., Chatsworth, CA, 91311"
"QuadraCare, Inc","Home Care, Durable Medical Equipment",427113,"981 South Meridian Avenue
Alhambra, California 91803","981 South Meridian Avenue
Alhambra",California 91803,,,"981 South Meridian Avenue, Alhambra, CA, 91803"
Potomac Medical Equipment,"Home Care, Durable Medical Equipment",479410,"44330 Premier Plaza #100
Ashburn, Virginia 20147","44330 Premier Plaza #100
Ashburn",Virginia 20147,,,"44330 Premier Plaza #100, Ashburn, VA, 20147"
"Alphamed, Inc.","Home Care, Durable Medical Equipment",434456,"3100 Dundee Rd Ste 404
Northbrook, Illinois 60062","3100 Dundee Rd Ste 404
Northbrook",Illinois 60062,,,"3100 Dundee Rd Ste 404, Northbrook, IL, 60062"
"Welcome Medical Supplies, Inc.","Home Care, Durable Medical Equipment",445701,"9240 Garden Grove Boulevard, Suite #13
Garden Grove, California 92844",9240 Garden Grove Boulevard,"Suite #13
Garden Grove",California,92844,"9240 Garden Grove Boulevard, Suite #13, Garden Grove, CA, 92844"
"National Seating & Mobility, Inc.","Home Care, Durable Medical Equipment",434450,"5959 Shallowford Road, Suite 443
Chattanooga, Tennessee 37421",5959 Shallowford Road,"Suite 443
Chattanooga",Tennessee,37421,"DBA: National Seating & Mobility #65150 Padgette St Unit F, Chicopee, MA, 01022"
"PAO2 Home Medical Equipment, Inc.","Home Care, Durable Medical Equipment",409884,"1935 Dailey Avenue
Latrobe, Pennsylvania 15650","1935 Dailey Avenue
Latrobe",Pennsylvania 15650,,,"DBA: PaO2 Home Medical Equipment Inc1935 Dailey Avenue, Latrobe, PA, 15650"
"Condado Sales and Rental, Inc.","Home Care, Durable Medical Equipment",390406,"Floral Park Street Duarte 186 Hato Rey
San Juan, Puerto Rico 00917","Floral Park Street Duarte 186 Hato Rey
San Juan",Puerto Rico 00917,,,"Floral Park Street Duarte 186  Suite # 1, Hato Rey, San Juan, PR, 00917"
"Physical Therapy Services, Inc.","Home Care, Durable Medical Equipment",452640,"104 Calle Herrnandez Carrion, Urb. Atenas Suite 4
Manati, Puerto Rico 00674",104 Calle Herrnandez Carrion,"Urb. Atenas Suite 4
Manati",Puerto,Rico,"DBA: Puerto Rico Prosthetics965 Americo Miranda Avenue, San Juan, PR, 00921"
Southern Discount Drugs of Charleston Inc,"Home Care, Durable Medical Equipment",432905,"1068 Factory Dr
Charleston, Mississippi 38921","1068 Factory Dr
Charleston",Mississippi 38921,,,"DBA: The Diabetic Shoppe1068 Factory Dr, Charleston, MS, 38921"
"Nation's Home Medical Equipment, LLC","Home Care, Durable Medical Equipment",419715,"11515 Cronridge Drive, Suite L
Owings Mills, Maryland 21117",11515 Cronridge Drive,"Suite L
Owings Mills",Maryland,21117,"11515 Cronridge Drive, Suite L, Owings Mills, MD, 21117"
"Action Medical Equipment, LLC","Home Care, Durable Medical Equipment",450469,"29250 Ryan Road
Warren, Michigan 48092","29250 Ryan Road
Warren",Michigan 48092,,,"29250 Ryan Rd., Warren, MI, 48092"
Apple West Home Medical Supply,"Home Care, Durable Medical Equipment",480869,"1122 Davis Street
San Leandro, California 94577-2500","1122 Davis Street
San Leandro",California 94577-2500,,,"1122 Davis Street, San Leandro, CA, 94577"
"A -1 Home Health Care, Inc.","Home Care, Durable Medical Equipment",426927,"536 N. El Camino Real
San Clemente, California 92672","536 N. El Camino Real
San Clemente",California 92672,,,"536 N. El Camino Real, San Clemente, CA, 92672"
"A1 Medical Equipment & Supply, Inc.","Home Care, Durable Medical Equipment",468529,"314 E. Hillcrest Boulevard (Front)
Inglewood, California 90301","314 E. Hillcrest Boulevard (Front)
Inglewood",California 90301,,,"314 E. Hillcrest Boulevard (Front), Inglewood, CA, 90301"
First Medical Equipment & Services Corp.,"Home Care, Durable Medical Equipment",486824,"2018 Calle Celestial Urb. Los Angeles
Carolina, Puerto Rico 00979-1723","2018 Calle Celestial Urb. Los Angeles
Carolina",Puerto Rico 00979-1723,,,"2018 Calle Celestial Urb. Los Angeles, Carolina, PR, 00979-1723"
The DME Source,"Home Care, Durable Medical Equipment",468379,"30150 Telegraph Rd., Suite 185
Bingham Farms, Michigan 48025",30150 Telegraph Rd.,"Suite 185
Bingham Farms",Michigan,48025,"30150 Telegraph Rd., Suite 185, Bingham Farms, MI, 48025"
Rocky Mountain Respiratory Resource Inc.,"Home Care, Durable Medical Equipment",492007,"11050 Spotswood Terrace
Peyton, Colorado 80831","11050 Spotswood Terrace
Peyton",Colorado 80831,,,"11050 Spotswood Terrace, Peyton, CO, 80831"
ALL-MED Inc.,"Home Care, Durable Medical Equipment",450407,"925 River Road
Eugene, Oregon 97404","925 River Road
Eugene",Oregon 97404,,,"925 River Rd, Eugene, OR, 97404"
New Life Medical Supply Inc,"Home Care, Durable Medical Equipment",447028,"11823 Artesia Blvd.
Artesia, California 90701","11823 Artesia Blvd.
Artesia",California 90701,,,"11823 Artesia Blvd., Artesia, CA, 90701"
"Florida Hospital DME/RT, LLC","Home Care, Durable Medical Equipment",432837,"556 Florida Central Parkway, Suite 1060
Longwood, Florida 32750",556 Florida Central Parkway,"Suite 1060
Longwood",Florida,32750,"DBA: AdventHealth Respiratory & Equipment556 Florida Central Parkway, Suite 1060, Longwood, FL, 32750"
"Landra Prosthetics and Orthotics, Inc","Home Care, Durable Medical Equipment",462166,"14725 Northline
Southgate, Michigan 48195","14725 Northline
Southgate",Michigan 48195,,,"DBA: Landra Prosthetics & Orthotics14725 Northline, Southgate, MI, 48195"
"Garden State Cardio Pulmonary Diagnostics, Inc.","Home Care, Durable Medical Equipment",404096,"131 Fort Lee Rd Frst Flr Frnt
Leonia, New Jersey 07605","131 Fort Lee Rd Frst Flr Frnt
Leonia",New Jersey 07605,,,"131 Fort Lee Rd Frst Flr Frnt, Leonia, NJ, 07605"
Absolute Medical Inc,"Home Care, Durable Medical Equipment",470255,"1843 W Hubbard Street, Ste 2A
Chicago, Illinois 60622",1843 W Hubbard Street,"Ste 2A
Chicago",Illinois,60622,"1843 W Hubbard Ste. 2A, Chicago, IL, 60622"
Doctors Equipment Service,"Home Care, Durable Medical Equipment",434178,"6021 Troost Avenue
Kansas City, Missouri 64110","6021 Troost Avenue
Kansas City",Missouri 64110,,,"DBA: Doctors Equipment Service, Inc6021 Troost Ave, Kansas City, MO, 64110"
"Healing Hands Home Care, Inc.","Home Care, Durable Medical Equipment",445727,"725 Newark Ave
Jersey City, New Jersey 07306","725 Newark Ave
Jersey City",New Jersey 07306,,,"725 Newark Ave., Jersey City, NJ, 07306"
"Ace Medical Supply, LLC","Home Care, Durable Medical Equipment",468801,"7515 N Milwaukee Ave
Niles, Illinois 60714","7515 N Milwaukee Ave
Niles",Illinois 60714,,,"7515 N Milwaukee Ave, Niles, IL, 60714"
"A-1 Oxygen, Inc.","Home Care, Durable Medical Equipment",445311,"3643 San Fernando Rd., #A
Glendale, California 91204",3643 San Fernando Rd.,"#A
Glendale",California,91204,"3643 San Fernando Rd.,  #A, Glendale, CA, 91204"
Astrix Medical Supplies LLC,"Home Care, Durable Medical Equipment",490376,"241 E. German School Road
Richmond, Virginia 23224","241 E. German School Road
Richmond",Virginia 23224,,,"241 E. German School Road, Richmond, VA, 23224"
"Southeastern Medical Brokers, Inc","Home Care, Durable Medical Equipment",469160,"4490 Washington Rd, Suite 16
Evans, Georgia 30809",4490 Washington Rd,"Suite 16
Evans",Georgia,30809,"DBA: Integrity Medical4490 Washington Rd, Suite 16, Evans, GA, 30809"
Accucare Home Medical Equipment Inc,"Home Care, Durable Medical Equipment",431523,"26997 Center Ridge Rd.
Westlake, Ohio 44145","26997 Center Ridge Rd.
Westlake",Ohio 44145,,,"26997 Center Ridge Rd., Westlake, OH, 44145"
"Best Medical Equipment, Inc.","Home Care, Durable Medical Equipment",463945,"8200 Old 13 Mile Rd, Suite 106
Warren, Michigan 48093-2171",8200 Old 13 Mile Rd,"Suite 106
Warren",Michigan,48093-2171,"8200 Old 13 Mile Rd, Suite 106, Warren, MI, 48093-2171"
"Boca Medical Supply, LLC","Home Care, Durable Medical Equipment",382224,"1307 W. Palmetto Park Road
Boca Raton, Florida 33486","1307 W. Palmetto Park Road
Boca Raton",Florida 33486,,,"620 Glades Road, Boca Raton, FL, 33431"
"Nufactor, Inc.","Home Care, Durable Medical Equipment",444785,"44900 Winchester Rd.
Temecula, California 92590","44900 Winchester Rd.
Temecula",California 92590,,,"44900 Winchester Rd, Temecula, CA, 92590"
"ACI Systems, Inc","Home Care, Durable Medical Equipment",432773,"16108 Hart St.
Van Nuys, California 91406","16108 Hart St.
Van Nuys",California 91406,,,"16108 Hart St., Van Nuys, CA, 91406"
Hato Rey Medical Supplies Inc,"Home Care, Durable Medical Equipment",422685,"Calle Eleanor Roosevelt # 114, Urb. El Vedado, 1st Floor
San Juan, Puerto Rico 00918-3105",Calle Eleanor Roosevelt # 114,Urb. El Vedado,1st,Floor,"Calle Eleanor Roosevelt # 114, Urb. El Vedado, 1st Floor,, San Juan, PR, 00918-3105"
"Rumed, Inc","Home Care, Durable Medical Equipment",491259,"3602 Center Street, Ste 4
Tacoma, Washington 98409",3602 Center Street,"Ste 4
Tacoma",Washington,98409,"3602 Center St., #4, Tacoma, WA, 98409"
"Star Medical & Surgical Supplies, Inc.","Home Care, Durable Medical Equipment",468359,"7768 Santa Monica Boulevard
Los Angeles, California 90046","7768 Santa Monica Boulevard
Los Angeles",California 90046,,,"7768 Santa Monica Boulevard, Los Angeles, CA, 90046"
"Thera Tech Equipment, Inc.","Home Care, Durable Medical Equipment",432316,"106 3rd Street Suite 2
Bloomingdale, Illinois 60108","106 3rd Street Suite 2
Bloomingdale",Illinois 60108,,,"106 3rd Street Suite 2, Bloomingdale, IL, 60108"
"Ortho-Tek, Inc.","Home Care, Durable Medical Equipment",447194,"7014 North Street
Nacogdoches, Texas 75965","7014 North Street
Nacogdoches",Texas 75965,,,"DBA: Care Options for Kids7014 North Street, Nacogdoches, TX, 75965"
Beachwood Medical Supply Inc,"Home Care, Durable Medical Equipment",387347,"5027 Heinz Street, Suite A1
Baldwin Park, California 91706",5027 Heinz Street,"Suite A1
Baldwin Park",California,91706,"5027 Heinz Street, Suite A1, Baldwin Park, CA, 91706"
"Advanced Sleep Therapy, Ltd.","Home Care, Durable Medical Equipment",411494,"2010 S. Arlington Heights Road Suite 300
Arlington Heights, Illinois 60005","2010 S. Arlington Heights Road Suite 300
Arlington Heights",Illinois 60005,,,"2010 S. Arlington Heights Road Suite 300B, Arlington Heights, IL, 60005"
"Thomas Medical Equipment, LLC","Home Care, Durable Medical Equipment",430383,"2347 Grissom Drive
Saint Louis, Missouri 63146","2347 Grissom Drive
Saint Louis",Missouri 63146,,,"2347 Grissom Drive, Saint Louis, MO, 63146"
"Fitzsimmons Surgical Supply, Inc.","Home Care, Durable Medical Equipment",412917,"8000 West 186th Street
Tinley Park, Illinois 60487","8000 West 186th Street
Tinley Park",Illinois 60487,,,"DBA: Fitzsimmons Home Medical Equipment6177 Broadway, Merrillville, IN, 46410"
South Texas Monitoring Systems,"Home Care, Durable Medical Equipment",436671,"1305 E Nolana Ave, Suite H
McAllen, Texas 78504",1305 E Nolana Ave,"Suite H
McAllen",Texas,78504,"1305 E Nolana Avenue, Suite H, McAllen, TX, 78504"
R & R Medical Inc.,"Home Care, Durable Medical Equipment",453617,"2515 E. Huntsville
Fayetteville, Arkansas 72701","2515 E. Huntsville
Fayetteville",Arkansas 72701,,,"DBA: Medical Arts Pharmacy2515 E Huntsville Rd, Fayetteville, AR, 72701"
"Premier Medical, Inc.","Home Care, Durable Medical Equipment",452769,"1200 W. Walnut Hill Lane #2210
Irving, Texas 75038","1200 W. Walnut Hill Lane #2210
Irving",Texas 75038,,,"1200 W. Walnut Hill Lane #2210, Irving, TX, 75038"
Omni Medical Products,"Home Care, Durable Medical Equipment",468526,"9272 Jeronimo Road Suite 120
Irvine, California 92618","9272 Jeronimo Road Suite 120
Irvine",California 92618,,,"9272 Jeronimo Road Suite#120, Irvine, CA, 92618"
"Empressas Bonilla Colon, Inc./dba Farmacia Villalba","Home Care, Durable Medical Equipment",435938,"Carr 149 KM. 56.7 Sector Tierra Santa
Villalba, Puerto Rico 00766","Carr 149 KM. 56.7 Sector Tierra Santa
Villalba",Puerto Rico 00766,,,"DBA: Farmacias Aliadas  VillalbaCarr 149 KM. 56.7 Sector Tierra Santa, Villalba, PR, 00766"
"Life-Care Home Health & Medical Supplies, Inc.","Home Care, Durable Medical Equipment",401205,"11843 Wilshire Boulevard
West Los Angeles, California 90025-6601","11843 Wilshire Boulevard
West Los Angeles",California 90025-6601,,,"11843 Wilshire Boulevard, Los Angeles, CA, 90025"
"Connecticut Support Services Holdings, LLC","Home Care, Durable Medical Equipment",434414,"786 W Queen St
Southington, Connecticut 06489","786 W Queen St
Southington",Connecticut 06489,,,"DBA: CT Support Services Holdings LLC786 W Queen St, Southington, CT, 06489"
"Health Aid Company, Inc.","Home Care, Durable Medical Equipment",404642,"4502 North Armenia Avenue
Tampa, Florida 33603","4502 North Armenia Avenue
Tampa",Florida 33603,,,"4502 N Armenia Ave., Tampa, FL, 33603"
"Ocean Side Home Health Services, Inc.","Home Care, Durable Medical Equipment",456262,"4322 Wilshire Blvd., Suite 208
Los Angeles, California 90010",4322 Wilshire Blvd.,"Suite 208
Los Angeles",California,90010,"DBA: Oceanside Home Health Services, Inc.4322 Wilshire Blvd., Suite 208, Los Angeles, CA, 90010"
Renew Medical Services LLC,"Home Care, Durable Medical Equipment",415245,"222 Main Street
Nashua, New Hampshire 03060","222 Main Street
Nashua",New Hampshire 03060,,,"DBA: Charron Medical Services222 Main Street, Nashua, NH, 03060"
"M&M Medical Supplies, Inc.","Home Care, Durable Medical Equipment",468652,"180 S. Spruce Ave., Suite D
South San Francisco, California 94080-4558",180 S. Spruce Ave.,"Suite D
South San Francisco",California,94080-4558,"180 S Spruce Ave. Suite D, South San Francisco, CA, 94080"
"Holmes Regional Enterprises, Inc.","Home Care, Durable Medical Equipment",418165,"1131 W New Haven Ave Ste. 101
West Melbourne, Florida 32904","1131 W New Haven Ave Ste. 101
West Melbourne",Florida 32904,,,"DBA: Health First Medical Equipment1131 W New Haven Ave Ste. 101, West Melbourne, FL, 32904"
"American Medical Supply, Inc.","Home Care, Durable Medical Equipment",459165,"6104 18th Avenue
Brooklyn, New York 11204","6104 18th Avenue
Brooklyn",New York 11204,,,"6104 18th Avenue, Brooklyn, NY, 11204"
"Allcare, P.C.","Home Care, Durable Medical Equipment",428328,"112 S. Oxley Drive
Lyons, Georgia 30436","112 S. Oxley Drive
Lyons",Georgia 30436,,,"DBA: Allcare Pharmacy and Healthcare Services112 South Oxley Dr., Lyons, GA, 30436"
"Family Medical Supply, Inc.","Home Care, Durable Medical Equipment",468927,"124 Robert Hall Court, Suite 105
Chesapeake, Virginia 23324",124 Robert Hall Court,"Suite 105
Chesapeake",Virginia,23324,"124 Robert Hall Court, Suite 105, Chesapeake, VA, 23324"
Biomatrix Orthopedics LLC,"Home Care, Durable Medical Equipment",430887,"1116 E. Big Beaver
Troy, Michigan 48083","1116 E. Big Beaver
Troy",Michigan 48083,,,"1116 E. Big Beaver, Troy, MI, 48083"
"M.G. Medical Supply, Inc.","Home Care, Durable Medical Equipment",418300,"2962 Avenue U
Brooklyn, New York 11229","2962 Avenue U
Brooklyn",New York 11229,,,"DBA: Durable Medical Equipment Supplier2962 Avenue U, Brooklyn, NY, 11229"
Collins Respiratory Care,"Home Care, Durable Medical Equipment",463746,"35 West Main Street
Brodhead, Kentucky 40409","35 West Main Street
Brodhead",Kentucky 40409,,,"35 West Main Street, Brodhead, KY, 40409"
"Twenty Four Hour Dependable Medical Supplies, LLC","Home Care, Durable Medical Equipment",462093,"4690 Millennium Drive, Suite 300
Belcamp, Maryland 21017",4690 Millennium Drive,"Suite 300
Belcamp",Maryland,21017,"4690 Millennium Drive, Suite 300, Belcamp, MD, 21017"
PK Industries Corporation,"Home Care, Durable Medical Equipment",416510,"#3 Ruiz Soler Avenue, Jardines de Caparra
Bayamon, Puerto Rico 00959-7841",#3 Ruiz Soler Avenue,"Jardines de Caparra
Bayamon",Puerto,Rico,"DBA: Medics#3 Ruiz Soler Ave., Jardines de Caparra, Bayamon, PR, 00959-7841"
"Canaan Medical Supply, Inc.","Home Care, Durable Medical Equipment",462684,"903 Crenshaw Boulevard, Suite 102A
Los Angeles, California 90019",903 Crenshaw Boulevard,"Suite 102A
Los Angeles",California,90019,"DBA: Canaan Medical Supply, Inc.903 Crenshaw Boulevard, Suite 102A, Los Angeles, CA, 90019"
Advance Medical Technology Corp. - Dist. of Med. Equip.,"Home Care, Durable Medical Equipment",439435,"Fernandez Juncos Station # 1504
San Juan, Puerto Rico 00909","Fernandez Juncos Station # 1504
San Juan",Puerto Rico 00909,,,"Fernandez Juncos Station #1504, San Juan, PR, 00909"
"ADA Medical Supply & Services, Inc","Home Care, Durable Medical Equipment",428352,"6780 Roswell Rd Ste 115D
Sandy Springs, Georgia 30328","6780 Roswell Rd Ste 115D
Sandy Springs",Georgia 30328,,,"DBA: ADA Medical Supply6780 Roswell Rd, Suite D115, Sandy Springs, GA, 30328"
"Med-Stat Health Care, Inc.","Home Care, Durable Medical Equipment",469576,"150 Orange Street
Bloomfield, New Jersey 07003","150 Orange Street
Bloomfield",New Jersey 07003,,,"150 Orange Street, Bloomfield, NJ, 07003"
Muniz Rio Grande Pharmacy LLC,"Home Care, Durable Medical Equipment",480624,"1117 S. Commerce Street
Harlingen, Texas 78550","1117 S. Commerce Street
Harlingen",Texas 78550,,,"1117 S. Commerce St., Harlingen, TX, 78550"
"MedLife Medical Supply, Inc.","Home Care, Durable Medical Equipment",435568,"9555 Owensmouth Ave., #9
Chatsworth, California 91311",9555 Owensmouth Ave.,"#9
Chatsworth",California,91311,"9555 Owensmouth Ave., #9, Chatsworth, CA, 91311"
CYD Home Health Services Inc.,"Home Care, Durable Medical Equipment",436352,"102 North 85 Parkway, Suite L
Fayetteville, Georgia 30214-4070",102 North 85 Parkway,"Suite L
Fayetteville",Georgia,30214-4070,"102 N 85 Parkway Suite L, Fayetteville, GA, 30214"
"Lima Medical Equipment, Inc.","Home Care, Durable Medical Equipment",436288,"8001 West 26 Ave Suite #4
Hialeah, Florida 33016","8001 West 26 Ave Suite #4
Hialeah",Florida 33016,,,"8001 West 26 Ave Suite #4, Hialeah, FL, 33016"
"Recovery Home Health Care Systems, Inc.","Home Care, Durable Medical Equipment",442304,"1200 West Polk Street, Suite E
Pharr, Texas 78577",1200 West Polk Street,"Suite E
Pharr",Texas,78577,"DBA: Art's Medical Equipment1200 W. Polk St. Ste E, Pharr, TX, 78577"
W.L. Collins Corp.,"Home Care, Durable Medical Equipment",430884,"165 Westgate Drive
Brockton, Massachusetts 02301","165 Westgate Drive
Brockton",Massachusetts 02301,,,"DBA: Collins Surgical165 Westgate Drive, Brockton, MA, 02301-1821"
DW Medical Supply,"Home Care, Durable Medical Equipment",468848,"316 1/2 E Manchester Blvd
Inglewood, California 90301","316 1/2 E Manchester Blvd
Inglewood",California 90301,,,"316 1/2 E Manchester Blvd, Inglewood, CA, 90301"
MDK Ventures LLC,"Home Care, Durable Medical Equipment",462504,"1180 Jacaranada Boulevard
Venice, Florida 34292","1180 Jacaranada Boulevard
Venice",Florida 34292,,,"DBA: Medical Department Store1180 Jacaranada Blvd, Venice, FL, 34292"
"Joshua's Respiratory Care, Inc","Home Care, Durable Medical Equipment",453498,"11880 Shiloh Road
Dallas, Texas 75228","11880 Shiloh Road
Dallas",Texas 75228,,,"11880 Shiloh Road, Dallas, TX, 75228"
Mrr Pharma Inc,"Home Care, Durable Medical Equipment",444990,"6220 11th Avenue
Brooklyn, New York 11219","6220 11th Avenue
Brooklyn",New York 11219,,,"DBA: Scarpa Pharmacy & Surgical Supplies6220 11th Avenue, Brooklyn, NY, 11219"
Patriot LLC,"Home Care, Durable Medical Equipment",436812,"651 Bear Run Lane
Lewis Center, Ohio 43035","651 Bear Run Lane
Lewis Center",Ohio 43035,,,"DBA: Patriot Medical651 Bear Run Lane, Lewis Center, OH, 43035"
"Canfield Medical Supply & Services, LLC","Home Care, Durable Medical Equipment",453026,"4120 Boardman-Canfield Road
Canfield, Ohio 44406-9044","4120 Boardman-Canfield Road
Canfield",Ohio 44406-9044,,,"4120 Boardman-Canfield Road, Canfield, OH, 44406-9044"
"Landmark Healthcare, Inc.","Home Care, Durable Medical Equipment",428351,"3515 NW Jim Wright Freeway
Fort Worth, Texas 76106","3515 NW Jim Wright Freeway
Fort Worth",Texas 76106,,,"8200 Tristar Drive Suite 120, Irving, TX, 75063"
"Cardiopulmonary Care, Inc., dba GoodCare by CPCI","Home Care, Durable Medical Equipment",386735,"999 West Hunter Street
Logan, Ohio 43138","999 West Hunter Street
Logan",Ohio 43138,,,"DBA: GoodCare999 West Hunter Street, Logan, OH, 43138"
Attentive Care,"Home Care, Durable Medical Equipment",437221,"306 N. Garfield Avenue #11
Monterey Park, California 91754","306 N. Garfield Avenue #11
Monterey Park",California 91754,,,"306 North Garfield Avenue #11, Monterey Park, CA, 91754"
"Home Safety Services, Inc.","Home Care, Durable Medical Equipment",486704,"890 Cowan Road, Suite G
Burlingame, California 94010",890 Cowan Road,"Suite G
Burlingame",California,94010,"890 Cowan Road, Suite G, Burlingame, CA, 94010"
"Home Orthopedics PR, LLC","Home Care, Durable Medical Equipment",440618,"202 Calle Federico Costa Urb. 3 Monjitas
San Juan, Puerto Rico 00918","202 Calle Federico Costa Urb. 3 Monjitas
San Juan",Puerto Rico 00918,,,"202 Calle Federico Costa Urb. Tres Monjitas, San Juan, PR, 00918"
"Pico Health Care, Inc","Home Care, Durable Medical Equipment",439046,"8827 West Pico Boulevard
Los Angeles, California 90035","8827 West Pico Boulevard
Los Angeles",California 90035,,,"8827 West Pico Boulevard, Los Angeles, CA, 90035"
"New England Surgical, Inc.","Home Care, Durable Medical Equipment",428316,"17 Stafford Road
Fall River, Massachusetts 02721","17 Stafford Road
Fall River",Massachusetts 02721,,,"17 Stafford Road, Fall River, MA, 02721"
Basinger's Marycrest Pharmacy,"Home Care, Durable Medical Equipment",401579,"2219 Jefferson Street
Joliet, Illinois 60435","2219 Jefferson Street
Joliet",Illinois 60435,,,"2219 W. Jefferson Street, Joliet, IL, 60435"
Performance Medical Supply,"Home Care, Durable Medical Equipment",417133,"553 Edgefield Rd
North Augusta, South Carolina 29841","553 Edgefield Rd
North Augusta",South Carolina 29841,,,"925 Leesburg Rd, Columbia, SC, 29209"
Allcare Medical Equipment Inc.,"Home Care, Durable Medical Equipment",414319,"8348 Bustleton Avenue
Philadelphia, Pennsylvania 19152","8348 Bustleton Avenue
Philadelphia",Pennsylvania 19152,,,"8348 Bustleton Avenue, Philadelphia, PA, 19152"
"Utah Navajo Health System, Inc.","Home Care, Durable Medical Equipment",374881,"1478 East Highway 162
Montezuma Creek, Utah 84534","1478 East Highway 162
Montezuma Creek",Utah 84534,,,"DBA: Montezuma Creek Community Health Center1478 East Highway 162, Montezuma Creek, UT, 84534-0130"
"Accredo Health Group, Inc.","Home Care, Durable Medical Equipment",380754,"One Express Way
Saint Louis, Missouri 63121","One Express Way
Saint Louis",Missouri 63121,,,"2410 Wardlow Road Suite 101, Corona, CA, 92880"
Carrier United Inc dba Americare Medical Supply,"Home Care, Durable Medical Equipment",468653,"704 E. Thousand Oaks Blvd
Thousand Oaks, California 91360","704 E. Thousand Oaks Blvd
Thousand Oaks",California 91360,,,"DBA: Americare Medical Supply704 E. Thousand Oaks Blvd, Thousand Oaks, CA, 91360"
"Sleep Rx, LLC","Home Care, Durable Medical Equipment",425789,"7536 North St. Louis
Skokie, Illinois 60076-4034","7536 North St. Louis
Skokie",Illinois 60076-4034,,,"DBA: Aura Healthcare7536 North St. Louis, Skokie, IL, 60076-4034"
Arlington Pharmacy Ltd,"Home Care, Durable Medical Equipment",477044,"106 N Main Street
Arlington, Ohio 45814","106 N Main Street
Arlington",Ohio 45814,,,"DBA: Arlington Pharmacy Ltd106 N Main Street, Arlington, OH, 45814"
Juros Medical Inc.,"Home Care, Durable Medical Equipment",459110,"2043 Grand Ave
Billings, Montana 59102","2043 Grand Ave
Billings",Montana 59102,,,"DBA: Juro's Pharmacy Health and Wellness6846 Grand Avnue, Billings, MT, 59106"
Vantage,"Home Care, Durable Medical Equipment",413005,"1305 South Main St.
Meadville, Pennsylvania 16335","1305 South Main St.
Meadville",Pennsylvania 16335,,,"DBA: Vantage Home Medical Equipment and Services497 S. Hermitage Road, Hermitage, PA, 16148"
"Metro Home Healthcare Equipment and Supply, Inc.","Home Care, Durable Medical Equipment",380531,"1430 W. Valley Blvd.
Alhambra, California 91803","1430 W. Valley Blvd.
Alhambra",California 91803,,,"1430 W. Valley Blvd., Alhambra, CA, 91803"
Hayat Home Medical Equipment,"Home Care, Durable Medical Equipment",429374,"3518 W. 95th Street
Evergreen Park, Illinois 60805","3518 W. 95th Street
Evergreen Park",Illinois 60805,,,"3518 W. 95th St., Evergreen Park, IL, 60805"
"Leading Respiratory Services, Inc.","Home Care, Durable Medical Equipment",422440,"75 S. Main Street
Peebles, Ohio 45660","75 S. Main Street
Peebles",Ohio 45660,,,"75 S. Main Street, Peebles, OH, 45660"
Chung Ja Kim,"Home Care, Durable Medical Equipment",429322,"333 S. Western Ave. Suite A
Los Angeles, California 90020","333 S. Western Ave. Suite A
Los Angeles",California 90020,,,"DBA: Life Med333 S. Western Avenue, Suite A, Los Angeles, CA, 90020"
"APTI, INC","Home Care, Durable Medical Equipment",402818,"307 s milwaukee ave, suite 127
Wheeling, Illinois 60090-5078",307 s milwaukee ave,"suite 127
Wheeling",Illinois,60090-5078,"307 South Milwaukee Ave, Suite 127, Wheeling, IL, 60090"
"Optum Women's and Children's Health, LLC","Home Care, Durable Medical Equipment",436425,"2100 RiverEdge Parkway, Suite 500
Atlanta, Georgia 30328",2100 RiverEdge Parkway,"Suite 500
Atlanta",Georgia,30328,"5900 Parkwood Place 2nd floor, Dublin, OH, 43016"
"Ames Med Equip, Inc.","Home Care, Durable Medical Equipment",468977,"301 North Jackson Avenue, Suite 7A
San Jose, California 95133",301 North Jackson Avenue,"Suite 7A
San Jose",California,95133,"DBA: Alliance Medical Supply & Rental301 North Jackson Avenue, Suite 7A, San Jose, CA, 95133"
"Special Care Pharmacy Services, LLC","Home Care, Durable Medical Equipment",437448,"Arzuaga No. 55
San Juan, Puerto Rico 00925","Arzuaga No. 55
San Juan",Puerto Rico 00925,,,"Arzuaga No. 55, Brumbaugh No. 1109, San Juan, PR, 00925"
A & O Surgical Supply,"Home Care, Durable Medical Equipment",429303,"116 Ludlow Street
Yonkers, New York 10705","116 Ludlow Street
Yonkers",New York 10705,,,"116 Ludlow Street, Yonkers, NY, 10705"
Boston Orthotics Inc.,"Home Care, Durable Medical Equipment",437442,"30 Robert W. Boyden Road, Unit A1100
Taunton, Massachusetts 02780",30 Robert W. Boyden Road,"Unit A1100
Taunton",Massachusetts,02780,"30 Robert W. Boyden Rd, Unit A1100, Taunton, MA, 02780"
confidence first medical supplies,"Home Care, Durable Medical Equipment",341552,"316 E Manchester Bllvd
Inglewood, California 90301","316 E Manchester Bllvd
Inglewood",California 90301,,,"316 E. Manchester Boulevard, Inglewood, CA, 90301"
"Horizon Oxygen and Medical Equipment, Inc.","Home Care, Durable Medical Equipment",432850,"1837 N. Neville St.
Orange, California 92865","1837 N. Neville St.
Orange",California 92865,,,"1837 N. Neville St., Orange, CA, 92865"
"DEPARTMENT OF VETERANS AFFAIRS, SW CMOP","Home Care, Durable Medical Equipment",461098,"3675 East Britannia Drive
Tucson, Arizona 85706","3675 East Britannia Drive
Tucson",Arizona 85706,,,"3675 East Britannia Drive, Tucson, AZ, 85706"
"St. Vincent Carmel Hospital, Inc.","Home Care, Durable Medical Equipment",394834,"13500 North Meridian Street
Carmel, Indiana 46032","13500 North Meridian Street
Carmel",Indiana 46032,,,"DBA: Ascension St. Vincent Carmel13500 North Meridian Street, Carmel, IN, 46032"
Eleva Recovery LLC,"Home Care, Durable Medical Equipment",428514,"St. Santa Cruz 70 Calle Santa Cruz Plaza San Pablo II
Bayamon, Puerto Rico 00961","St. Santa Cruz 70 Calle Santa Cruz Plaza San Pablo II
Bayamon",Puerto Rico 00961,,,"DBA: Nova InfusionUrb. Santa Cruz 70 Calle Santa Cruz San Pablo Plaza II, Bayamon, PR, 00961"
T & S Home Oxygen Supply Co.,"Home Care, Durable Medical Equipment",479414,"123 Oxygen Drive
Du Bois, Pennsylvania 15801","123 Oxygen Drive
Du Bois",Pennsylvania 15801,,,"123 Oxygen Drive, Du Bois, PA, 15801"
"Fayette Home Health Care Supply, LLC","Home Care, Durable Medical Equipment",426519,"134 W Court Street
Washington Court House, Ohio 43160","134 W Court Street
Washington Court House",Ohio 43160,,,"134 W Court Street, Washington Court House, OH, 43160"
Doctors Medical Rentals Corp.,"Home Care, Durable Medical Equipment",447133,"10418 NW 31st Terrace
Doral, Florida 33172","10418 NW 31st Terrace
Doral",Florida 33172,,,"DBA: DMR10418 NW 31st Terrace, Doral, FL, 33172"
"Central New York Medical Products, Inc.","Home Care, Durable Medical Equipment",430658,"749 W. Genesee Street
Syracuse, New York 13204","749 W. Genesee Street
Syracuse",New York 13204,,,"DBA: CNY Medical Products, Inc.749 W. Genesee St., Syracuse, NY, 13204"
Soundview Medical Supply LLC,"Home Care, Durable Medical Equipment",463847,"8423 Mukilteo Speedway, Suite 202
Mukilteo, Washington 98275",8423 Mukilteo Speedway,"Suite 202
Mukilteo",Washington,98275,"DBA: Soundview Medical Supply8423 Mukilteo Speedway, Suite 202, Mukilteo, WA, 98275"
"L.A. Medical Supply, Inc.","Home Care, Durable Medical Equipment",406098,"966 South Western Ave. Suite 104
Los Angeles, California 90006","966 South Western Ave. Suite 104
Los Angeles",California 90006,,,"966 S. WESTERN AVE SUITE104, Los Angeles, CA, 90006"
Oakdell Compounding Pharmacy,"Home Care, Durable Medical Equipment",457545,"7220 Louis Pasteur Drive, Suite 168
San Antonio, Texas 78229",7220 Louis Pasteur Drive,"Suite 168
San Antonio",Texas,78229,"DBA: Oakdell Compounding Pharmacy7220 Louis Pasteur #168, San Antonio, TX, 78229"
Gellya Inc.,"Home Care, Durable Medical Equipment",436866,"5130 US Highway 98 N.
Lakeland, Florida 33809","5130 US Highway 98 N.
Lakeland",Florida 33809,,,"DBA: Mobility America5130 US 98 N., Lakeland, FL, 33809"
New Life Medical Supplies Inc.,"Home Care, Durable Medical Equipment",467966,"1601 Osprey, Suite 101
Desoto, Texas 75115",1601 Osprey,"Suite 101
Desoto",Texas,75115,"1601 Osprey, Suite 101, Desoto, TX, 75115"
"All Health Medical Equipment, Inc.","Home Care, Durable Medical Equipment",388666,"4135 Amos Avenue
Baltimore, Maryland 21215","4135 Amos Avenue
Baltimore",Maryland 21215,,,"4135 Amos Avenue, Baltimore, MD, 21215"
"AdvaCare Home Services, Inc.","Home Care, Durable Medical Equipment",262972,"80 Emerson Lane, Suite 1302
Bridgeville, Pennsylvania 15017",80 Emerson Lane,"Suite 1302
Bridgeville",Pennsylvania,15017,"80 Emerson Lane, Suite 1302, Bridgeville, PA, 15017"
"Core Care Technologies, Inc.","Home Care, Durable Medical Equipment",375873,"309 Fries Mill Road, Suite 2
Sewell, New Jersey 08080",309 Fries Mill Road,"Suite 2
Sewell",New,Jersey,"309 Fries Mill Road, Suite 2, Sewell, NJ, 08080"
Valley Oxygen LLC,"Home Care, Durable Medical Equipment",418297,"5329 Office Center Ct, STE 100
Bakersfield, California 93309",5329 Office Center Ct,"STE 100
Bakersfield",California,93309,"DBA: Synergy Sleep & Respiratory3945 West Reno Avenue, Suite B, Las Vegas, NV, 89118"
"Responsive Home Health Care, Inc.","Home Care, Durable Medical Equipment",377761,"950 Taylor Station Rd., Suite N
Gahanna, Ohio 43230",950 Taylor Station Rd.,"Suite N
Gahanna",Ohio,43230,"DBA: First Community Care6500 Joy Road, East Syracuse, NY, 13057"
North Shore Home Care,"Home Care, Durable Medical Equipment",349794,"972 Brush Hollow Road
Westbury, New York 11590","972 Brush Hollow Road
Westbury",New York 11590,,,"972 Brush Hollow Road, Westbury, NY, 11590"
Sanger Medical Supplies,"Home Care, Durable Medical Equipment",432904,"1348 7th Street
Sanger, California 93657","1348 7th Street
Sanger",California 93657,,,"1348 7th Street, Sanger, CA, 93657"
"Medtech Services, Inc.","Home Care, Durable Medical Equipment",430842,"555 Gentry Way
Reno, Nevada 89502","555 Gentry Way
Reno",Nevada 89502,,,"555 Gentry Way, Reno, NV, 89502"
ICP,"Home Care, Durable Medical Equipment",366411,"7537 Easy Street
Mason, Ohio 45040","7537 Easy Street
Mason",Ohio 45040,,,"DBA: Institutional Care Pharmacy7537 Easy Street, Mason, OH, 45040"
"RB Medical Equipment, LLC","Home Care, Durable Medical Equipment",341280,"1654 S. Colorado St.
Greenville, Mississippi 38703","1654 S. Colorado St.
Greenville",Mississippi 38703,,,"DBA: Charter Medical of Greenville1654 S. Colorado St., Greenville, MS, 38703"
Life DME,"Home Care, Durable Medical Equipment",457241,"8896 Louisiana Street
Merrillville, Indiana 46410","8896 Louisiana Street
Merrillville",Indiana 46410,,,"DBA: LIFE DME8896 Louisiana St., Merrillville, IN, 46410"
"Home Therapy Products, Inc.","Home Care, Durable Medical Equipment",376909,"2580 CR 220 - Suite 2
Middleburg, Florida 32068","2580 CR 220 - Suite 2
Middleburg",Florida 32068,,,"DBA: Home Therapy Products, Inc.2580 CR 220 - Suite 2, Middleburg, FL, 32068"
"Edarch Medical, Inc. dba Medstar Medical","Home Care, Durable Medical Equipment",368965,"3801 Corporex Park Drive, Suite 175
Tampa, Florida 33619",3801 Corporex Park Drive,"Suite 175
Tampa",Florida,33619,"DBA: Medstar Medical3801 Corporex Park Drive, Suite 175, Tampa, FL, 33619"
Seventh Street Medical Supply Inc.,"Home Care, Durable Medical Equipment",182529,"307 East Pennsylvania Boulevard
Feasterville Trevose, Pennsylvania 19053","307 East Pennsylvania Boulevard
Feasterville Trevose",Pennsylvania 19053,,,"307 East Pennsylvania Boulevard, Feasterville Trevose, PA, 19053"
VA Consolidated Mail Outpatient Pharmacy-Dallas,"Home Care, Durable Medical Equipment",254979,"2962 South Longhorn Drive
Lancaster, Texas 75134","2962 South Longhorn Drive
Lancaster",Texas 75134,,,"2962 S. Longhorn Drive, Lancaster, TX, 75134"
"Unlimited AdvaCare, Inc.","Home Care, Durable Medical Equipment",161649,"2939 North Pulaski
Chicago, Illinois 60641","2939 North Pulaski
Chicago",Illinois 60641,,,"DBA: AdvaCare Systems2939 North Pulaski, Chicago, IL, 60641"
United Intermanagement Ltd.,"Home Care, Durable Medical Equipment",425378,"3102 Quentin Rd
Brooklyn, New York 11234","3102 Quentin Rd
Brooklyn",New York 11234,,,"DBA: DLS Medical Supply3102 Quentin Road, Brooklyn, NY, 11234"
"Monserrate Sales and Rental Equipment, Inc.","Home Care, Durable Medical Equipment",325179,"Calle Parana 1517 Urb El Paraiso
San Juan, Puerto Rico 00926","Calle Parana 1517 Urb El Paraiso
San Juan",Puerto Rico 00926,,,"Calle Parana 1517 Urb, El Paraiso, San Juan, PR, 00926"
"Access 2 Care, LLC","Home Care, Durable Medical Equipment",346475,"6 Frassetto Way, Unit C
Lincoln Park, New Jersey 07035",6 Frassetto Way,"Unit C
Lincoln Park",New,Jersey,"6 Frassetto Way, Unit C, Lincoln Park, NJ, 07035"
"Schmidt & Sons Pharmacy of Tecumseh, Inc.","Home Care, Durable Medical Equipment",183483,"120 East Chicago Boulevard
Tecumseh, Michigan 49286","120 East Chicago Boulevard
Tecumseh",Michigan 49286,,,"120 E. Chicago Blvd., Tecumseh, MI, 49286"
"Medox Services, Inc.","Home Care, Durable Medical Equipment",357658,"12403 Slauson Ave, Suite A & B
Whittier, California 90606",12403 Slauson Ave,"Suite A & B
Whittier",California,90606,"DBA: Ideal Home Care12403 Slauson Ave, Suite A & B, Whittier, CA, 90606"
Diamond Drugs Inc.,"Home Care, Durable Medical Equipment",125941,"645 Kolter Drive
Indiana, Pennsylvania 15701","645 Kolter Drive
Indiana",Pennsylvania 15701,,,"DBA: Diamond Medical Supply1354 Oakland Ave, Indiana, PA, 15701"
"Apguard Medical, Inc.","Home Care, Durable Medical Equipment",137360,"6404 Independence Avenue
Woodland Hills, California 91367","6404 Independence Avenue
Woodland Hills",California 91367,,,"6404 Independence Avenue, Woodland Hills, CA, 91367"
"Home I.V. Care, Inc.","Home Care, Durable Medical Equipment",107089,"32751 Edward Avenue, Suite 101
Madison Heights, Michigan 48071-1422",32751 Edward Avenue,"Suite 101
Madison Heights",Michigan,48071-1422,"32751 Edward Avenue Suite 101, Madison Heights, MI, 48071-1422"
John Lalor Joyce Inc,"Home Care, Durable Medical Equipment",224635,"422 Center Street
Jim Thorpe, Pennsylvania 18229","422 Center Street
Jim Thorpe",Pennsylvania 18229,,,"DBA: Keystone Medical Equipment422 Center Street, Jim Thorpe, PA, 18229"
"Home Medical Equipment, LLC","Home Care, Durable Medical Equipment",400489,"35 Lumber Road
Roslyn, New York 11576","35 Lumber Road
Roslyn",New York 11576,,,"35 Lumber Rd, Roslyn, NY, 11576"
"MediEquip, Inc.","Home Care, Durable Medical Equipment",344775,"12852 Manchester Rd.
Saint Louis, Missouri 63131","12852 Manchester Rd.
Saint Louis",Missouri 63131,,,"5845 S. Lindbergh Blvd, Saint Louis, MO, 63123"
Hines Consolidated Mail Outpatient Pharmacy,"Home Care, Durable Medical Equipment",254418,"5000 South 5th Ave., Building 37
Hines, Illinois 60141",5000 South 5th Ave.,"Building 37
Hines",Illinois,60141,"5000 South 5th Ave., Building 37, Hines, IL, 60141"
"Advanced Rehab Technologies, Inc.","Home Care, Durable Medical Equipment",411505,"559 High Street, Suite #1
Pottstown, Pennsylvania 19464",559 High Street,"Suite #1
Pottstown",Pennsylvania,19464,"559 HIgh Street, Suite #1, Pottstown, PA, 19464"
Caribbean Home Medical Equipment Corp,"Home Care, Durable Medical Equipment",445970,"8155 Concordia St. Suite 104
Ponce, Puerto Rico 00717-1599","8155 Concordia St. Suite 104
Ponce",Puerto Rico 00717-1599,,,"8155 Concordia St. Suite 104, Ponce, PR, 00717-1599"
MA Surgical Supplies,"Home Care, Durable Medical Equipment",432721,"314 Roebling Street
Brooklyn, New York 11211","314 Roebling Street
Brooklyn",New York 11211,,,"314 Roebling Street, Brooklyn, NY, 11211"
"Rotech Oxygen and Medical Equipment, Inc.","Home Care, Durable Medical Equipment",330862,"8350 Parkline Boulevard, Suite 9
Orlando, Florida 32809",8350 Parkline Boulevard,"Suite 9
Orlando",Florida,32809,"DBA: Rhema Medical2550 Beckleymeade Avenue, Suite 105, Dallas, TX, 75237"
CardioNet LLC,"Home Care, Durable Medical Equipment",326161,"1000 Cedar Hollow Road
Malvern, Pennsylvania 19355","1000 Cedar Hollow Road
Malvern",Pennsylvania 19355,,,"2750 S. 18th Place Suite 100, Phoenix, AZ, 85034"
Active Mobility Center,"Home Care, Durable Medical Equipment",454477,"14330 7th Street
Victorville, California 92395","14330 7th Street
Victorville",California 92395,,,"14330 7th Street, Victorville, CA, 92395"
Hoveround Corporation,"Home Care, Durable Medical Equipment",224388,"6015 31st Street East, Suite 201
Bradenton, Florida 34203",6015 31st Street East,"Suite 201
Bradenton",Florida,34203,"6015 31st Street East, Suite 201, Bradenton, FL, 34203"
Total Medical Health Services,"Home Care, Durable Medical Equipment",416034,"1877 West Hillsboro Blvd
Deerfield Beach, Florida 33442","1877 West Hillsboro Blvd
Deerfield Beach",Florida 33442,,,"1877 W Hillsboro Blvd, Deerfield Beach, FL, 33442"
OSF Healthcare System,"Home Care, Durable Medical Equipment",102789,"2265 W. Altorfer Drive
Peoria, Illinois 61615","2265 W. Altorfer Drive
Peoria",Illinois 61615,,,"DBA: OSF Saint Anthony Home Health, Hospice9951 Rock Cut Crossing, Loves Park, IL, 61111"
"Bristol Home Infusion, Inc.","Home Care, Durable Medical Equipment",355500,"18377 Westinghouse Road
Abingdon, Virginia 24210","18377 Westinghouse Road
Abingdon",Virginia 24210,,,"18377 Westinghouse Road, Abingdon, VA, 24210"
Union City Medical Supplies Inc.,"Home Care, Durable Medical Equipment",365138,"One Madison Street, Building A4
East Rutherford, New Jersey 07073",One Madison Street,"Building A4
East Rutherford",New,Jersey,"DBA: Bio Dynamic TechnologiesOne Madison Street, Suite A4, East Rutherford, NJ, 07073"
GRAND MESA MEDICAL SUPPLY LLC,"Home Care, Durable Medical Equipment",357109,"1708 NORTH AVENUE
Grand Junction, Colorado 81501","1708 NORTH AVENUE
Grand Junction",Colorado 81501,,,"1708 North Avenue, Grand Junction, CO, 81501"
"Medical Decision, LLC","Home Care, Durable Medical Equipment",165563,"2890 West State Road 84, Suite 102
Fort Lauderdale, Florida 33312",2890 West State Road 84,"Suite 102
Fort Lauderdale",Florida,33312,"DBA: Medical Decision Services2890 West State Road 84, Suite 102, Fort Lauderdale, FL, 33312"
Universal Mobility Equipment LLC,"Home Care, Durable Medical Equipment",456031,"5225 S. Valley View Blvd. Suite 10
Las Vegas, Nevada 89118","5225 S. Valley View Blvd. Suite 10
Las Vegas",Nevada 89118,,,"DBA: Universal Mobility5225 S. Valley View Blvd #10, Las Vegas, NV, 89118"
sigma surgical supply,"Home Care, Durable Medical Equipment",441519,"2622 west division st, store front
Chicago, Illinois 60622",2622 west division st,"store front
Chicago",Illinois,60622,"DBA: sigma surgical supply corp2622 west division st, Chicago, IL, 60622"
"Medical Express Depot, Inc.","Home Care, Durable Medical Equipment",342206,"10475 Perry Highway, Suite G102
Wexford, Pennsylvania 15090",10475 Perry Highway,"Suite G102
Wexford",Pennsylvania,15090,"DBA: CCS Medical10475 Perry Highway, Suite G102, Wexford, PA, 15090"
Columbia Basin Health Association,"Home Care, Durable Medical Equipment",320620,"1515 E. Columbia Street
Othello, Washington 99344","1515 E. Columbia Street
Othello",Washington 99344,,,"DBA: Othello Clinic1515 E Columbia Street, Othello, WA, 99344"
VA Consolidated Mail Outpatient Pharmacy,"Home Care, Durable Medical Equipment",254423,"5000 South 13th Street
Leavenworth, Kansas 66048","5000 South 13th Street
Leavenworth",Kansas 66048,,,"5000 South 13th Street, Leavenworth, KS, 66048"
"Flagship Medical, Inc.","Home Care, Durable Medical Equipment",164714,"445 Veit Road, Suite C
Huntingdon Valley, Pennsylvania 19006",445 Veit Road,"Suite C
Huntingdon Valley",Pennsylvania,19006,"445 Veit Road, Suite C, Huntingdon Valley, PA, 19006"
"Dome International, Inc","Home Care, Durable Medical Equipment",375227,"24 15th Street Suite #205
Brooklyn, New York 11215","24 15th Street Suite #205
Brooklyn",New York 11215,,,"DBA: Dome Home Care24 15th Street, Brooklyn, NY, 11215"
David Murray Enterprises Inc,"Home Care, Durable Medical Equipment",447142,"16125 Timber Creek Place Lane #500
Houston, Texas 77084","16125 Timber Creek Place Lane #500
Houston",Texas 77084,,,"DBA: A.S.A.P. Medical Equipment & Supplies16125 Timber Creek Place Lane, Ste. 500, Houston, TX, 77084"
"Aids for Daily Living, Inc.","Home Care, Durable Medical Equipment",368153,"1140 Sunset Boulevard, Suite 140
Rocklin, California 95765",1140 Sunset Boulevard,"Suite 140
Rocklin",California,95765,"DBA: A.D.L. Inc.1140 Sunset Boulevard, Suite 140, Rocklin, CA, 95765"
"Nutrition Care, Inc.","Home Care, Durable Medical Equipment",402230,"Ave Muoz Rivera #402 Urb El Vedado
San Juan, Puerto Rico 00918","Ave Muoz Rivera #402 Urb El Vedado
San Juan",Puerto Rico 00918,,,"Ave Muoz Rivera #402 Urb El Vedado, San Juan, PR, 00918"
BJC Home Care Services,"Home Care, Durable Medical Equipment",193990,"1935 Belt Way Dr.
Saint Louis, Missouri 63114","1935 Belt Way Dr.
Saint Louis",Missouri 63114,,,"1935 Belt Way Dr., Saint Louis, MO, 63114"
"Owens-Parker Medical, Inc.","Home Care, Durable Medical Equipment",346640,"420 North Center Street
Bonham, Texas 75418","420 North Center Street
Bonham",Texas 75418,,,"DBA: Summit Mobility420 North Center Street, Bonham, TX, 75418"
Sobaks Home Medical Inc.,"Home Care, Durable Medical Equipment",45040,"112 West Exchange Street
Owosso, Michigan 48867","112 West Exchange Street
Owosso",Michigan 48867,,,"112 West Exchange Street, Owosso, MI, 48867"
First Community Care LLC,"Home Care, Durable Medical Equipment",334086,"210 John Glenn Drive Ste 8
Amherst, New York 14228","210 John Glenn Drive Ste 8
Amherst",New York 14228,,,"210 John Glenn Drive Ste 8, Amherst, NY, 14228-1883"
Compression Health Care Inc.,"Home Care, Durable Medical Equipment",419123,"8185 Calle Concordia Street, Suite 2
Ponce, Puerto Rico 00717",8185 Calle Concordia Street,"Suite 2
Ponce",Puerto,Rico,"8185 Calle Concordia Street, Suite 2, Ponce, PR, 00717"
"Chartwell Midwest Wisconsin, LLC","Home Care, Durable Medical Equipment",91896,"1345 Deming Way
Middleton, Wisconsin 53562","1345 Deming Way
Middleton",Wisconsin 53562,,,"DBA: UW Health Care Direct1345 Deming Way Ste 200, Middleton, WI, 53562"
Mobilis Inc.,"Home Care, Durable Medical Equipment",358179,"2701 W Broadway
Council Bluffs, Iowa 51501","2701 W Broadway
Council Bluffs",Iowa 51501,,,"DBA: Mobilis Home Medical Equipment2701 W. Broadway, Council Bluffs, IA, 51501"
Bellevue Healthcare II Inc.,"Home Care, Durable Medical Equipment",353463,"2015 152nd Ave NE
Redmond, Washington 98052","2015 152nd Ave NE
Redmond",Washington 98052,,,"DBA: Bellevue Healthcare of Pierce County1007 South J Street, Tacoma, WA, 98405"
"Friesen Group, Inc.","Home Care, Durable Medical Equipment",377237,"2247 Court Street
Redding, California 96001","2247 Court Street
Redding",California 96001,,,"DBA: Owens3860 Morrow Way, Suite E, Chico, CA, 95928"
Ortho Pros Express,"Home Care, Durable Medical Equipment",380937,"9307 Monroe Rd Suite M
Charlotte, North Carolina 28270","9307 Monroe Rd Suite M
Charlotte",North Carolina 28270,,,"9307 Monroe Rd Suite M, Charlotte, NC, 28270"
Respitek Inc,"Home Care, Durable Medical Equipment",128051,"8257 Causeway Boulevard
Tampa, Florida 33619-6557","8257 Causeway Boulevard
Tampa",Florida 33619-6557,,,"8257 Causeway Boulevard, Tampa, FL, 33619"
Pavilion Infusion Therapy Inc.,"Home Care, Durable Medical Equipment",120648,"3563 Philips Highway Bldg B Suite 202
Jacksonville, Florida 32207","3563 Philips Highway Bldg B Suite 202
Jacksonville",Florida 32207,,,"DBA: Baptist Infusion Therapy3563 Philips Highway, Bldg. B Suite 202, Jacksonville, FL, 32207"
"Medical Plus Supplies, Inc.","Home Care, Durable Medical Equipment",93234,"4025 W. Fuqua St
Houston, Texas 77045","4025 W. Fuqua St
Houston",Texas 77045,,,"DBA: Medical Plus Supplies4025 W. Fuqua St, Houston, TX, 77045"
Fred Hutchinson Cancer Center,"Home Care, Durable Medical Equipment",328340,"1959 NE Pacific, 8NE
Seattle, Washington 98195",1959 NE Pacific,"8NE
Seattle",Washington,98195,"1959 NE Pacific Street, 8NE, Seattle, WA, 98195"
"Duke Medical Equipment, LLC","Home Care, Durable Medical Equipment",435279,"4306 Hugh Echols
Baytown, Texas 77521","4306 Hugh Echols
Baytown",Texas 77521,,,"4305 Hugh Echols Blvd., Baytown, TX, 77521"
Calmed Medical Supplies and Repair Inc,"Home Care, Durable Medical Equipment",438757,"24123 Greenfield Rd Suite 100
Southfield, Michigan 48075","24123 Greenfield Rd Suite 100
Southfield",Michigan 48075,,,"24123 Greenfield Rd Suite 100, Southfield, MI, 48075"
"Blackburn's Physicians Pharmacy, Inc.","Home Care, Durable Medical Equipment",70379,"301 Corbet Street
Tarentum, Pennsylvania 15084","301 Corbet Street
Tarentum",Pennsylvania 15084,,,"DBA: Blackburn's301 Corbet Street, Tarentum, PA, 15084"
Genesis Oxygen & Sleep Therapy,"Home Care, Durable Medical Equipment",356725,"23 N Maysville Ave
Zanesville, Ohio 43701","23 N Maysville Ave
Zanesville",Ohio 43701,,,"23 N Maysville Avenue, Zanesville, OH, 43701"
"SS & SUPPLY, INC.","Home Care, Durable Medical Equipment",430751,"501 S Falkenburg Road, Suite D19
Tampa, Florida 33619",501 S Falkenburg Road,"Suite D19
Tampa",Florida,33619,"DBA: SS MEDICAL SUPPLY501 S Falkenburg Road, Suite D19, Tampa, FL, 33619"
VA Consolidated Mail Outpatient Pharmacy,"Home Care, Durable Medical Equipment",254421,"4136 Carolina Commerce Parkway
Ladson, South Carolina 29456","4136 Carolina Commerce Parkway
Ladson",South Carolina 29456,,,"4136 Carolina Commerce Parkway, Ladson, SC, 29456"
"Four Rivers Home Health Care, Inc.","Home Care, Durable Medical Equipment",342247,"2744 S. Austin Avenue
Springfield, Missouri 65807","2744 S. Austin Avenue
Springfield",Missouri 65807,,,"DBA: Health-Way Medical Supply141 Blue Drive, Searcy, AR, 72143"
Home I.V. Services and Medical Supply,"Home Care, Durable Medical Equipment",264600,"526 Shoup Avenue West, Ste L
Twin Falls, Idaho 83301",526 Shoup Avenue West,"Ste L
Twin Falls",Idaho,83301,"DBA: K2RED LLC526 Shoup Ave W, Ste L, Twin Falls, ID, 83301"
"San Antonio Extended Medical Care, Inc","Home Care, Durable Medical Equipment",11014,"21195 IH 10 West, Suite 1101
San Antonio, Texas 78257",21195 IH 10 West,"Suite 1101
San Antonio",Texas,78257,"DBA: The Med Mart Corporation21195 IH 10 West, Suite 1101, San Antonio, TX, 78257"
"Carmichael's Cashway Pharmacy, Inc.","Home Care, Durable Medical Equipment",223915,"1002 North Parkerson Avenue
Crowley, Louisiana 70526","1002 North Parkerson Avenue
Crowley",Louisiana 70526,,,"1002 North Parkerson Avenue, Crowley, LA, 70526"
"Mountaineer Home Medical, LLC","Home Care, Durable Medical Equipment",413701,"5000 Greenbag Road F6
Morgantown, West Virginia 26501","5000 Greenbag Road F6
Morgantown",West Virginia 26501,,,"5000 Greenbag Rd, Morgantown, WV, 26501"
"Med-South, Inc.","Home Care, Durable Medical Equipment",10956,"406 Medical Center Drive
Jasper, Alabama 35501","406 Medical Center Drive
Jasper",Alabama 35501,,,"406 Medical Center Drive, Jasper, AL, 35501"
Central DuPage Special Health Association,"Home Care, Durable Medical Equipment",11844,"26W171 Roosevelt Rd Rm G021
Wheaton, Illinois 60187","26W171 Roosevelt Rd Rm G021
Wheaton",Illinois 60187,,,"DBA: CNS Home Infusion & Pharmacy26W171 Roosevelt Road, Rm G021, Wheaton, IL, 60187"
"MYT Home Health Care, LLC","Home Care, Durable Medical Equipment",49206,"1349 El Prado Avenue
Torrance, California 90501-2716","1349 El Prado Avenue
Torrance",California 90501-2716,,,"DBA: South Bay Home Health Care1349 El Prado Avenue, Torrance, CA, 90501-2716"
Mercy Hospital,"Home Care, Durable Medical Equipment",125453,"4050 Coon Rapids Blvd NW
Coon Rapids, Minnesota 55433","4050 Coon Rapids Blvd NW
Coon Rapids",Minnesota 55433,,,"4050 Coon Rapids Blvd NW, Coon Rapids, MN, 55433"
"Delcrest Medical Services, Inc","Home Care, Durable Medical Equipment",49450,"100 Commerce Drive
Ivyland, Pennsylvania 18974","100 Commerce Drive
Ivyland",Pennsylvania 18974,,,"100 Commerce Drive, Ivyland, PA, 18974"
"Oxy Respiratory & Home Medical Equipment Specialists, Inc.","Home Care, Durable Medical Equipment",147214,"7324 North Sepulveda Boulevard
Van Nuys, California 91405","7324 North Sepulveda Boulevard
Van Nuys",California 91405,,,"7324 N Sepulveda Van Nuys , California, Van Nuys, CA, 91405"
"Integrated HomeCare Services, Inc.","Home Care, Durable Medical Equipment",77146,"5027 Harrison Ave
Rockford, Illinois 61108","5027 Harrison Ave
Rockford",Illinois 61108,,,"5027 Harrison Ave, Rockford, IL, 61108"
"H&H Drug Stores, Inc","Home Care, Durable Medical Equipment",88971,"3604 San Fernando Road
Glendale, California 91204","3604 San Fernando Road
Glendale",California 91204,,,"DBA: Western Drug Medical Supply3604 San Fernando Road, Glendale, CA, 91204"
"VMS Home Oxygen, Inc.","Home Care, Durable Medical Equipment",430725,"1004-B West Cumberland Street
Dunn, North Carolina 28334","1004-B West Cumberland Street
Dunn",North Carolina 28334,,,"1004-B West Cumberland Street, Dunn, NC, 28334"
"Premier Medical Products, Inc.","Home Care, Durable Medical Equipment",401533,"1701 Quincy Ave Suite 1
Naperville, Illinois 60540","1701 Quincy Ave Suite 1
Naperville",Illinois 60540,,,"1701 Quincy Ave Suite 1, Naperville, IL, 60540"
North Florida/South Georgia Veterans Health System,"Home Care, Durable Medical Equipment",246194,"1601 Southwest Archer Road
Gainesville, Florida 32608-1197","1601 Southwest Archer Road
Gainesville",Florida 32608-1197,,,"DBA: Sergeant Ernest I. ""Boots"" Thomas VA Clinic2181 East Orange Ave, Tallahassee, FL, 32311"
Ingalls Home Care,"Home Care, Durable Medical Equipment",11790,"Wyman Gordon Pavilion, One Ingalls Drive
Harvey, Illinois 60426",Wyman Gordon Pavilion,"One Ingalls Drive
Harvey",Illinois,60426,"DBA: Home Health & HospiceWyman Gordon Pavilion, One Ingalls Dirve, Harvey, IL, 60426"
Cleveland Clinic Home Care Services,"Home Care, Durable Medical Equipment",11228,"6801 Brecksville Rd. Suite #10
Independence, Ohio 44131","6801 Brecksville Rd. Suite #10
Independence",Ohio 44131,,,"6801 Brecksville Rd. Suite #10, Independence, OH, 44131"
Canoga Medical Supply,"Home Care, Durable Medical Equipment",429302,"20050 Vanowen St., Unit I
Winnetka, California 91306",20050 Vanowen St.,"Unit I
Winnetka",California,91306,"20050 Vanowen St., Unit I, Winnetka, CA, 91306"
Heart 4 Heart Inc,"Home Care, Durable Medical Equipment",346639,"2924 North Dirksen Parkway
Springfield, Illinois 62702","2924 North Dirksen Parkway
Springfield",Illinois 62702,,,"DBA: Personal Mobility2924 N. Dirksen Parkway, Springfield, IL, 62702"
"Ray Fisher Pharmacy, Inc.","Home Care, Durable Medical Equipment",396819,"6629 N. Blackstone
Fresno, California 93710","6629 N. Blackstone
Fresno",California 93710,,,"DBA: Ray Fisher Pharmacy Medical Equipment & Supplies6629 N. Blackstone Avenue, Fresno, CA, 93710"
Pulmonary Services Group,"Home Care, Durable Medical Equipment",165291,"Avenida Fernandez Juncos 1824
Santurce, Puerto Rico 00909","Avenida Fernandez Juncos 1824
Santurce",Puerto Rico 00909,,,"Office Park III Carr # 2 Km 156.5 Suite 205, Mayaguez, PR, 00680"
ThedaCare At Home,"Home Care, Durable Medical Equipment",51815,"3000 East College Avenue, Suite A
Appleton, Wisconsin 54915",3000 East College Avenue,"Suite A
Appleton",Wisconsin,54915,"DBA: ThedaCare At Home3000 East College Avenue, Suite A, Appleton, WI, 54915"
Frances Mahon Deaconess Hospital,"Home Care, Durable Medical Equipment",359935,"621 3rd Street South
Glasgow, Montana 59230","621 3rd Street South
Glasgow",Montana 59230,,,"621 3rd Street South, Glasgow, MT, 59230"
Allegheny Health Network Home Medical Equipment LLC,"Home Care, Durable Medical Equipment",86291,"404 Ford Street
Ford City, Pennsylvania 16226","404 Ford Street
Ford City",Pennsylvania 16226,,,"404 Ford Street, Ford City, PA, 16226"
"Special Care Medical of SC, Inc.","Home Care, Durable Medical Equipment",85745,"3465 Leaphart Road
West Columbia, South Carolina 29169","3465 Leaphart Road
West Columbia",South Carolina 29169,,,"3465 Leaphart Road, West Columbia, SC, 29169"
"Med Equip Medical Rentals, Inc.","Home Care, Durable Medical Equipment",436816,"909 Market
Laredo, Texas 78040","909 Market
Laredo",Texas 78040,,,"909 Market, Laredo, TX, 78040"
Ochsner Home Medical Equipment LLC,"Home Care, Durable Medical Equipment",58410,"501 Coolidge St
Jefferson, Louisiana 70121","501 Coolidge St
Jefferson",Louisiana 70121,,,"DBA: Ochsner Home Medical Equipment501 Coolidge St, Jefferson, LA, 70121"
"Bay View Homecare, Inc.","Home Care, Durable Medical Equipment",99841,"4404 Fitch Avenue
Baltimore, Maryland 21236","4404 Fitch Avenue
Baltimore",Maryland 21236,,,"4404 Fitch Avenue, Baltimore, MD, 21236"
Walnut Medical Services,"Home Care, Durable Medical Equipment",221469,"226 Main Street
Johnstown, Pennsylvania 15901","226 Main Street
Johnstown",Pennsylvania 15901,,,"226 Main Street, Johnstown, PA, 15901"
"IHC Health Services, Inc.","Home Care, Durable Medical Equipment",238282,"11520 So Redwood Rd
South Jordan, Utah 84095","11520 So Redwood Rd
South Jordan",Utah 84095,,,"DBA: Intermountain Homecare11520 So Redwood Rd, South Jordan, UT, 84095"
"Professional Medical Home Healthcare, Inc.","Home Care, Durable Medical Equipment",201619,"4855 Memorial Drive
Stone Mountain, Georgia 30083","4855 Memorial Drive
Stone Mountain",Georgia 30083,,,"4855 Memorial Drive, Stone Mountain, GA, 30083"
"Electrostim Medical Services, Inc.","Home Care, Durable Medical Equipment",247060,"3504 Cragmont Drive, Suite 100
Tampa, Florida 33619-8300",3504 Cragmont Drive,"Suite 100
Tampa",Florida,33619-8300,"DBA: EMSI3504 Cragmont Drive, Suite 100, Tampa, FL, 33619-8300"
"Wilson Pharmacy, Inc.","Home Care, Durable Medical Equipment",11369,"523 N State of Franklin Road
Johnson City, Tennessee 37604","523 N State of Franklin Road
Johnson City",Tennessee 37604,,,"DBA: Ballad Health Pharmacy523 N State of Franklin Road, Johnson City, TN, 37604"
EHS Home Health Care Service Inc.,"Home Care, Durable Medical Equipment",10830,"2311 West 22nd Street Suite 300
Oak Brook, Illinois 60523","2311 West 22nd Street Suite 300
Oak Brook",Illinois 60523,,,"DBA: Advocate Hospice2311 W. 22nd St. Suite 300, Oak Brook, IL, 60523"
"Advanced Medical Solutions, Inc.","Home Care, Durable Medical Equipment",183848,"106 West Grand River Avenue
Howell, Michigan 48843","106 West Grand River Avenue
Howell",Michigan 48843,,,"DBA: Advanced Medical Solutions, Inc.106 W. Grand River Avenue, Howell, MI, 48843"
Queen City Med Mart,"Home Care, Durable Medical Equipment",153566,"10780 Reading Road
Cincinnati, Ohio 45241","10780 Reading Road
Cincinnati",Ohio 45241,,,"10780 Reading Road, Cincinnati, OH, 45241"
"Quality Home Care Providers, Inc.","Home Care, Durable Medical Equipment",145551,"345 Grand Avenue
Leonia, New Jersey 07605","345 Grand Avenue
Leonia",New Jersey 07605,,,"345 Grand Avenue, Leonia, NJ, 07605"
Valley Children's Hospital,"Home Care, Durable Medical Equipment",9835,"9300 Valley Children's Place
Madera, California 93636-8762","9300 Valley Children's Place
Madera",California 93636-8762,,,"5085 E McKinley Ave, Fresno, CA, 93727"
Millennium Healthcare Inc.,"Home Care, Durable Medical Equipment",151339,"30 Troy Road
Whippany, New Jersey 07981","30 Troy Road
Whippany",New Jersey 07981,,,"DBA: Millennium Respiratory Services30 Troy Road, Whippany, NJ, 07981"
"Conva Aids, Inc.","Home Care, Durable Medical Equipment",10323,"30 Hopper Street
Westbury, New York 11590","30 Hopper Street
Westbury",New York 11590,,,"DBA: New York Home Health Care30 Hopper Street, Westbury, NY, 11590"
"WP&H, LLC","Home Care, Durable Medical Equipment",365548,"1170-1172 N. Knollwood Circle
Anaheim, California 92801","1170-1172 N. Knollwood Circle
Anaheim",California 92801,,,"DBA: Military Medical Supplies1170-1172 N. Knollwood Circle, Anaheim, CA, 92801"
"Charles Pfeiffer, Inc.","Home Care, Durable Medical Equipment",36577,"511 Jewett Ave.
Staten Island, New York 10302","511 Jewett Ave.
Staten Island",New York 10302,,,"511 Jewett Avenue, Staten Island, NY, 10302"
VA Northern Indiana Health Care System,"Home Care, Durable Medical Equipment",150320,"2121 Lake Avenue
Fort Wayne, Indiana 46805","2121 Lake Avenue
Fort Wayne",Indiana 46805,,,"1496 West Hoosier Blvd, Peru, IN, 46970"
"Central New York Infusion Service, LLC","Home Care, Durable Medical Equipment",173926,"333 Butternut Drive Suite 102
De Witt, New York 13214","333 Butternut Drive Suite 102
De Witt",New York 13214,,,"DBA: CNY Infusion Services333 Butternut Drive Suite 102, De Witt, NY, 13214"
"Gibraltar Home Health Services, LLC","Home Care, Durable Medical Equipment",377682,"22141 Ventura Boulevard, #300
Woodland Hills, California 91364",22141 Ventura Boulevard,"#300
Woodland Hills",California,91364,"22141 Ventura Boulevard, #300, Woodland Hills, CA, 91364"
Livingston Infusion Care,"Home Care, Durable Medical Equipment",247050,"603 Montrose Avenue
South Plainfield, New Jersey 07080","603 Montrose Avenue
South Plainfield",New Jersey 07080,,,"DBA: RWJBarnabas Health Infusion and Specialty Pharmacy603 Montrose Avenue, South Plainfield, NJ, 07080"
VA Southern Oregon Rehabilitation Center and Clinics,"Home Care, Durable Medical Equipment",243936,"8495 Crater Lake Highway
White City, Oregon 97503","8495 Crater Lake Highway
White City",Oregon 97503,,,"8495 Crater Lake Hwy, White City, OR, 97503"
Plaza Home Care Pharmacy Inc.,"Home Care, Durable Medical Equipment",133046,"900 S Arroyo Pkwy #150
Pasadena, California 91105","900 S Arroyo Pkwy #150
Pasadena",California 91105,,,"900 S Arroyo Pkwy #150, Pasadena, CA, 91105"
"Dick's Homecare, Inc.","Home Care, Durable Medical Equipment",80466,"401 Maple Avenue
Altoona, Pennsylvania 16601","401 Maple Avenue
Altoona",Pennsylvania 16601,,,"401 Maple Ave, Altoona, PA, 16601"
"SS Medical, Inc.","Home Care, Durable Medical Equipment",362441,"14915 S. 49th W. Ave.
Kiefer, Oklahoma 74041","14915 S. 49th W. Ave.
Kiefer",Oklahoma 74041,,,"DBA: SS Medical, Inc.14915 S. 49th W Ave., Kiefer, OK, 74041"
"Mobility Equipment, Inc.","Home Care, Durable Medical Equipment",346624,"1282 Montgomery Avenue
San Bruno, California 94066","1282 Montgomery Avenue
San Bruno",California 94066,,,"1282 Montgomery Avenue, San Bruno, CA, 94066"
"Healthcare Solutions Group, Inc.","Home Care, Durable Medical Equipment",411497,"8031 Ridgeway Avenue
Skokie, Illinois 60076","8031 Ridgeway Avenue
Skokie",Illinois 60076,,,"8031 Ridgeway Avenue, Skokie, IL, 60076"
Alaska VA Healthcare System,"Home Care, Durable Medical Equipment",49464,"1201 N. Muldoon Road
Anchorage, Alaska 99504","1201 N. Muldoon Road
Anchorage",Alaska 99504,,,"1201 North Muldoon Road, Anchorage, AK, 99504"
First Community Care of Bassett LLC,"Home Care, Durable Medical Equipment",413705,"12 Commons Drive, Suite 18
Cooperstown, New York 13326",12 Commons Drive,"Suite 18
Cooperstown",New,York,"12 Commons Drive Suite 18, Cooperstown, NY, 13326"
Aldo Surgical And Hospital Supply Inc,"Home Care, Durable Medical Equipment",403767,"8074 NW 103rd Street Suite # 21
Hialeah Gardens, Florida 33016","8074 NW 103rd Street Suite # 21
Hialeah Gardens",Florida 33016,,,"8074 NW 103 Street Suite # 21, Hialeah Gardens, FL, 33016"
"ICP, Inc.","Home Care, Durable Medical Equipment",151200,"1815 West County Road 54
Tiffin, Ohio 44883","1815 West County Road 54
Tiffin",Ohio 44883,,,"DBA: Institutional Care Pharmacy1815 West County Road 54, Tiffin, OH, 44883"
Thomas E Smart & Harry L White Jr PTRS,"Home Care, Durable Medical Equipment",100153,"41 West Main Street
Hamlet, North Carolina 28345","41 West Main Street
Hamlet",North Carolina 28345,,,"DBA: Mabry's Drug and Home Care41 West Main Street, Hamlet, NC, 28345"
"Home Medix, Inc.","Home Care, Durable Medical Equipment",140142,"3811 Atlantic Avenue
Long Beach, California 90807","3811 Atlantic Avenue
Long Beach",California 90807,,,"3811 Atlantic Avenue, Long Beach, CA, 90807"
Fairview Pharmacy Services LLC,"Home Care, Durable Medical Equipment",361008,"711 Kasota Avenue SE
Minneapolis, Minnesota 55414","711 Kasota Avenue SE
Minneapolis",Minnesota 55414,,,"DBA: Fairview Home Infusion Kasota711 Kasota Avenue SE, Minneapolis, MN, 55414"
"Lewin Agency, Inc.","Home Care, Durable Medical Equipment",52745,"165 Oliver Street
Riverhead, New York 11901","165 Oliver Street
Riverhead",New York 11901,,,"DBA: Lewin Medical Supply165 Oliver Street, Riverhead, NY, 11901"
P.K. Mills and Company,"Home Care, Durable Medical Equipment",205576,"1005 Franklin Avenue
Toronto, Ohio 43964","1005 Franklin Avenue
Toronto",Ohio 43964,,,"DBA: Heritage Home Care1005 Franklin Avenue Suite 1, Toronto, OH, 43964"
Providence Health & Services - WA,"Home Care, Durable Medical Equipment",12441,"3333 S. 120th Pl. Suite 100
Tukwila, Washington 98168","3333 S. 120th Pl. Suite 100
Tukwila",Washington 98168,,,"DBA: Providence Infusion and Pharmacy Services3333 S. 120th Pl. Suite 100, Tukwila, WA, 98168"
Providence Health & Services - Oregon,"Home Care, Durable Medical Equipment",320680,"6410 NE Halsey
Portland, Oregon 97213","6410 NE Halsey
Portland",Oregon 97213,,,"DBA: Providence Home Health6410 NE Halsey, Portland, OR, 97213"
"DASCO HME, LLC","Home Care, Durable Medical Equipment",10751,"375 N. West Street
Westerville, Ohio 43082","375 N. West Street
Westerville",Ohio 43082,,,"DBA: DASCO Home Medical Equipment375 N. West Street, Westerville, OH, 43082"
"Calox, Inc.","Home Care, Durable Medical Equipment",10824,"3034 Fierro Street
Los Angeles, California 90065","3034 Fierro Street
Los Angeles",California 90065,,,"3034 Fierro Street, Los Angeles, CA, 90065"
Lu & Weber Corporation,"Home Care, Durable Medical Equipment",55498,"10521 Garden Grove Boulevard
Garden Grove, California 92843","10521 Garden Grove Boulevard
Garden Grove",California 92843,,,"DBA: Preferred Excellent Care10521 Garden Grove Boulevard, Garden Grove, CA, 92843"
"Complete Care Medical Supply, Inc.","Home Care, Durable Medical Equipment",288460,"16756 Ventura Boulevard
Encino, California 91436","16756 Ventura Boulevard
Encino",California 91436,,,"16756 Ventura Boulevard, Encino, CA, 91436"
"West Plains Health Service, Inc.","Home Care, Durable Medical Equipment",46241,"1703 West 8th Street
West Plains, Missouri 65775","1703 West 8th Street
West Plains",Missouri 65775,,,"DBA: Ozarks Healthcare Medical Equipment1703 W. 8th Street, West Plains, MO, 65775"
MultiCare Health System,"Home Care, Durable Medical Equipment",9645,"317 Martin Luther King Jr Way
Tacoma, Washington 98405-0299","317 Martin Luther King Jr Way
Tacoma",Washington 98405-0299,,,"317 Martin Luther King Jr. Way, Tacoma, WA, 98405"
"Superior Mobility, Inc.","Home Care, Durable Medical Equipment",73546,"1950 E. 220th Street, Suite 208
Carson, California 90810",1950 E. 220th Street,"Suite 208
Carson",California,90810,"1950 E. 220th Street, Suite 208, Carson, CA, 90810"
Clinical 1 Home Medical Corp,"Home Care, Durable Medical Equipment",290041,"65 Mathewson Drive, Unit E
Weymouth, Massachusetts 02189",65 Mathewson Drive,"Unit E
Weymouth",Massachusetts,02189,"65 Matthewson Drive, Unit E, Weymouth, MA, 02189"
"StateServ Medical of Houston, LLC","Home Care, Durable Medical Equipment",163983,"1285 N. Post Oak Road, Suite 190
Houston, Texas 77055",1285 N. Post Oak Road,"Suite 190
Houston",Texas,77055,"DBA: Tallwood Medical Equipment and Supply, Inc.1285 Post Oak Road, Suite 190, Houston, TX, 77055"
"VA Black Hills Health Care System-Fort Meade-Hot Springs, SD","Home Care, Durable Medical Equipment",194232,"113 Comanche Road
Fort Meade, South Dakota 57741","113 Comanche Road
Fort Meade",South Dakota 57741,,,"113 Comanche Road, Fort Meade, SD, 57741"
"Lang Home Medical Equipment, Inc.","Home Care, Durable Medical Equipment",96285,"1552 Barclay Boulevard
Buffalo Grove, Illinois 60089","1552 Barclay Boulevard
Buffalo Grove",Illinois 60089,,,"1552 Barclay Boulevard, Buffalo Grove, IL, 60089"
SCL Health Montana,"Home Care, Durable Medical Equipment",9285,"1233 North 30th Street
Billings, Montana 59101-0127","1233 North 30th Street
Billings",Montana 59101-0127,,,"DBA: St. Vincent Healthcare  (Cancer Centers of Montana)1315 Golden Valley Circle, Billings, MT, 59102-6746"
Concept Pharmacy Services,"Home Care, Durable Medical Equipment",57077,"639 Chestnut Street
Ashland, Pennsylvania 17921","639 Chestnut Street
Ashland",Pennsylvania 17921,,,"639 Chestnut Street, Ashland, PA, 17921"
"Homecare Medical Products, Inc.","Home Care, Durable Medical Equipment",299724,"4105 Cortez Rd W
Bradenton, Florida 34210","4105 Cortez Rd W
Bradenton",Florida 34210,,,"DBA: HMP Medical4105 Cortez Rd W, Bradenton, FL, 34210"
Doc Browns Inc,"Home Care, Durable Medical Equipment",143121,"2093 Wantagh Avenue
Wantagh, New York 11793","2093 Wantagh Avenue
Wantagh",New York 11793,,,"DBA: Mid Island Medical Supply Co2093 Wantagh Avenue, Wantagh, NY, 11793"
"Manny Esh Respiratory Care, Inc.","Home Care, Durable Medical Equipment",121566,"121 West Lancaster Avenue
Shillington, Pennsylvania 19607","121 West Lancaster Avenue
Shillington",Pennsylvania 19607,,,"121 W Lancaster Ave, Shillington, PA, 19607"
"Y Medical Associates, Inc.","Home Care, Durable Medical Equipment",34310,"8840 N MacArthur Blvd.
Irving, Texas 75063","8840 N MacArthur Blvd.
Irving",Texas 75063,,,"8840 N MacArthur Blvd., Irving, TX, 75063"
VA Puget Sound Health Care System,"Home Care, Durable Medical Equipment",103674,"1660 South Columbian Way (S-002-QI)
Seattle, Washington 98108-1597","1660 South Columbian Way (S-002-QI)
Seattle",Washington 98108-1597,,,"1660 South Columbian Way, Seattle, WA, 98108"
Dept. Veterans Affairs NE Consolidated Mail Outpatient Pharm,"Home Care, Durable Medical Equipment",254512,"10 Industrial Avenue
Chelmsford, Massachusetts 01824","10 Industrial Avenue
Chelmsford",Massachusetts 01824,,,"10 Industrial Avenue, Chelmsford, MA, 01824"
"Mercy Home Care and Medical Supplies, Inc.","Home Care, Durable Medical Equipment",49283,"2001 McDonald Avenue
Brooklyn, New York 11223","2001 McDonald Avenue
Brooklyn",New York 11223,,,"2001 McDonald Avenue, Brooklyn, NY, 11223"
San Carlos Apache Healthcare Corporation,"Home Care, Durable Medical Equipment",9502,"103 Medicine Way Road
Peridot, Arizona 85542","103 Medicine Way Road
Peridot",Arizona 85542,,,"101 Medical Drive, Bylas, AZ, 85530"
Super Care Inc.,"Home Care, Durable Medical Equipment",12272,"16017 Valley Blvd
City Of Industry, California 91744","16017 Valley Blvd
City Of Industry",California 91744,,,"DBA: SuperCare Health1960 Chicago Ave - Suite E5, Riverside, CA, 92507"
"Hackensack Meridian Ambulatory Care, Inc.","Home Care, Durable Medical Equipment",78140,"1340 Campus Parkway, Suite A3
Neptune, New Jersey 07753",1340 Campus Parkway,"Suite A3
Neptune",New,Jersey,"DBA: Hackensack Meridian Hospice1340 Campus Parkway, Suite A3, Neptune, NJ, 07753"
Grossmont Hospital Corporation,"Home Care, Durable Medical Equipment",9853,"5555 Grossmont Center Drive
La Mesa, California 91942","5555 Grossmont Center Drive
La Mesa",California 91942,,,"9000 Wakarusa, La Mesa, CA, 91942"
"Milner-Rushing, Inc.","Home Care, Durable Medical Equipment",222912,"869 Florence Boulevard
Florence, Alabama 35630","869 Florence Boulevard
Florence",Alabama 35630,,,"DBA: Milner Rushing Home Care869 Florence Boulevard, Florence, AL, 35630"
"Helget, Inc.","Home Care, Durable Medical Equipment",12453,"4211 S.102nd St
Omaha, Nebraska 68127","4211 S.102nd St
Omaha",Nebraska 68127,,,"DBA: Helget Home Medical Capital Medical6891 A St. Ste 118, Lincoln, NE, 68510"
"MCR Health, Inc.","Home Care, Durable Medical Equipment",187890,"101 Riverfront Blvd, Ste 100
Bradenton, Florida 34205",101 Riverfront Blvd,"Ste 100
Bradenton",Florida,34205,"DBA: East Manatee Health and Wellness Center1312 Manatee Avenue East, Bradenton, FL, 34208"
"New England Life Care, Inc.","Home Care, Durable Medical Equipment",10500,"45 Center St. Suite A
Scarborough, Maine 04074","45 Center St. Suite A
Scarborough",Maine 04074,,,"41C Terrill Park Drive, Concord, NH, 03301"
Community Surgical Supply of Toms River Inc.,"Home Care, Durable Medical Equipment",15809,"734 Forest Street, STE 400
Marlborough, Massachusetts 01752",734 Forest Street,"STE 400
Marlborough",Massachusetts,01752,"DBA: AdaptHealth New England240 Meriden Road, Lebanon, NH, 03766"
Confucius Pharmacy Inc,"Home Care, Durable Medical Equipment",284228,"25 Bowery
New York, New York 10002","25 Bowery
New York",New York 10002,,,"DBA: Mannings Surgical Supplies34-20 56th Street, Woodside, NY, 11377"
"Heartland Home Infusions, Inc.","Home Care, Durable Medical Equipment",117502,"901 McClintock Dr, Ste 106
Burr Ridge, Illinois 60527",901 McClintock Dr,"Ste 106
Burr Ridge",Illinois,60527,"DBA: HHI Infusion Services901 McClintock Dr, Ste 106, Burr Ridge, IL, 60527"
"Hutchinson Regional Medical Center, Inc.","Home Care, Durable Medical Equipment",10723,"1701 East 23rd Ave
Hutchinson, Kansas 67502","1701 East 23rd Ave
Hutchinson",Kansas 67502,,,"DBA: Health-E-Quip McPherson1318 N Main, McPherson, KS, 67460"
"Saint Francis Hospital, Inc.","Home Care, Durable Medical Equipment",8908,"6161 South Yale Avenue
Tulsa, Oklahoma 74136","6161 South Yale Avenue
Tulsa",Oklahoma 74136,,,"6161 South Yale, Tulsa, OK, 74136"
"St. Joseph Health System Home Health Agency, LLC","Home Care, Durable Medical Equipment",10862,"200 West Center Street Promenade, Suite 200C
Anaheim, California 92805",200 West Center Street Promenade,"Suite 200C
Anaheim",California,92805,"DBA: Providence Home Health Orange County Mission Viejo26522 La Alameda, Suite 120, Mission Viejo, CA, 92691"
WellSpan Health,"Home Care, Durable Medical Equipment",81518,"PO Box 20129
York, Pennsylvania 17402","PO Box 20129
York",Pennsylvania 17402,,,"25 Monument Road Suite 265, York, PA, 17403"
"Express Medical Equipment, Inc.","Home Care, Durable Medical Equipment",182535,"140 Hillside Avenue
Hillside, New Jersey 07205","140 Hillside Avenue
Hillside",New Jersey 07205,,,"140 Hillside Avenue, Hillside, NJ, 07205"
"A-Ability Medical Equipment, Inc.","Home Care, Durable Medical Equipment",43932,"4010 East Hillsborough Avenue
Tampa, Florida 33610","4010 East Hillsborough Avenue
Tampa",Florida 33610,,,"4010 E Hillsborough Ave, Tampa, FL, 33610"
University of California San Diego Medical Center,"Home Care, Durable Medical Equipment",10071,"200 West Arbor Drive
San Diego, California 92103-8949","200 West Arbor Drive
San Diego",California 92103-8949,,,"4168 Front Street, San Diego, CA, 92103"
"IV League, Inc.","Home Care, Durable Medical Equipment",149652,"6076 Bristol Parkway, Suite 104
Culver City, California 90230",6076 Bristol Parkway,"Suite 104
Culver City",California,90230,"6076 Bristol Parkway, Suite 104, Culver City, CA, 90230"
"BayCare Home Care, Inc.","Home Care, Durable Medical Equipment",261721,"8452 118th Avenue North
Largo, Florida 33773","8452 118th Avenue North
Largo",Florida 33773,,,"8452 118th Avenue North, Largo, FL, 33773"
"American Homecare Equipment, Inc.","Home Care, Durable Medical Equipment",355830,"3200 N 29 Ave
Hollywood, Florida 33020","3200 N 29 Ave
Hollywood",Florida 33020,,,"3200 N 29 Ave, Hollywood, FL, 33020"
Sheldon Medical Supply,"Home Care, Durable Medical Equipment",98625,"21 West Sanilac Aveue
Sandusky, Michigan 48471","21 West Sanilac Aveue
Sandusky",Michigan 48471,,,"DBA: Sheldon Medical Supply836 South Van Dyke Road, Bad Axe, MI, 48413"
Harrold's Pharmacy Infusion Services,"Home Care, Durable Medical Equipment",55922,"250 Old River Road Suite B
Wilkes Barre, Pennsylvania 18702","250 Old River Road Suite B
Wilkes Barre",Pennsylvania 18702,,,"250 Old River Road Suite B, Wilkes Barre, PA, 18702"
"New Utrecht Surgical Supply, Corp.","Home Care, Durable Medical Equipment",67835,"4622 New Utrecht Avenue
Brooklyn, New York 11219","4622 New Utrecht Avenue
Brooklyn",New York 11219,,,"DBA: New Utrecht Surgical Supplies Corp4622 New Utrecht Avenue, Brooklyn, NY, 11219"
"Kaup Pharmacy, Inc.","Home Care, Durable Medical Equipment",47745,"110 East Butler Street
Fort Recovery, Ohio 45846","110 East Butler Street
Fort Recovery",Ohio 45846,,,"DBA: Kaup Pharmacy Dependable Home Medical1201 Commerce Street, Fort Recovery, OH, 45846"
Children's Hospital Colorado,"Home Care, Durable Medical Equipment",9375,"13123 East 16th Avenue
Aurora, Colorado 80045","13123 East 16th Avenue
Aurora",Colorado 80045,,,"13123 East 16th Avenue, Aurora, CO, 80045"
Hastings Home Health Center,"Home Care, Durable Medical Equipment",67745,"211 Commerce Park Dr.
Medina, Ohio 44256","211 Commerce Park Dr.
Medina",Ohio 44256,,,"DBA: Hastings Professional Medical Equipment1035 W. Smith Rd., Medina, OH, 44256"
Mahaska County Hospital,"Home Care, Durable Medical Equipment",8291,"1229 C Avenue East
Oskaloosa, Iowa 52577","1229 C Avenue East
Oskaloosa",Iowa 52577,,,"DBA: Mahaska Health Partnership1229 C Avenue East, Oskaloosa, IA, 52577"
Duke HomeCare & Hospice,"Home Care, Durable Medical Equipment",43761,"4321 Medical Park Drive, Suite 101
Durham, North Carolina 27704",4321 Medical Park Drive,"Suite 101
Durham",North,Carolina,"4321 Medical Park Drive, Suite 101, Durham, NC, 27704"
"Future Surgical Supplies, Inc.","Home Care, Durable Medical Equipment",81287,"430 Nepperhan Avenue
Yonkers, New York 10701-6601","430 Nepperhan Avenue
Yonkers",New York 10701-6601,,,"430 Nepperhan Avenue, Yonkers, NY, 10701-6601"
"Commonwealth Home Health Care, Inc.","Home Care, Durable Medical Equipment",12202,"479 Piney Forest Road
Danville, Virginia 24540","479 Piney Forest Road
Danville",Virginia 24540,,,"479 Piney Forest Road, Danville, VA, 24540"
"Rainbow Medical Supply, Inc.","Home Care, Durable Medical Equipment",128323,"224 Haili Street, Unit B-Back
Hilo, Hawaii 96720",224 Haili Street,"Unit B-Back
Hilo",Hawaii,96720,"224 Haili Street, Unit B-Back, Hilo, HI, 96720"
Bothwell Regional Health Center,"Home Care, Durable Medical Equipment",8400,"601 E. 14th Street
Sedalia, Missouri 65301","601 E. 14th Street
Sedalia",Missouri 65301,,,"601 East 14th Street, Sedalia, MO, 65301"
Norman Regional Hospital Authority,"Home Care, Durable Medical Equipment",8868,"3300 Healthplex Pkwy
Norman, Oklahoma 73072-9749","3300 Healthplex Pkwy
Norman",Oklahoma 73072-9749,,,"DBA: Norman Regional901 North Porter Ave, Norman, OK, 73071"
"Mannino's Family Practice Pharmacy, Inc.","Home Care, Durable Medical Equipment",132680,"113 West Charles Street
Hammond, Louisiana 70401","113 West Charles Street
Hammond",Louisiana 70401,,,"113 West Charles, Hammond, LA, 70401"
"MC Medical, Inc.","Home Care, Durable Medical Equipment",181752,"Ferrocaril Street #501
Ponce, Puerto Rico 00717","Ferrocaril Street #501
Ponce",Puerto Rico 00717,,,"DBA: MC Medical, Inc.Ferrocaril Street #501, Ponce, PR, 00717"
Elumina Health,"Home Care, Durable Medical Equipment",78310,"1220 Gay Street
Portsmouth, Ohio 45662","1220 Gay Street
Portsmouth",Ohio 45662,,,"1220 Gay Street, Portsmouth, OH, 45662"
"COMPASSUS BSMH YOUNGSTOWN HHA, LLC","Home Care, Durable Medical Equipment",73683,"979 Tibbetts Wick Road, Suite A
Girard, Ohio 44420",979 Tibbetts Wick Road,"Suite A
Girard",Ohio,44420,"DBA: MERCY HEALTH HOME CARE-YOUNGSTOWN979 Tibbetts Wick Road, Suite A, Girard, OH, 44420"
Oklahoma City Veterans Affairs Health Care System,"Home Care, Durable Medical Equipment",8883,"921 Northeast 13th Street
Oklahoma City, Oklahoma 73104","921 Northeast 13th Street
Oklahoma City",Oklahoma 73104,,,"921 Northeast 13th Street, Oklahoma City, OK, 73104"
Kaiser Permanente Continuing Care Service,"Home Care, Durable Medical Equipment",10281,"500 NE Multnomah St
Portland, Oregon 97232","500 NE Multnomah St
Portland",Oregon 97232,,,"5717 NE 138th Avenue, Portland, OR, 97230"
Avera McKennan,"Home Care, Durable Medical Equipment",8470,"1325 S. Cliff Ave.
Sioux Falls, South Dakota 57117-5045","1325 S. Cliff Ave.
Sioux Falls",South Dakota 57117-5045,,,"DBA: Avera McKennan1325 S. Cliff Ave., Sioux Falls, SD, 57117"
"Shuman HealthCare, Inc.","Home Care, Durable Medical Equipment",11547,"2015 Tebeau Street
Waycross, Georgia 31501","2015 Tebeau Street
Waycross",Georgia 31501,,,"2011 Tebeau Street, Waycross, GA, 31501"
Rockcastle Regional Hospital and Respiratory Care Center,"Home Care, Durable Medical Equipment",7784,"145 Newcomb Avenue
Mount Vernon, Kentucky 40456","145 Newcomb Avenue
Mount Vernon",Kentucky 40456,,,"145 Newcomb Avenue, Mount Vernon, KY, 40456"
"Health Aid of Ohio, Inc.","Home Care, Durable Medical Equipment",88293,"6940 Engle Rd., Suite N
Middleburg Heights, Ohio 44130",6940 Engle Rd.,"Suite N
Middleburg Heights",Ohio,44130,"6940 Engle Road, Suite N, Middleburg Heights, OH, 44130"
"Professionals PRN, LLC","Home Care, Durable Medical Equipment",103263,"21 N. Maysville Avenue
Zanesville, Ohio 43701","21 N. Maysville Avenue
Zanesville",Ohio 43701,,,"DBA: Northside Home Infusion21 N .Maysville Ave., Zanesville, OH, 43701"
"University Hospitals Home Care Services, Inc.","Home Care, Durable Medical Equipment",13485,"4510 Richmond Road
Warrensville Heights, Ohio 44128","4510 Richmond Road
Warrensville Heights",Ohio 44128,,,"DBA: UHHCS DME960 Clague Road, Suite 2200, 3110, 960 Clauge Road Suite 2200 OR, Westlake, OH, 44145"
"STAT Medical, Inc.","Home Care, Durable Medical Equipment",119912,"1719 Hau Street
Honolulu, Hawaii 96819","1719 Hau Street
Honolulu",Hawaii 96819,,,"1719 Hau Street, Honolulu, HI, 96819"
Tuba City Regional Health Care Corporation,"Home Care, Durable Medical Equipment",9508,"167 North Main Street
Tuba City, Arizona 86045","167 North Main Street
Tuba City",Arizona 86045,,,"167 North Main Street, Tuba City, AZ, 86045"
Cornell Surgical Co.,"Home Care, Durable Medical Equipment",73707,"30 New Bridge Road
Bergenfield, New Jersey 07621","30 New Bridge Road
Bergenfield",New Jersey 07621,,,"30 New Bridge Road, Bergenfield, NJ, 07621"
Children's Nebraska,"Home Care, Durable Medical Equipment",8514,"8200 Dodge Street
Omaha, Nebraska 68114-4113","8200 Dodge Street
Omaha",Nebraska 68114-4113,,,"8200 Dodge Street, Omaha, NE, 68114"
"Ideal Health Care, LLC","Home Care, Durable Medical Equipment",77539,"60 Lincoln Highway Suite B
Edison, New Jersey 08820","60 Lincoln Highway Suite B
Edison",New Jersey 08820,,,"DBA: Ideal Health Care LLC60 Lincoln Highway Suite B, Edison, NJ, 08820"
"Elba Medical Distrubutors, Inc.","Home Care, Durable Medical Equipment",135375,"5208 Veterans Boulevard
Metairie, Louisiana 70006","5208 Veterans Boulevard
Metairie",Louisiana 70006,,,"DBA: Patio Drugs5208 Veterans Boulevard, Metairie, LA, 70006"
Susan B. Allen Memorial Hospital,"Home Care, Durable Medical Equipment",8544,"720 West Central Ave.
El Dorado, Kansas 67042","720 West Central Ave.
El Dorado",Kansas 67042,,,"DBA: Susan B. Allen Home Health Care720 W. Central Ave, El Dorado, KS, 67042"
Central Texas Veterans Health Care System,"Home Care, Durable Medical Equipment",132610,"1901 Veterans Memorial Drive
Temple, Texas 76504","1901 Veterans Memorial Drive
Temple",Texas 76504,,,"1901 Veterans Memorial Drive, Temple, TX, 76504"
Hudson Hospital & Clinic,"Home Care, Durable Medical Equipment",7643,"405 Stageline Road
Hudson, Wisconsin 54016","405 Stageline Road
Hudson",Wisconsin 54016,,,"DBA: Hudson Hospital & Clinic405 Stageline Road, Hudson, WI, 54016"
"PNEU-MED, Inc.","Home Care, Durable Medical Equipment",48617,"3475 E. Amazon Drive
Eugene, Oregon 97405","3475 E. Amazon Drive
Eugene",Oregon 97405,,,"3475 East Amazon Drive, Eugene, OR, 97405"
"Medi-Fair, Inc.","Home Care, Durable Medical Equipment",86271,"25 Jefferson Street
Monticello, New York 12701","25 Jefferson Street
Monticello",New York 12701,,,"25 Jefferson Street, Monticello, NY, 12701"
"Home Care Equipment, Incorporated","Home Care, Durable Medical Equipment",10894,"1700 W Harper Street
Poplar Bluff, Missouri 63901","1700 W Harper Street
Poplar Bluff",Missouri 63901,,,"703 W 53rd St North, Wichita, KS, 67204"
Sparrow Community Care,"Home Care, Durable Medical Equipment",12486,"326 E. Morgan Lane
Lansing, Michigan 48912","326 E. Morgan Lane
Lansing",Michigan 48912,,,"DBA: Sparrow Medical Supply306 East Elm Street - Suite C, Saint Johns, MI, 48879"
INTEGRIS Grove Hospital,"Home Care, Durable Medical Equipment",8849,"1001 East 18th
Grove, Oklahoma 74344","1001 East 18th
Grove",Oklahoma 74344,,,"63238 East 290 Road, Grove, OK, 74344"
"Therap-Ease, Inc.","Home Care, Durable Medical Equipment",96128,"121 Industrial Park Road
Plymouth, Massachusetts 02360","121 Industrial Park Road
Plymouth",Massachusetts 02360,,,"121 Industrial Park Road, Plymouth, MA, 02360"
St. Luke's Regional Medical Center,"Home Care, Durable Medical Equipment",9314,"190 East Bannock Street
Boise, Idaho 83712","190 East Bannock Street
Boise",Idaho 83712,,,"DBA: St. Luke's Children's Specialty Center - Boise305 E. Jefferson, Boise, ID, 83712"
Americare Pharmaceutical Services,"Home Care, Durable Medical Equipment",35229,"317 Nassau Boulevard South
Garden City, New York 11530","317 Nassau Boulevard South
Garden City",New York 11530,,,"DBA: Infusion Healthcare LLC317B Nassau Boulevard South, Garden City South, NY, 11530"
"UHS of Texoma, Inc.","Home Care, Durable Medical Equipment",9018,"5016 South US Hwy 75, Suite 300
Denison, Texas 75020",5016 South US Hwy 75,"Suite 300
Denison",Texas,75020,"DBA: Texoma Medical Center5016 South US Hwy 75, Denison, TX, 75021"
Cook Children's Home Health,"Home Care, Durable Medical Equipment",166900,"1101 W. Vickery
Fort Worth, Texas 76104","1101 W. Vickery
Fort Worth",Texas 76104,,,"1101 W. Vickery Blvd., Fort Worth, TX, 76104"
DCH Regional Medical Center,"Home Care, Durable Medical Equipment",8019,"809 University Boulevard, East
Tuscaloosa, Alabama 35401",809 University Boulevard,"East
Tuscaloosa",Alabama,35401,"809 University Blvd. E., Tuscaloosa, AL, 35401"
Lucile Salter Packard Children's Hospital at Stanford,"Home Care, Durable Medical Equipment",10151,"725 Welch Road
Palo Alto, California 94304","725 Welch Road
Palo Alto",California 94304,,,"DBA: Stanford Medicine Children's Health725 Welch Road, Palo Alto, CA, 94304"
The Children's Mercy Hospital,"Home Care, Durable Medical Equipment",8347,"2401 Gillham Road
Kansas City, Missouri 64108","2401 Gillham Road
Kansas City",Missouri 64108,,,"DBA: Children's Mercy Home Care700 NW Argosy Parkway, Suite 200, Riverside, MO, 64150"
"DeBalko's Pharmacy, Inc.","Home Care, Durable Medical Equipment",120999,"322 S Hancock St
McAdoo, Pennsylvania 18237","322 S Hancock St
McAdoo",Pennsylvania 18237,,,"DBA: DeBalko's Standard Drug and Standard Drug Store322 South Hancock Street, McAdoo, PA, 18237"
Dayton Children's Hospital,"Home Care, Durable Medical Equipment",7033,"One Children's Plaza
Dayton, Ohio 45404-1815","One Children's Plaza
Dayton",Ohio 45404-1815,,,"DBA: Kettering Testing Center-Dayton Children's Hospital4475 Far Hills Avenue, Dayton, OH, 45429"
Altru Health System,"Home Care, Durable Medical Equipment",8434,"1200 South Columbia Road
Grand Forks, North Dakota 58206-6002","1200 South Columbia Road
Grand Forks",North Dakota 58206-6002,,,"1200 South Columbia Road, Grand Forks, ND, 58206-6002"
Fresno Community Hospital and Medical Center,"Home Care, Durable Medical Equipment",9832,"2823 Fresno St.
Fresno, California 93721","2823 Fresno St.
Fresno",California 93721,,,"DBA: Community Regional Medical Center2823 Fresno Street, Fresno, CA, 93715"
"DLP Marquette General Hospital, LLC","Home Care, Durable Medical Equipment",7552,"850 W Baraga Ave
Marquette, Michigan 49855","850 W Baraga Ave
Marquette",Michigan 49855,,,"DBA: UP Health System Family Medicine Marquette1414 West Fair, Suite 36, Marquette, MI, 49855"
"Medical Comfort Systems, Inc.","Home Care, Durable Medical Equipment",116303,"112 A White Oak Lane
Lexington, South Carolina 29073","112 A White Oak Lane
Lexington",South Carolina 29073,,,"DBA: At Home Hospital Equipment112-A White Oak Lane, Lexington, SC, 29073"
Good Samaritan Hospital,"Home Care, Durable Medical Equipment",7228,"520 South Seventh Street
Vincennes, Indiana 47591","520 South Seventh Street
Vincennes",Indiana 47591,,,"1201 Main Street, Monroe City, IN, 47557"
MemorialCare Long Beach Medical Center,"Home Care, Durable Medical Equipment",9908,"2801 Atlantic Avenue
Long Beach, California 90806","2801 Atlantic Avenue
Long Beach",California 90806,,,"2810 Long Beach Blvd. 2nd Floor, Long Beach, CA, 90806"
St. Joseph Medical Center,"Home Care, Durable Medical Equipment",9648,"1717 South J Street
Tacoma, Washington 98405","1717 South J Street
Tacoma",Washington 98405,,,"1717 South J Street, Tacoma, WA, 98401-2197"
"Waukesha Memorial Hospital, Inc.","Home Care, Durable Medical Equipment",7714,"725 American Avenue
Waukesha, Wisconsin 53188-5099","725 American Avenue
Waukesha",Wisconsin 53188-5099,,,"1500 Walnut Ridge Drive, Hartland, WI, 53029"
Bellin Health,"Home Care, Durable Medical Equipment",7638,"744 S Webster Avenue
Green Bay, Wisconsin 54305-3400","744 S Webster Avenue
Green Bay",Wisconsin 54305-3400,,,"DBA: Bellin Health Home Care Equipment1220 E. Mason Street, Green Bay, WI, 54301"
"Blount Memorial Hospital, Inc.","Home Care, Durable Medical Equipment",7865,"907 East Lamar Alexander Parkway
Maryville, Tennessee 37804-5016","907 East Lamar Alexander Parkway
Maryville",Tennessee 37804-5016,,,"DBA: Blount Memorial Hospital907 East Lamar Alexander Parkway, Maryville, TN, 37804-5016"
"Community Health Network, Inc.","Home Care, Durable Medical Equipment",7172,"1500 N. Ritter Avenue
Indianapolis, Indiana 46219","1500 N. Ritter Avenue
Indianapolis",Indiana 46219,,,"1500 N. Ritter Ave., Indianapolis, IN, 46219"
Trinity Hospitals,"Home Care, Durable Medical Equipment",8443,"2305 37th Ave. SW
Minot, North Dakota 58701","2305 37th Ave. SW
Minot",North Dakota 58701,,,"2305 37th Ave. SW, Minot, ND, 58701"
"AtHome Medical, Inc.","Home Care, Durable Medical Equipment",10910,"200 The American Road
Morris Plains, New Jersey 07950","200 The American Road
Morris Plains",New Jersey 07950,,,"200 The  American Road, Morris Plains, NJ, 07950"
Sarah Bush Lincoln Health Center,"Home Care, Durable Medical Equipment",7257,"1000 Health Center Drive
Mattoon, Illinois 61938","1000 Health Center Drive
Mattoon",Illinois 61938,,,"1000 Health Center Drive, Mattoon, IL, 61938-4644"
"Para Pharm, Inc.","Home Care, Durable Medical Equipment",41131,"1213 Main Street
Willimantic, Connecticut 06226","1213 Main Street
Willimantic",Connecticut 06226,,,"DBA: Medical Pharmacy1213 Main St., Willimantic, CT, 06226"
"Enos Home Oxygen Therapy, Inc.","Home Care, Durable Medical Equipment",12102,"35 Welby Road
New Bedford, Massachusetts 02745","35 Welby Road
New Bedford",Massachusetts 02745,,,"DBA: Enos Home Oxygen & Medical Supply, Inc.35 Welby Road, New Bedford, MA, 02745"
Amery Regional Medical Center,"Home Care, Durable Medical Equipment",7614,"265 Griffin Street East
Amery, Wisconsin 54001-1412","265 Griffin Street East
Amery",Wisconsin 54001-1412,,,"357 Third Avenue, Clear Lake, WI, 54005"
Marian Health Center SMHC,"Home Care, Durable Medical Equipment",8301,"801 Fifth Street
Sioux City, Iowa 51101","801 Fifth Street
Sioux City",Iowa 51101,,,"DBA: MercyOne Siouxland Medical Center801 Fifth Street, Sioux City, IA, 51101"
The University of Kansas Hospital Authority,"Home Care, Durable Medical Equipment",8567,"4000 Cambridge Street
Kansas City, Kansas 66160-7200","4000 Cambridge Street
Kansas City",Kansas 66160-7200,,,"DBA: The University of Kansas Hospital4000 Cambridge Street, Kansas City, KS, 66160"
Baptist Home Medical Equipment,"Home Care, Durable Medical Equipment",11684,"1600 Century Center Parkway, Suite 101
Memphis, Tennessee 38134",1600 Century Center Parkway,"Suite 101
Memphis",Tennessee,38134,"2627 5th St. North, Columbus, MS, 39705"
Scott & White Memorial Hospital,"Home Care, Durable Medical Equipment",9241,"2401 S 31st St
Temple, Texas 76508-0001","2401 S 31st St
Temple",Texas 76508-0001,,,"DBA: Baylor Scott & White Medical Center - Temple2401 S 31st St, Temple, TX, 76508-0001"
Gillette Children's,"Home Care, Durable Medical Equipment",8188,"200 University Ave
Saint Paul, Minnesota 55101","200 University Ave
Saint Paul",Minnesota 55101,,,"200 University Ave, Saint Paul, MN, 55101"
Medical Alternatives,"Home Care, Durable Medical Equipment",11742,"6949 Appling Farms Parkway, Suite 109
Memphis, Tennessee 38133",6949 Appling Farms Parkway,"Suite 109
Memphis",Tennessee,38133,"DBA: Medical Alternatives6949 Appling Farms Parkway, Suite 109, Memphis, TN, 38133"
"Parkview Hospital, Inc.","Home Care, Durable Medical Equipment",7158,"11109 Parkview Plaza Dr.
Fort Wayne, Indiana 46845","11109 Parkview Plaza Dr.
Fort Wayne",Indiana 46845,,,"1331 Minnich Road, New Haven, IN, 46774"
SwedishAmerican Hospital,"Home Care, Durable Medical Equipment",7420,"1401 E. State Street
Rockford, Illinois 61104-9863","1401 E. State Street
Rockford",Illinois 61104-9863,,,"DBA: UW Health SwedishAmerican Hospital1401 E. State Street, Rockford, IL, 61104-9893"
"Maxor National Pharmacy Services, LLC","Home Care, Durable Medical Equipment",11436,"6101 43rd Street, Suite C
Lubbock, Texas 79407",6101 43rd Street,"Suite C
Lubbock",Texas,79407,"DBA: Maxor Specialty Pharmacy216 S Polk Street, Amarillo, TX, 79101"
State University of Iowa,"Home Care, Durable Medical Equipment",8266,"200 Hawkins Drive
Iowa City, Iowa 52242","200 Hawkins Drive
Iowa City",Iowa 52242,,,"DBA: University of Iowa Health Care Medical Center - Dialysis Center North Liberty5 Lion Drive, North Liberty, IA, 52317"
Bowling Green-Warren County Community Hospital Corporation,"Home Care, Durable Medical Equipment",7729,"250 Park Street
Bowling Green, Kentucky 42102-9010","250 Park Street
Bowling Green",Kentucky 42102-9010,,,"DBA: The Medical Center at Scottsville456 Burnley Road, Scottsville, KY, 42164"
Seattle Children's Hospital,"Home Care, Durable Medical Equipment",9614,"4800 Sand Point Way NE
Seattle, Washington 98105","4800 Sand Point Way NE
Seattle",Washington 98105,,,"2525 220th St. SE, Ste. 101, Bothell, WA, 98021-0444"
Pella Regional Health Center,"Home Care, Durable Medical Equipment",8294,"404 Jefferson Street
Pella, Iowa 50219","404 Jefferson Street
Pella",Iowa 50219,,,"411 Merrill, Bussey, IA, 50044"
Enloe Medical Center,"Home Care, Durable Medical Equipment",9785,"1531 Esplanade
Chico, California 95926","1531 Esplanade
Chico",California 95926,,,"1390 East Lassen Avenue, Chico, CA, 95973"
Saint Elizabeth Regional Medical Center,"Home Care, Durable Medical Equipment",8502,"555 South 70th Street
Lincoln, Nebraska 68510","555 South 70th Street
Lincoln",Nebraska 68510,,,"DBA: CHI Health St. Elizabeth555 South 70th Street, Lincoln, NE, 68510"
"Little Company of Mary Hospital of Indiana, Inc.","Home Care, Durable Medical Equipment",7180,"800 West Ninth Street
Jasper, Indiana 47546","800 West Ninth Street
Jasper",Indiana 47546,,,"DBA: Ferdinand Family Medicine115 S. Main Street, Ferdinand, IN, 47532"
Aultman Hospital,"Home Care, Durable Medical Equipment",6981,"2600 Sixth Street SW
Canton, Ohio 44710","2600 Sixth Street SW
Canton",Ohio 44710,,,"6100 Whipple Avenue, Northwest, North Canton, OH, 44720"
Memorial Medical Center,"Home Care, Durable Medical Equipment",7431,"701 North First Street
Springfield, Illinois 62781-0001","701 North First Street
Springfield",Illinois 62781-0001,,,"DBA: Memorial Home Medical Supply644 North Second Street, Springfield, IL, 62781-0001"
Dickinson County Healthcare System,"Home Care, Durable Medical Equipment",7532,"1721 South Stephenson Avenue
Iron Mountain, Michigan 49801","1721 South Stephenson Avenue
Iron Mountain",Michigan 49801,,,"DBA: MMC-Dickinson (Hospital Proper)1721 South Stephenson Avenue, Iron Mountain, MI, 49801"
"W.A. Foote Memorial Hospital, Inc.","Home Care, Durable Medical Equipment",7536,"205 N. East Ave
Jackson, Michigan 49201","205 N. East Ave
Jackson",Michigan 49201,,,"2424 W. Washington Ave, Suite 200, Jackson, MI, 49203"
Mercy Medical Center,"Home Care, Durable Medical Equipment",8448,"1301 15th Avenue West
Williston, North Dakota 58801","1301 15th Avenue West
Williston",North Dakota 58801,,,"DBA: CHI St. Alexius Health, Williston Medical Center1301 15th Avenue West, Williston, ND, 58801"
Taylor Regional Hospital Inc.,"Home Care, Durable Medical Equipment",6700,"222 Perry Hwy.
Hawkinsville, Georgia 31036","222 Perry Hwy.
Hawkinsville",Georgia 31036,,,"222 Perry Hwy, Hawkinsville, GA, 31036"
"Lakeview Memorial Hospital Association, Inc.","Home Care, Durable Medical Equipment",8201,"927 West Churchill Street
Stillwater, Minnesota 55082","927 West Churchill Street
Stillwater",Minnesota 55082,,,"927 West Churchill  Street, Stillwater, MN, 55082"
"St. Joseph Mercy Chelsea, Inc.","Home Care, Durable Medical Equipment",7471,"775 South Main Street
Chelsea, Michigan 48118","775 South Main Street
Chelsea",Michigan 48118,,,"775 South Main Street, Chelsea, MI, 48118"
T. J. Samson Community Hospital,"Home Care, Durable Medical Equipment",7745,"1301 North Race Street
Glasgow, Kentucky 42141","1301 North Race Street
Glasgow",Kentucky 42141,,,"DBA: T J Samson Home Care1301 North Race Street, Glasgow, KY, 42141-3454"
"Hershel ""Woody"" Williams VA Medical Center","Home Care, Durable Medical Equipment",6435,"1540 Spring Valley Drive
Huntington, West Virginia 25704","1540 Spring Valley Drive
Huntington",West Virginia 25704,,,"1540 Spring Valley Drive, Huntington, WV, 25704"
Loyola University Medical Center,"Home Care, Durable Medical Equipment",7288,"2160 South First Avenue
Maywood, Illinois 60153","2160 South First Avenue
Maywood",Illinois 60153,,,"DBA: Loyola Center for Health at Oakbrook1 South 260 Summit Avenue, Oakbrook Terrace, IL, 60181"
Fort Sanders Regional Medical Center,"Home Care, Durable Medical Equipment",7850,"1901 Clinch Avenue
Knoxville, Tennessee 37916","1901 Clinch Avenue
Knoxville",Tennessee 37916,,,"3517 Emory Road Suite P-9, Powell, TN, 37849"
Boston Medical Center Corporation,"Home Care, Durable Medical Equipment",5515,"One Boston Medical Center Place
Boston, Massachusetts 02118","One Boston Medical Center Place
Boston",Massachusetts 02118,,,"637 Washington Street, Dorchester, MA, 02124"
Trinity Health Saint Joseph Mercy Ann Arbor,"Home Care, Durable Medical Equipment",7455,"5301 E. Huron River Drive
Ann Arbor, Michigan 48106","5301 E. Huron River Drive
Ann Arbor",Michigan 48106,,,"990 West Ann Arbor Trail, Plymouth, MI, 48170"
"Marion General Hospital, Inc.","Home Care, Durable Medical Equipment",7071,"1000 McKinley Park Drive
Marion, Ohio 43302","1000 McKinley Park Drive
Marion",Ohio 43302,,,"DBA: OhioHealth Marion General Hospital1000 McKinley Park Drive, Marion, OH, 43302"
Community Mercy Health Partners,"Home Care, Durable Medical Equipment",7100,"100 Medical Center Drive
Springfield, Ohio 45504","100 Medical Center Drive
Springfield",Ohio 45504,,,"DBA: Mercy Health - Urbana Hospital904 Scioto Street, Urbana, OH, 43078"
Eastern Oklahoma VA Health Care System,"Home Care, Durable Medical Equipment",8866,"1011 Honor Heights Drive
Muskogee, Oklahoma 74401","1011 Honor Heights Drive
Muskogee",Oklahoma 74401,,,"1011 Honor Heights Drive, Muskogee, OK, 74401"
Winneshiek Medical Center,"Home Care, Durable Medical Equipment",8243,"901 Montgomery Street
Decorah, Iowa 52101","901 Montgomery Street
Decorah",Iowa 52101,,,"DBA: WinnMed901 Montgomery Street, Decorah, IA, 52101"
University of Kentucky Hospital,"Home Care, Durable Medical Equipment",7760,"800 Rose Street
Lexington, Kentucky 40536-0293","800 Rose Street
Lexington",Kentucky 40536-0293,,,"800 Rose Street, Lexington, KY, 40536-0298"
"Holmes Regional Medical Center, Inc.","Home Care, Durable Medical Equipment",6847,"1350 South Hickory Street
Melbourne, Florida 32901-3276","1350 South Hickory Street
Melbourne",Florida 32901-3276,,,"DBA: Holmes Regional Medical Center1350 South Hickory Street, Melbourne, FL, 32901"
"St. Claire Medical Center, Inc.","Home Care, Durable Medical Equipment",7782,"222 Medical Circle
Morehead, Kentucky 40351","222 Medical Circle
Morehead",Kentucky 40351,,,"DBA: St. Claire Regional Medical Center222 Medical Circle, Morehead, KY, 40351-1180"
"Mercy Health - St. Rita's Medical Center, LLC","Home Care, Durable Medical Equipment",7062,"730 West Market Street
Lima, Ohio 45801","730 West Market Street
Lima",Ohio 45801,,,"DBA: Mercy Health - St. Rita's Medical Center730 West Market Street, Lima, OH, 45801"
University of Wisconsin Hospitals and Clinics Authority,"Home Care, Durable Medical Equipment",7656,"600 Highland Avenue
Madison, Wisconsin 53792","600 Highland Avenue
Madison",Wisconsin 53792,,,"DBA: UW Health University Station Clinics2880 University Avenue, Madison, WI, 53705"
"East Tennessee Children's Hospital Association,Inc.","Home Care, Durable Medical Equipment",7849,"2018 Clinch Avenue
Knoxville, Tennessee 37916","2018 Clinch Avenue
Knoxville",Tennessee 37916,,,"DBA: East Tennessee Children's Hospital2018 Clinch Avenue, Knoxville, TN, 37916"
Northern Illinois Medical Center,"Home Care, Durable Medical Equipment",7375,"4201 Medical Center Drive
McHenry, Illinois 60050","4201 Medical Center Drive
McHenry",Illinois 60050,,,"2507 N. Richmond Rd, McHenry, IL, 60050-5407"
Park Nicollet Methodist Hospital,"Home Care, Durable Medical Equipment",8151,"6500 Excelsior Boulevard
Saint Louis Park, Minnesota 55426","6500 Excelsior Boulevard
Saint Louis Park",Minnesota 55426,,,"6500 Excelsior Boulevard, Saint Louis Park, MN, 55426"
"Prairie du Chien Memorial Hospital Association, Inc.","Home Care, Durable Medical Equipment",7692,"37868 US Highway 18
Prairie Du Chien, Wisconsin 53821","37868 US Highway 18
Prairie Du Chien",Wisconsin 53821,,,"DBA: Crossing Rivers Health37868 US Highway 18, Prairie Du Chien, WI, 53821"
North Mississippi Medical Center,"Home Care, Durable Medical Equipment",8093,"830 South Gloster
Tupelo, Mississippi 38801","830 South Gloster
Tupelo",Mississippi 38801,,,"830 South Gloster Street, Tupelo, MS, 38801"
"Black River Memorial Hospital, Inc.","Home Care, Durable Medical Equipment",7622,"711 West Adams
Black River Falls, Wisconsin 54615","711 West Adams
Black River Falls",Wisconsin 54615,,,"711 West Adams, Black River Falls, WI, 54615"
Saint Vincent Health Center,"Home Care, Durable Medical Equipment",6061,"232 West 25th Street
Erie, Pennsylvania 16544","232 West 25th Street
Erie",Pennsylvania 16544,,,"232 West 25th Street, Erie, PA, 16544"
Memorial Regional Hospital,"Home Care, Durable Medical Equipment",6811,"3501 Johnson Street
Hollywood, Florida 33021","3501 Johnson Street
Hollywood",Florida 33021,,,"DBA: Memorial Regional Hospital3501 Johnson Street, Hollywood, FL, 33021"
Mercy Health Services - Iowa Corp,"Home Care, Durable Medical Equipment",8278,"1000 4th Street Southwest
Mason City, Iowa 50401","1000 4th Street Southwest
Mason City",Iowa 50401,,,"DBA: MercyOne North Iowa Medical Center1000 4th Street Southwest, Mason City, IA, 50401"
Knox Community Hospital,"Home Care, Durable Medical Equipment",7079,"1330 Coshocton Avenue
Mount Vernon, Ohio 43050","1330 Coshocton Avenue
Mount Vernon",Ohio 43050,,,"1330 Coshocton Avenue, Mount Vernon, OH, 43050"
Cherokee Indian Hospital,"Home Care, Durable Medical Equipment",6485,"100 Hospital Road
Cherokee, North Carolina 28719","100 Hospital Road
Cherokee",North Carolina 28719,,,"100 Hospital Road, Cherokee, NC, 28719"
"Ephraim McDowell Regional Medical Center, Inc.","Home Care, Durable Medical Equipment",7737,"217 South Third Street
Danville, Kentucky 40422","217 South Third Street
Danville",Kentucky 40422,,,"DBA: McDowell MedSource330 South Fourth Street, Suite B, Danville, KY, 40422"
Salem Community Hospital,"Home Care, Durable Medical Equipment",7096,"1995 East State Street
Salem, Ohio 44460","1995 East State Street
Salem",Ohio 44460,,,"DBA: Salem Regional Medical Center1995 East State Street, Salem, OH, 44460"
Rector & Visitors of the University of Virginia,"Home Care, Durable Medical Equipment",6329,"1215 Lee Street
Charlottesville, Virginia 22908","1215 Lee Street
Charlottesville",Virginia 22908,,,"2871 Rockfish Valley Highway, Nellysford, VA, 22958"
Grand View Hospital,"Home Care, Durable Medical Equipment",6196,"700 Lawn Avenue
Sellersville, Pennsylvania 18960","700 Lawn Avenue
Sellersville",Pennsylvania 18960,,,"DBA: Grand View Health700 Lawn Avenue, Sellersville, PA, 18960"
Cincinnati Children's Hospital Medical Center,"Home Care, Durable Medical Equipment",6986,"3333 Burnet Avenue
Cincinnati, Ohio 45229-3039","3333 Burnet Avenue
Cincinnati",Ohio 45229-3039,,,"9560 Children's Drive, Mason, OH, 45040"
"Tanner Medical Center, Inc.","Home Care, Durable Medical Equipment",6668,"705 Dixie Street
Carrollton, Georgia 30117","705 Dixie Street
Carrollton",Georgia 30117,,,"705 Dixie Street, Carrollton, GA, 30117"
Mary Rutan Hospital,"Home Care, Durable Medical Equipment",6971,"205 Palmer Avenue
Bellefontaine, Ohio 43311","205 Palmer Avenue
Bellefontaine",Ohio 43311,,,"205 Palmer Ave, Bellefontaine, OH, 43311"
"Kent County Memorial Hospital, Inc.","Home Care, Durable Medical Equipment",5655,"455 Toll Gate Road
Warwick, Rhode Island 02886","455 Toll Gate Road
Warwick",Rhode Island 02886,,,"455 Toll Gate Road, Warwick, RI, 02886"
Saint Joseph Regional Medical Center - South Bend,"Home Care, Durable Medical Equipment",7221,"5215 Holy Cross Parkway
Mishawaka, Indiana 46545","5215 Holy Cross Parkway
Mishawaka",Indiana 46545,,,"611 E Douglas, Mishawaka, IN, 46545"
James A. Haley Veterans' Hospital,"Home Care, Durable Medical Equipment",4616,"13000 Bruce B. Downs Boulevard
Tampa, Florida 33612","13000 Bruce B. Downs Boulevard
Tampa",Florida 33612,,,"13000 Bruce B. Downs Boulevard, Tampa, FL, 33612"
Children's Hospital Medical Center of Akron,"Home Care, Durable Medical Equipment",6963,"One Perkins Square
Akron, Ohio 44308-1063","One Perkins Square
Akron",Ohio 44308-1063,,,"8054 Darrow Rd Ste 4, Twinsburg, OH, 44087"
Summa Health System,"Home Care, Durable Medical Equipment",6964,"525 East Market Street
Akron, Ohio 44309","525 East Market Street
Akron",Ohio 44309,,,"DBA: Summa Health Cuyahoga Falls Medical Center1860 State Road, Cuyahoga Falls, OH, 44223"
"John D. Archbold Memorial Hospital, Inc.","Home Care, Durable Medical Equipment",6733,"915 Gordon Avenue
Thomasville, Georgia 31792","915 Gordon Avenue
Thomasville",Georgia 31792,,,"2705 East Pinetree Blvd., Thomasville, GA, 31792"
James H. Quillen VA Medical Center,"Home Care, Durable Medical Equipment",4557,"Veterans Way and Lamont Streets
Mountain Home, Tennessee 37684","Veterans Way and Lamont Streets
Mountain Home",Tennessee 37684,,,"Veterans Way and Lamont Streets, Mountain Home, TN, 37684"
VA Medical Center - James E. Van Zandt,"Home Care, Durable Medical Equipment",4583,"2907 Pleasant Valley Boulevard
Altoona, Pennsylvania 16602-4377","2907 Pleasant Valley Boulevard
Altoona",Pennsylvania 16602-4377,,,"DBA: VA Altoona2907 Pleasant Valley Boulevard, Altoona, PA, 16602-4377"
University of North Carolina Hospitals,"Home Care, Durable Medical Equipment",6478,"101 Manning Drive
Chapel Hill, North Carolina 27514","101 Manning Drive
Chapel Hill",North Carolina 27514,,,"1101 Weaver Dairy Road  Suite 200, Chapel Hill, NC, 27514"
Marian Regional Medical Center,"Home Care, Durable Medical Equipment",4674,"1400 E Church Street
Santa Maria, California 93454","1400 E Church Street
Santa Maria",California 93454,,,"1530 East Cypress Street, Santa Maria, CA, 93454"
Chickasaw Nation Department of Health,"Home Care, Durable Medical Equipment",5193,"1921 Stonecipher Boulevard
Ada, Oklahoma 74820","1921 Stonecipher Boulevard
Ada",Oklahoma 74820,,,"DBA: Chickasaw Nation Department of Health1921 Stonecipher Road, Ada, OK, 74820"
"Aspirus Medford Hospital & Clinics, Inc.","Home Care, Durable Medical Equipment",4438,"135 South Gibson Street
Medford, Wisconsin 54451","135 South Gibson Street
Medford",Wisconsin 54451,,,"DBA: Aspirus Medford Hospital135 S Gibson Street, Medford, WI, 54451"
"The Matheny School and Hospital, Inc.","Home Care, Durable Medical Equipment",5979,"65 Highland Avenue
Peapack, New Jersey 07977","65 Highland Avenue
Peapack",New Jersey 07977,,,"DBA: Matheny Medical and Educational Center65 Highland Avenue, Peapack, NJ, 07977"
Northern Maine Medical Center,"Home Care, Durable Medical Equipment",5435,"194 East Main Street
Fort Kent, Maine 04743","194 East Main Street
Fort Kent",Maine 04743,,,"25 Buldoc Avenue, Fort Kent, ME, 04743"
Cumberland Memorial Hospital Inc.,"Home Care, Durable Medical Equipment",4430,"1705 16th Avenue
Cumberland, Wisconsin 54829","1705 16th Avenue
Cumberland",Wisconsin 54829,,,"DBA: Cumberland Healthcare1705 16th Avenue, Cumberland, WI, 54829-0037"
Charles Cole Memorial Hospital,"Home Care, Durable Medical Equipment",3695,"1001 East Second Street
Coudersport, Pennsylvania 16915","1001 East Second Street
Coudersport",Pennsylvania 16915,,,"139 Main Street, Eldred, PA, 16731"
Santa Clara Valley Medical Center,"Home Care, Durable Medical Equipment",4779,"751 South Bascom Avenue
San Jose, California 95128","751 South Bascom Avenue
San Jose",California 95128,,,"751 South Bascom Avenue, San Jose, CA, 95128"
Children's Hospital of Philadelphia,"Home Care, Durable Medical Equipment",6123,"3401 Civic Center Boulevard
Philadelphia, Pennsylvania 19104","3401 Civic Center Boulevard
Philadelphia",Pennsylvania 19104,,,"101 Plainsboro, Plainsboro, NJ, 08536"
Jackson-Madison County General Hospital,"Home Care, Durable Medical Equipment",4717,"620 Skyline Drive
Jackson, Tennessee 38301","620 Skyline Drive
Jackson",Tennessee 38301,,,"700 W. Forest Ave., Suite 100, Jackson, TN, 38301"
Graham Hospital Assoc.,"Home Care, Durable Medical Equipment",4661,"210 West Walnut Street
Canton, Illinois 61520","210 West Walnut Street
Canton",Illinois 61520,,,"210 West Walnut Street, Canton, IL, 61520"
Lebanon VA Medical Center,"Home Care, Durable Medical Equipment",2282,"1700 South Lincoln Avenue
Lebanon, Pennsylvania 17042","1700 South Lincoln Avenue
Lebanon",Pennsylvania 17042,,,"1700 South Lincoln Ave, Lebanon, PA, 17042"
Presence Chicago Hospitals Network,"Home Care, Durable Medical Equipment",3836,"7435 West Talcott Avenue
Chicago, Illinois 60631-3746","7435 West Talcott Avenue
Chicago",Illinois 60631-3746,,,"DBA: Presence Resurrection Medical Center7435 W Talcott Ave, Chicago, IL, 60631"
VA Medical Center,"Home Care, Durable Medical Equipment",4484,"718 Smyth Road
Manchester, New Hampshire 03104-4098","718 Smyth Road
Manchester",New Hampshire 03104-4098,,,"302 Newmarket Street, Portsmouth, NH, 03803-0157"
"Upland Hills Health, Inc.","Home Care, Durable Medical Equipment",3974,"800 Compassion Way
Dodgeville, Wisconsin 53533","800 Compassion Way
Dodgeville",Wisconsin 53533,,,"800 Compassion Way, Dodgeville, WI, 53533"
Cheyenne VA Health Care System,"Home Care, Durable Medical Equipment",2553,"2360 East Pershing Boulevard
Cheyenne, Wyoming 82001","2360 East Pershing Boulevard
Cheyenne",Wyoming 82001,,,"2360 East Pershing Boulevard, Cheyenne, WY, 82001"
Boise VA Medical Center,"Home Care, Durable Medical Equipment",4740,"500 West Fort Street
Boise, Idaho 83702-4598","500 West Fort Street
Boise",Idaho 83702-4598,,,"500 West Fort Street, Boise, ID, 83702-4598"
Spokane VA Medical Center,"Home Care, Durable Medical Equipment",4602,"North 4815 Assembly Street
Spokane, Washington 99205","North 4815 Assembly Street
Spokane",Washington 99205,,,"4815 N. Assembly Street, Spokane, WA, 99205"
"Lenoir Memorial Hospital, Incorporated","Home Care, Durable Medical Equipment",4788,"100 Airport Road
Kinston, North Carolina 28501","100 Airport Road
Kinston",North Carolina 28501,,,"DBA: Down East Medical Supply2903 North Herritage, Kinston, NC, 28501"
Mercy Medical Center Clinton Inc.,"Home Care, Durable Medical Equipment",4934,"1410 North 4th Street
Clinton, Iowa 52732","1410 North 4th Street
Clinton",Iowa 52732,,,"DBA: MercyOne Clinton Medical Center1410 North Fourth Street, Clinton, IA, 52732"
MyMichigan Medical Center Midland,"Home Care, Durable Medical Equipment",3985,"4000 Wellness Drive
Midland, Michigan 48670","4000 Wellness Drive
Midland",Michigan 48670,,,"4401 Campus Ridge Drive, Suite 1000, Midland, MI, 48640"
"Mile Bluff Medical Center, Inc.","Home Care, Durable Medical Equipment",4437,"1050 Division Street
Mauston, Wisconsin 53948","1050 Division Street
Mauston",Wisconsin 53948,,,"1515 Academy Street, Elroy, WI, 53929"
Sonora Community Hospital,"Home Care, Durable Medical Equipment",4671,"1000 Greenley Road
Sonora, California 95370","1000 Greenley Road
Sonora",California 95370,,,"DBA: Adventist Health Sonora Outpatient Clinics Primary Care18661 Highway 120, Groveland, CA, 95321"
Covenant Medical Center-Wheaton Franciscan Healthcare-Iowa,"Home Care, Durable Medical Equipment",5285,"3421 West 9th Street
Waterloo, Iowa 50702","3421 West 9th Street
Waterloo",Iowa 50702,,,"DBA: MercyOne Waterloo Medical Center3421 West Ninth Street, Waterloo, IA, 50702"
VA Northeast Ohio Healthcare System,"Home Care, Durable Medical Equipment",2416,"10701 East Boulevard
Cleveland, Ohio 44106","10701 East Boulevard
Cleveland",Ohio 44106,,,"8787 BrookPark Road, Parma, OH, 44129"
Charles George VA Medical Center,"Home Care, Durable Medical Equipment",2272,"1100 Tunnel Road
Asheville, North Carolina 28805","1100 Tunnel Road
Asheville",North Carolina 28805,,,"1100 Tunnel Road, Asheville, NC, 28805"
Rady Children's Hospital San Diego,"Home Care, Durable Medical Equipment",2789,"3020 Children's Way
San Diego, California 92123-4282","3020 Children's Way
San Diego",California 92123-4282,,,"3020 Children's Way, San Diego, CA, 92123-4282"
"Portage Hospital, LLC","Home Care, Durable Medical Equipment",2827,"500 Campus Drive
Hancock, Michigan 49930","500 Campus Drive
Hancock",Michigan 49930,,,"DBA: UP Health System Portage500 Campus Drive, Hancock, MI, 49930"
Bob Stump Department of Veterans Affairs Medical Center,"Home Care, Durable Medical Equipment",2158,"500 Highway 89 North
Prescott, Arizona 86313","500 Highway 89 North
Prescott",Arizona 86313,,,
Roseburg VA Health Care System,"Home Care, Durable Medical Equipment",2551,"913 NW Garden Valley Boulevard
Roseburg, Oregon 97471","913 NW Garden Valley Boulevard
Roseburg",Oregon 97471,,,"913 Northwest Garden Valley Boulevard, Roseburg, OR, 97471"
VA Butler Health Care System,"Home Care, Durable Medical Equipment",2281,"353 N Duffy Road
Butler, Pennsylvania 16001-2480","353 N Duffy Road
Butler",Pennsylvania 16001-2480,,,"353 N. Duffy Road, Butler, PA, 16001-2480"
Martinsburg VA Medical Center,"Home Care, Durable Medical Equipment",2321,"510 Butler Avenue
Martinsburg, West Virginia 25405","510 Butler Avenue
Martinsburg",West Virginia 25405,,,"200 Glenn Street, Cumberland, MD, 21502"
Mercy Health Services - Iowa,"Home Care, Durable Medical Equipment",2405,"250 Mercy Drive
Dubuque, Iowa 52001","250 Mercy Drive
Dubuque",Iowa 52001,,,"DBA: MercyOne Dyersville Senior Care1111 Third Street Southwest, Dyersville, IA, 52040"
VA Central Western Massachusetts Healthcare System,"Home Care, Durable Medical Equipment",1552,"421 North Main Street
Leeds, Massachusetts 01053-9764","421 North Main Street
Leeds",Massachusetts 01053-9764,,,"78 Center St., 2nd Fl., Pittsfield, MA, 01201"
Nadonah Medical Supply,"Home Care, Durable Medical Equipment",468621,"44245 20th Street West
Lancaster, California 93534","44245 20th Street West
Lancaster",California 93534,,,"44245 20th Street West, Lancaster, CA, 93534"
Santa Monica - UCLA Medical Center and Orthopaedic Hospital,"Home Care, Durable Medical Equipment",10129,"1250 16th Street
Santa Monica, California 90404","1250 16th Street
Santa Monica",California 90404,,,"1250 16th Street, Santa Monica, CA, 90404"
"St. Joseph Health Northern California, LLC","Home Care, Durable Medical Equipment",9821,"2700 Dolbeer Street
Eureka, California 95501","2700 Dolbeer Street
Eureka",California 95501,,,"DBA: Providence Humboldt Home Infusion2612 Harrison Avenue, Eureka, CA, 95501"
Health and Hospital Corporation of Marion County,"Home Care, Durable Medical Equipment",7173,"720 Eskenazi Avenue
Indianapolis, Indiana 46202","720 Eskenazi Avenue
Indianapolis",Indiana 46202,,,"2700 Dr. Martin Luther King Jr. Street, Indianapolis, IN, 46208"
Missouri Delta Medical Center,"Home Care, Durable Medical Equipment",8402,"1008 North Main Street
Sikeston, Missouri 63801","1008 North Main Street
Sikeston",Missouri 63801,,,"DBA: Charleston Community Care Center1403 East Marshall Street, Charleston, MO, 63834"
Sanford Medical Center Fargo,"Home Care, Durable Medical Equipment",8430,"5225 23rd Avenue South
Fargo, North Dakota 58104","5225 23rd Avenue South
Fargo",North Dakota 58104,,,"DBA: Sanford South University1720 South University Drive, Fargo, ND, 58103"
"Seniors Medical Supply, Inc.","Home Care, Durable Medical Equipment",444896,"124 West Crescent Square Drive
Graham, North Carolina 27253","124 West Crescent Square Drive
Graham",North Carolina 27253,,,"124 West Crescent Square Drive, Graham, NC, 27253"
University of New Mexico Health Sciences Center,"Home Care, Durable Medical Equipment",9425,"2211 Lomas Blvd NE
Albuquerque, New Mexico 87106","2211 Lomas Blvd NE
Albuquerque",New Mexico 87106,,,"2600 Yale SE, Albuquerque, NM, 87106"
Regents of the University of Michigan,"Home Care, Durable Medical Equipment",7457,"1500 E Medical Center Drive, SPC 5474
Ann Arbor, Michigan 48109",1500 E Medical Center Drive,"SPC 5474
Ann Arbor",Michigan,48109,"1500 East Medical Center Drive, Ann Arbor, MI, 48109"
"Northwest Respiratory Services, LLC","Home Care, Durable Medical Equipment",11063,"1243 Eagan Industrial Road
Eagan, Minnesota 55121","1243 Eagan Industrial Road
Eagan",Minnesota 55121,,,"1243 Eagan Industrial Road, Eagan, MN, 55121"
"Hospital and Medical Foundation of Paris, Inc.","Home Care, Durable Medical Equipment",7404,"721 E Court Street
Paris, Illinois 61944","721 E Court Street
Paris",Illinois 61944,,,"DBA: Paris Community Hospital721 East Court Street, Paris, IL, 61944"
Endeavor Health Clinical Operations,"Home Care, Durable Medical Equipment",7343,"2650 Ridge Ave
Evanston, Illinois 60201","2650 Ridge Ave
Evanston",Illinois 60201,,,"DBA: Evanston Hospital2650 Ridge Avenue, Evanston, IL, 60201"
Windy City Medical Specialists LLC,"Home Care, Durable Medical Equipment",570321,"1530 S State St Ste C0003
Chicago, Illinois 60605","1530 S State St Ste C0003
Chicago",Illinois 60605,,,"1530 S State St Ste C0003, Chicago, IL, 60605"
"P & F Medical Supply, Inc","Home Care, Durable Medical Equipment",453080,"811 S. Central Expressway Ste. 541
Richardson, Texas 75080","811 S. Central Expressway Ste. 541
Richardson",Texas 75080,,,"811 S. Central Expressway Ste. 541, Richardson, TX, 75080"
Dollar Rx Inc.,"Home Care, Durable Medical Equipment",507650,"8721 Jensen Dr # H
Houston, Texas 77093","8721 Jensen Dr # H
Houston",Texas 77093,,,"DBA: Dollar Rx Pharmacy8721 Jensen Dr ste. H, Houston, TX, 77093"
Kaweah Delta Healthcare District,"Home Care, Durable Medical Equipment",10180,"400 West Mineral King
Visalia, California 93291","400 West Mineral King
Visalia",California 93291,,,"403 West Main, Visalia, CA, 93291"
"Carolinas Medical Center at Home, LLC","Home Care, Durable Medical Equipment",486204,"4425 Golf Acres Drive Building O
Charlotte, North Carolina 28208","4425 Golf Acres Drive Building O
Charlotte",North Carolina 28208,,,"DBA: Atrium Health At Home Cleveland105 T.R. Harris Drive, Shelby, NC, 28150"
"University of California, Davis Medical Center","Home Care, Durable Medical Equipment",10055,"2315 Stockton Boulevard
Sacramento, California 95817","2315 Stockton Boulevard
Sacramento",California 95817,,,"2315 Stockton Boulevard, Sacramento, CA, 95817"
"Monument Health Rapid City Hospital, Inc","Home Care, Durable Medical Equipment",8463,"353 Fairmont Boulevard, Please enter south ER (5th Street) entrance
Rapid City, South Dakota 57701",353 Fairmont Boulevard,"Please enter south ER (5th Street) entrance
Rapid City",South,Dakota,"DBA: Monument Health Behavioral Health Center915 Mountain View Road, Rapid City, SD, 57702"
"Advance Medical Supply, LLC","Home Care, Durable Medical Equipment",441656,"215 Little Falls Rd
Fairfield, New Jersey 07004","215 Little Falls Rd
Fairfield",New Jersey 07004,,,"215 Little Falls Rd, Fairfield, NJ, 07004"
"Galaxy Medical Products, LLC","Home Care, Durable Medical Equipment",357054,"1133 Medina Rd, Ste. 800
Medina, Ohio 44256",1133 Medina Rd,"Ste. 800
Medina",Ohio,44256,"1133 Medina Rd, Ste. 800, Medina, OH, 44256"
Fidelity Health Care,"Home Care, Durable Medical Equipment",10337,"3170 Kettering Boulevard
Dayton, Ohio 45439","3170 Kettering Boulevard
Dayton",Ohio 45439,,,"3170 Kettering Boulevard, Moraine, OH, 45439"
"Nations Infusion at Home, LLC","Home Care, Durable Medical Equipment",371430,"11521 Cronridge Drive, Suite L-M
Owings Mills, Maryland 21117",11521 Cronridge Drive,"Suite L-M
Owings Mills",Maryland,21117,"11521 Cronridge Drive, Suite L-M, Owings Mills, MD, 21117"
"Greene Respiratory Services, Inc.","Home Care, Durable Medical Equipment",316534,"55 W Techne Center Drive, Suite A1
Milford, Ohio 45150",55 W Techne Center Drive,"Suite A1
Milford",Ohio,45150,"55 W Techne Center Drive, Suite A1, Milford, OH, 45150"
Iowa City VA Health Care System,"Home Care, Durable Medical Equipment",8267,"601 Highway 6 West
Iowa City, Iowa 52246","601 Highway 6 West
Iowa City",Iowa 52246,,,"2826 West Locust Street, Davenport, IA, 52804-3354"
"Reliable Respiratory, Inc.","Home Care, Durable Medical Equipment",617401,"1502 Providence Highway, Suite 10
Norwood, Massachusetts 02062",1502 Providence Highway,"Suite 10
Norwood",Massachusetts,02062,"222 Holiday Drive, Suite 8, White River Junction, VT, 05001-2098"
QHM Holdings Inc,"Home Care, Durable Medical Equipment",587725,"1019 Town Drive
Wilder, Kentucky 41076","1019 Town Drive
Wilder",Kentucky 41076,,,"275 Marginal Way, Portland, ME, 04101"
VA Central California Health Care System,"Home Care, Durable Medical Equipment",4608,"2615 East Clinton Avenue
Fresno, California 93703","2615 East Clinton Avenue
Fresno",California 93703,,,"2615 East Clinton Avenue, Fresno, CA, 93703"
VA CMOP MID-SOUTH,"Home Care, Durable Medical Equipment",254560,"5171 Sam Jared Drive
Murfreesboro, Tennessee 37130","5171 Sam Jared Drive
Murfreesboro",Tennessee 37130,,,"5171 Sam Jared Drive, Murfreesboro, TN, 37130"
The Trustees of the University of Pennsylvania,"Home Care, Durable Medical Equipment",6129,"3400 Spruce Street
Philadelphia, Pennsylvania 19104","3400 Spruce Street
Philadelphia",Pennsylvania 19104,,,"DBA: Hospital of the University of Pennsylvania3400 Spruce Street, Philadelphia, PA, 19104"
Strong Memorial Hospital,"Home Care, Durable Medical Equipment",5856,"601 Elmwood Avenue
Rochester, New York 14642","601 Elmwood Avenue
Rochester",New York 14642,,,"2613 W. Henrietta Rd., Rochester, NY, 14623"
"Crystal Clinic Orthopaedic Center, LLC","Home Care, Durable Medical Equipment",471891,"3557 Embassy Parkway
Akron, Ohio 44333","3557 Embassy Parkway
Akron",Ohio 44333,,,"DBA: Falls Orthopaedics437 Portage Trail, Cuyahoga Falls, OH, 44221"
"Ryder Memorial Hospital, Inc.","Home Care, Durable Medical Equipment",415581,"355 Font Martello Ave
Humacao, Puerto Rico 00791","355 Font Martello Ave
Humacao",Puerto Rico 00791,,,"DBA: Ryder Memorial Home Care Program355 Font Martello Avenue, Humacao, PR, 00791"
Yakima Valley Memorial Hospital Association,"Home Care, Durable Medical Equipment",9659,"2811 Tieton Drive
Yakima, Washington 98902","2811 Tieton Drive
Yakima",Washington 98902,,,"DBA: Yakima Memorial Home Care Services1208 South 48th Ave, Yakima, WA, 98902"
Med Solutions LLC,"Home Care, Durable Medical Equipment",413575,"8157 Brentwood Blvd. Suite B
Brentwood, California 94513-1193","8157 Brentwood Blvd. Suite B
Brentwood",California 94513-1193,,,"8157 Brentwood Blvd Ste B, Brentwood, CA, 94513"
Pikeville Medical Center,"Home Care, Durable Medical Equipment",7791,"911 Bypass Road
Pikeville, Kentucky 41501","911 Bypass Road
Pikeville",Kentucky 41501,,,"DBA: Pikeville Medical Center, Inc.911 ByPass Road, Pikeville, KY, 41501"
"Continuum, LLC","Home Care, Durable Medical Equipment",96502,"162 Industry Dr.
Pittsburgh, Pennsylvania 15275","162 Industry Dr.
Pittsburgh",Pennsylvania 15275,,,"2536 East Castor Avenue, Philadelphia, PA, 19134"
"Nationwide Children's Hospital, Inc.","Home Care, Durable Medical Equipment",7021,"700 Children's Dr
Columbus, Ohio 43205","700 Children's Dr
Columbus",Ohio 43205,,,"255 E Main St, Columbus, OH, 43215"
"Burman's Medical Supplies, Inc.","Home Care, Durable Medical Equipment",70473,"140 Concord Rd. Suite 1
Aston, Pennsylvania 19014","140 Concord Rd. Suite 1
Aston",Pennsylvania 19014,,,"140 Concord Rd., Suite 1, Aston, PA, 19014"
VA Central Iowa Health Care System,"Home Care, Durable Medical Equipment",198416,"3600 30th Street
Des Moines, Iowa 50310-5774","3600 30th Street
Des Moines",Iowa 50310-5774,,,"1607 N. Lincoln Street, Knoxville, IA, 50138"
"MCHS Hospitals, Inc.","Home Care, Durable Medical Equipment",7661,"611 St. Joseph Avenue
Marshfield, Wisconsin 54449","611 St. Joseph Avenue
Marshfield",Wisconsin 54449,,,"DBA: Marshfield Medical Center611 St. Joseph Avenue, Marshfield, WI, 54449"
Baraga County Memorial Hospital,"Home Care, Durable Medical Equipment",4725,"18341 US Hwy. 41
Lanse, Michigan 49946","18341 US Hwy. 41
Lanse",Michigan 49946,,,"18341 US Hwy. 41, Lanse, MI, 49946"
"Koya Medical, Inc.","Home Care, Durable Medical Equipment",671330,"2461 Peralta Street
Oakland, California 94607","2461 Peralta Street
Oakland",California 94607,,,"2461 Peralta Street, Oakland, CA, 94607"
All in One Care Medical Services Inc.,"Home Care, Durable Medical Equipment",518142,"8421 Chetle Ave
Santa Fe Springs, California 90670","8421 Chetle Ave
Santa Fe Springs",California 90670,,,"8421 Chetle Ave, Santa Fe Springs, CA, 90670"
"Mercy Hospital Pittsburg, Inc.","Home Care, Durable Medical Equipment",8595,"1 Mt Carmel Way
Pittsburg, Kansas 66762","1 Mt Carmel Way
Pittsburg",Kansas 66762,,,"2711 S Rouse, Suite E, Pittsburg, KS, 66762"
The University of Vermont Medical Center,"Home Care, Durable Medical Equipment",5483,"111 Colchester Avenue
Burlington, Vermont 05401","111 Colchester Avenue
Burlington",Vermont 05401,,,"One South Prospect Street, Burlington, VT, 05401"
Lehigh Valley Hospital,"Home Care, Durable Medical Equipment",4880,"1200 S. Cedar Crest Boulevard
Allentown, Pennsylvania 18105","1200 S. Cedar Crest Boulevard
Allentown",Pennsylvania 18105,,,"DBA: Lehigh Valley Health Network-Cedar Crest1200 S. Cedar Crest Blvd., Allentown, PA, 18105-1556"
"MCHS Hospitals, Inc.","Home Care, Durable Medical Equipment",617713,"2310 Craig Road
Eau Claire, Wisconsin 54701","2310 Craig Road
Eau Claire",Wisconsin 54701,,,"DBA: Marshfield Medical Center-Eau Claire2310 Craig Road, Eau Claire, WI, 54701"
Mercer County Joint Township Community Hospital,"Home Care, Durable Medical Equipment",7020,"800 West Main Street
Coldwater, Ohio 45828","800 West Main Street
Coldwater",Ohio 45828,,,"950 S. Main St., Celina, OH, 45822"
Trinity Health Grand Rapids,"Home Care, Durable Medical Equipment",7521,"200 Jefferson Avenue Southeast
Grand Rapids, Michigan 49503","200 Jefferson Avenue Southeast
Grand Rapids",Michigan 49503,,,"200 Jefferson Avenue SE, Grand Rapids, MI, 49503"
Tuscaloosa VA Medical Center,"Home Care, Durable Medical Equipment",1676,"3701 Loop Road East
Tuscaloosa, Alabama 35404","3701 Loop Road East
Tuscaloosa",Alabama 35404,,,"3701 Loop Road East, Tuscaloosa, AL, 35404"
"HOME HEALTH PAVILION,INC","Home Care, Durable Medical Equipment",82377,"5027 ROUTE 9W
Newburgh, New York 12550","5027 ROUTE 9W
Newburgh",New York 12550,,,"87 Danbury Road Unit 1, New Milford, CT, 06776"
South Texas Medical Equipment and Supplies,"Home Care, Durable Medical Equipment",429323,"1403 Calle Del Norte
Laredo, Texas 78041-5930","1403 Calle Del Norte
Laredo",Texas 78041-5930,,,"1403 Calle del Norte, Laredo, TX, 78041"
Johns Hopkins Home Care Group Inc-JH Care at Home,"Home Care, Durable Medical Equipment",12312,"5901 Holabird Avenue, Suite A
Baltimore, Maryland 21224",5901 Holabird Avenue,"Suite A
Baltimore",Maryland,21224,"DBA: JH Home Health Services, JH Pediatrics at Home, JHPharmaquip5901 Holabird Avenue, Suite A, Baltimore, MD, 21224"
"Med South Surgical, Inc","Home Care, Durable Medical Equipment",510047,"6840 Meadowridge Ct
Alpharetta, Georgia 30005","6840 Meadowridge Ct
Alpharetta",Georgia 30005,,,"DBA: Med South Surgical6840 Meadowridge Ct, Alpharetta, GA, 30005"
Ronald Reagan UCLA Medical Center,"Home Care, Durable Medical Equipment",9944,"757 Westwood Plaza
Los Angeles, California 90095","757 Westwood Plaza
Los Angeles",California 90095,,,"DBA: 100 Medical PlazaUCLA Medical Plaza Building 100, Los Angeles, CA, 90095"
VA Healthcare System of Ohio - Cincinnati Campus,"Home Care, Durable Medical Equipment",2417,"3200 Vine Street
Cincinnati, Ohio 45220","3200 Vine Street
Cincinnati",Ohio 45220,,,"1000 South Fort Thomas Avenue, Fort Thomas, KY, 41075"
Comanche County Hospital Authority,"Home Care, Durable Medical Equipment",8857,"3401 West Gore Boulevard
Lawton, Oklahoma 73505","3401 West Gore Boulevard
Lawton",Oklahoma 73505,,,"DBA: Memorial Medical Group Obstetrics and Gynecology102 NW 31st Street, Lawton, OK, 73505"
